,LON,LAT,NUMBER,STREET,UNIT,CITY,DISTRICT,REGION,POSTCODE,ID,HASH
0,-72.01367979999999,44.5369603,39,luther cir,,LYNDON,,vt,05850,,e7dde497e70fea54
1,-71.090644,42.321469,120,martin luther king jr boulevard,,city_of_boston,,ma,02119,,56cb0199f36918ff
2,-71.180856,42.290228799999994,9,martin luther road,,city_of_boston,,ma,02132,,8135b63890193641
3,-71.9065995,42.051114299999995,10,luther lane,,DUDLEY,WORCESTER,ma,01571,,0c7d1455163735e4
4,-71.0915445,42.321120799999996,133,martin luther king jr boulevard,,ROXBURY,SUFFOLK,ma,02119,,a5933abc98f71fb5
5,-71.1505693,41.743933899999995,486,luther avenue,,SOMERSET,BRISTOL,ma,02726,,2d4c7b48a734e6d2
6,-71.3365546,41.8064152,74,luther street,,SEEKONK,BRISTOL,ma,02771,,55cb348db05926ed
7,-69.9942141,41.8355664,140,luthers lane,,EASTHAM,BARNSTABLE,ma,02642,,e49090b466886fc7
8,-71.1752792,41.898108,91,james h luther drive,,TAUNTON,BRISTOL,ma,02780,,e5b59186150e7f88
9,-70.0200412,41.9171869,40,luthers way,,WELLFLEET,BARNSTABLE,ma,02667,,deeb8e20c350ea5f
10,-71.1808573,42.290246100000005,9,martin luther road,,WEST ROXBURY,SUFFOLK,ma,02132,,d14a41551f30d862
11,-72.9522748,42.486861100000006,8,luther shaw road,,CUMMINGTON,HAMPSHIRE,ma,01026,,3b214204297beb8a
12,-71.114684,42.4228271,1,luther road,,MEDFORD,MIDDLESEX,ma,02155,,260c7b78c5b5b450
13,-70.7109345,42.138531799999996,50,captain luther little way,,MARSHFIELD,PLYMOUTH,ma,02050,,9b21c4804e1cd116
14,-71.3127427,42.64870429999999,168,martin luther king jr way,,LOWELL,MIDDLESEX,ma,01852,,a7baad5eb3fc238b
15,-71.7966541,42.2669086,100,"mlk, jr boulevard",1,WORCESTER,WORCESTER,ma,01608,,5810aef9cdf545ca
16,-71.5152878,42.759092700000004,4,lutheran dr,,city_of_nashua,,nh,,,3f600c878077f0b7
17,-71.51821770000001,42.7630562,32,lutheran dr,,Nashua,,nh,,,0066a981c6c0a742
18,-71.5152003,42.761168299999994,,l lutheran dr,,Nashua,,nh,,,d80a60eda8825283
19,-72.32997759999999,43.2208072,,luther hill rd,,Acworth,,nh,,,3a53d3f5b20bc5b9
20,-73.4219306,41.101453,28,martin luther king jr. dr,,city_of_norwalk,,ct,,,701f7c6ccc992e40
21,-71.42845559999999,41.815839700000005,1,luther,,providence,,ri,02907,,905fdb2f6bff2db0
22,-71.4594168,41.7016503,19,luther ave,,WARWICK,,ri,02886,320714,758038ba43be4810
23,-71.3843563,41.956321,8,louise f luther dr,,CUMBERLAND,,ri,02864,395402,c62dd70c9b183487
24,-71.2825689,41.7265018,17,luther st,,WARREN,,ri,02885,398338,8aa070a69601e891
25,-71.4866213,41.799853999999996,5,luther ct,,JOHNSTON,,ri,02919,125959,23850095a0959cfc
26,-71.25301490000001,41.5738193,17,luther ln,,PORTSMOUTH,,ri,02871,212383,5e31f1a3a6ff9482
27,-71.7136745,41.75340429999999,4,luther rd,,FOSTER,,ri,02825,428516,29e3dad3feb433f5
28,-77.5684778,39.951145000000004,2735,luther dr,,Chambersburg,FRANKLIN,pa,17202,,79878f98094e6de2
29,-77.56895440000001,39.9505201,2781,luther dr,,Chambersburg,FRANKLIN,pa,17202,,6bce5b22b0d261b4
30,-77.13883890000001,40.9373624,355,mt luther ln,,LEWIS TWP,,pa,,007-101-087.00000,c0bcfc1fae82570e
31,-76.9144416,40.96577,31,luther cir,,BUFFALO TWP,,pa,,001-079-009.10000,6b3cd6d7261e23a1
32,-75.2472259,39.8926437,8504,luther pl,,philadelphia,,pa,19153-0000,405221700,3c90b7572801bdcf
33,-75.36089100000001,40.769959,666,luther ln,,BUSHKILL,,pa,18064,,7861f9f1683beac7
34,-80.5063677,41.211718100000006,680,martin luther king jr blvd,,FARRELL,,pa,,,59a747373dbdbe22
35,-80.4999825,41.202489899999996,700,e  martin luther king jr blvd,,FARRELL,,pa,,,31ed1ad011d6a2a2
36,-75.48019140000001,40.5961951,1147,martin luther king jr dr,,ALLENTOWN,,pa,18102,1184,01d6fc27841460e4
37,-78.84300909999999,40.244211299999996,507,luther st,,,,pa,,,c4af31e91f06a490
38,-77.55902209999999,40.598997999999995,35,luther dr,,mifflin,,pa,,,065635c94db50485
39,-77.73651559999999,40.5959565,146,luther ln,,mifflin,,pa,,,e3b25c14d948544e
40,-79.41754940000001,41.5044945,452,luther ln,,TIONESTA TWP,,pa,,,61a05ae5a51cba42
41,-79.9831796,40.415937400000004,100,luther st,,MT OLIVER,ALLEGHENY,pa,15210,192981,560df32d8ba9e6ee
42,-79.79618,40.310593700000005,624,lutheran ln,,ELIZABETH TOWNSHIP,ALLEGHENY,pa,15047    ,214524,63de0926a33ae46e
43,-76.487845,40.041705,11,n luther ln,,COLUMBIA BOROUGH,,pa,,,35fa48e457dd159c
44,-76.4878955,40.0411311,101,s luther ln,,COLUMBIA BOROUGH,,pa,,,398aa0b6d55c08ba
45,-76.4870775,40.0410068,200,luther ln,UNIT 120,COLUMBIA BOROUGH,,pa,,,ec9beda1957ccc09
46,-80.2414712,41.985584499999995,8460,luther rd,,FAIRVIEW TWP,,pa,,21069127001400,4a61250805a11ac4
47,-78.68543220000001,41.0635006,1925,luthersburg rockton rd,,clearfield,,pa,,,f85c563972145a72
48,-78.7636844,41.1150008,119,luther ave,,clearfield,,pa,,,abc184bcc349c068
49,-78.2356806,40.223782299999996,134,luther ln,,SAXTON,BEDFORD,pa,,,b553a04592777863
50,-77.0335022,41.868733,18,luthers ln,,RUTLAND TWP,,pa,,,e4d818b957a422b9
51,-79.4847815,40.6196016,3827,lutheran church rd,,armstrong,,pa,,,23426f2fe632849b
52,-76.6783051,39.750941999999995,0,luther rd,,york,,pa,17361,84000030018D0,59cf66187d89f933
53,-76.67904870000001,39.7502214,300,w luther dr,,york,,pa,17361,45000BJ0085C0,b0ccc5ec56bcb277
54,-76.7354156,39.9545027,0,martin luther king mem park,,york,,pa,17401,0923705000100,52dafadd1a42ee5e
55,-75.8239328,39.9822659,28,martin luther king jr bl,,chester,,pa,,,e4e27b391a66edf9
56,-75.6158167,40.014717600000004,17,luther la,,chester,,pa,,,043c6a81974a018e
57,-78.0310644,40.4479101,,luther dr,,HUNTINGDON,,pa,16652,,e61e087250d0c328
58,-75.6654979,40.5056708,50,luther dr,,LONGSWAMP,,pa,,,dacd86056dd1eb2c
59,-75.48170040000001,40.5931025,1350,martin luther king jr dr,,ALLENTOWN,,pa,18102,,b381ad8a93037446
60,-75.4040107,40.61493170000001,1515,luther st,,BETHLEHEM,,pa,18018,,84077f6f449e177f
61,-74.4782249,40.800834,97,martin luther king ave,,MORRISTOWN,,nj,07960,,cbc7b8abb759bdbe
62,-74.4299634,39.3584008,125,south   dr martin luther king boulevard,,ATLANTIC CITY,,nj,08401,{B6957C99-5479-4571-9447-148D3167AFE3},a435fa45cedfceed
63,-74.4369497,39.3685935,659,north   dr martin luther king boulevard,,ATLANTIC CITY,,nj,08401,{7A860BB3-9024-41D3-820C-E99A34B0672F},a8cb037aedd7099b
64,-74.5329027,39.398614,800,martin luther king avenue,,PLEASANTVILLE,,nj,08232,{65E60AED-2A90-4F47-B2C2-9A04C5A5CB04},d6b2a37da2266ae0
65,-74.52383909999999,39.393973200000005,110,martin luther king jr avenue,,PLEASANTVILLE,,nj,08232,{183D005D-CB8B-4590-9996-D8FD8C076647},e5c62e3719cdeeec
66,-74.5217368,39.3932731,10,martin luther king,REAR,PLEASANTVILLE,,nj,08232,{8B1F07D4-131D-48A2-B0AE-B846AA2F1B05},7399b187d0fbe13e
67,-74.8976854,40.025208899999996,96,rev dr martin luther king jr drive,,WILLINGBORO,,nj,08046,{F191F64E-41B3-43C9-93FA-301F98109464},53aae66c6a5506b6
68,-75.12255040000001,39.942359499999995,402,dr martin luther king boulevard,,CAMDEN,,nj,08103,{63D8B0F7-D184-4E1E-86DA-4DB3D807256F},495e864d46272d57
69,-75.1202064,39.9421973,516,martin luther king boulevard,,,,nj,,{C84E917B-AB0D-4E70-B1E8-1E2BB800FE63},602fc4642ba057fc
70,-75.2287184,39.4238836,61,martin luther king jr way,,BRIDGETON,,nj,08302,{B8BEF07A-F609-43B8-85AF-22A68F4C1EE1},f2dfe07517007371
71,-74.172271,40.754035200000004,30 1/2,martin luther king jr boulevard,,NEWARK,,nj,07104,{9BF3B2CD-E74B-40BA-B593-BCF6499A8591},ff5ea585a2f8ca1f
72,-75.1420452,39.7046374,301,martin luther king drive,,GLASSBORO,,nj,08028,{661021AC-7DBA-4B32-838B-078686185D1E},f39246d3daf1569c
73,-75.1771004,39.863786,103,luther avenue,,NATIONAL PARK,,nj,08063,{408AA588-EE06-4BB3-92D5-CD8E0990A1D2},c2e31348f0988729
74,-74.2583072,40.039936499999996,236,luther drive,,MANCHESTER,,nj,08759,{474D25CE-18E0-456B-86C3-9EB8023E5486},9f4b92c604346a73
75,-74.2112822,40.662412599999996,2,martin luther king jr plaza,,ELIZABETH,,nj,07201,{395A642A-AFA7-4EF8-A340-0B2224971435},09788690b5a1ea68
76,-74.89443179999999,40.027752500000005,50,revdrmlkingjr drive,,,,nj,,{CDFFE4B9-21B3-410F-8741-B57F41D5969A},4302bda78f286cda
77,-74.2200062,40.767815,594,dr mlk jr boulevard,,,,nj,,{1B1758E5-A4BB-4A26-9172-707383C851B7},ca9bbaf28322247f
78,-70.1974686,43.6589732,26,luther st,,Portland,Cumberland,me,04108,,b586cc7c8c82316a
79,-76.0190637,42.105885,3400,luther st,,broome,,ny,13760,,8e8ad24ce16c092f
80,-73.88182990000001,40.7003286,69-09,luther rd,,city_of_new_york,,ny,11385,100464,615db0dbb6defc77
81,-73.94713399999999,40.697301700000004,149,martin luther king jr pl,,city_of_new_york,,ny,11206,3060652,afcd0e7299219a86
82,-74.0173474,41.5020691,43,lutheran st,,NEWBURGH,,ny,12550,,c9a70294ceb84f00
83,-77.6281738,43.1336436,64,luther cir,,ROCHESTER,,ny,14611,13528000020580020000,8c610478554846e7
84,-78.67175300000001,42.724231599999996,1437,luther rd,,Aurora,,ny,14052 9712,1424891860000004032000,ed5c355b75d20608
85,-78.89613879999999,42.5346585,0,luther gulf rd,,North Collins,,ny,54208  ,1458893170000002004000,0233909b59b1de91
86,-78.97666729999999,43.0529932,10,luther ln,,Grand Island,,ny,14072  ,1446000112000001041000,419942b0d135409a
87,-78.03332270000001,42.697455700000006,3953,luther road,,Castile,Wyoming,ny,14550,WYOM005333,772a1e6a3c02ff42
88,-76.9643503,42.8797929,14,martin luther king drive,,Geneva,Ontario,ny,14456,ONTA041660,e582ad9236807512
89,-77.62833520000001,43.134137,30,luther circle,,Rochester,Monroe,ny,14611,MONR268471,5f033c1e9c3ef8ea
90,-77.8197912,43.1849107,49,luther jacobs way,,Ogden,Monroe,ny,14559,MONR160551,2f0933df78f9f9d2
91,-78.91018009999999,43.100579700000004,6697,luther street,,Wheatfield,Niagara,ny,14304,NIAG034478,c5af8e0af9186573
92,-78.976662,43.0529833,10,luther lane,,Grand Island,Erie,ny,14072,ERIE069155,4b09cae095aac4f2
93,-78.8434364,42.9062496,1,martin luther king jr parkway,,Buffalo,Erie,ny,14211,ERIE340877,59d641397ea5e2b8
94,-76.16607409999999,43.088189299999996,102,luther avenue,,Salina,Onondaga,ny,13088,ONON148391,7f1fea3220a1f33d
95,-76.1425161,43.034324,436,martin luther king east,,Syracuse,Onondaga,ny,13210,ONON135674,8bbab37b2b2eeaeb
96,-76.1580842,43.0304095,615,martin luther king west,,Syracuse,Onondaga,ny,13205,ONON055324,54d13ec2a1718071
97,-73.8351382,43.056746000000004,11,tommy luther drive,,Saratoga Springs,Saratoga,ny,12866,SARA056494,74a86ecdff9e757a
98,-73.7852627,42.947887,51,luther forest boulevard,,Malta,Saratoga,ny,12118,SARA121142,9681a3fd7ebe80e8
99,-74.6386939,42.5729968,1098,lutheranville road,,Summit,Schoharie,ny,12064,SCHO004035,383c9b4d700808b5
100,-74.0175557,41.5009347,9,lutheran street,Apartment 1,Newburgh,Orange,ny,12550,ORAN156146,eacd44cca1963a2a
101,-73.6465095,42.6015823,24,best luther road,,East Greenbush,Rensselaer,ny,12061,RENS060248,e8b8ac7dba2d319c
102,-72.3473908,40.8936049,42,luther drive,,Southampton,Suffolk,ny,11976,SUFF433747,f59e24d8428a5919
103,-73.4085687,40.8358912,24,luther place,,Huntington,Suffolk,ny,11746,SUFF424748,8fc53ee2cb54b1a0
104,-73.7683327,41.0303227,110,dr martin luther king jr boulevard,Unit 221,White Plains,Westchester,ny,10601,WEST226937,0e6cbc5a19613a71
