,LON,LAT,NUMBER,STREET,UNIT,CITY,DISTRICT,REGION,POSTCODE,ID,HASH
0,-77.1759485,38.265773700000004,10425,luther ln,,king_george,,va,,,2390a86a943ed1d2
1,-79.5259786,37.6081389,206,lutherie ln,,NATURAL BRIDGE STATION,,va,,,d6dd9733ef33d451
2,-76.264887,36.7182761,738,luther st,,CHESAPEAKE,,va,23322,,cd807cf47d64e125
3,-77.653337,39.262814899999995,12582,lutheran church rd,,loudoun,,va,,,ab3ed45c732e32a2
4,-77.33455790000001,37.5370848,504,luther rd,,HENRICO,,va,230751626,,ceeea9c4287545f0
5,-82.1782745,36.597971799999996,213,martin luther king jr blvd,,BRISTOL,Bristol City,va,24201,,06d7f8695bc6a84a
6,-82.45771090000001,37.1595417,510,luther rd,,CLINTWOOD,Dickenson County,va,24228,,4d3e288e54af60e8
7,-81.304474,37.2464621,100,luther st,,BLUEFIELD,Tazewell County,va,24605,,cae55c7305f20bdf
8,-80.19290050000001,36.7511885,45,luther scott ln,,STUART,Patrick County,va,24171,,eb7b012dab8542de
9,-80.1001455,37.247936200000005,3796,luther dr,,SALEM,Roanoke County,va,24153,,ebcb728d2db24092
10,-80.1037786,37.2473098,3700,luther,,SALEM,Roanoke County,va,24153,,5b95f401fe28eae6
11,-79.5259786,37.6081389,206,lutherie ln,,NATURAL BRIDGE STATION,Rockbridge County,va,24579,,c26ed3abb1b56301
12,-78.4736046,37.4784662,67,janie luther ln,,DILLWYN,Buckingham County,va,23936,,61f6c746939e9eb8
13,-78.278356,37.480080799999996,35,luther p jackson dri*,,CUMBERLAND,Cumberland County,va,23040,,659846b7ec4678f2
14,-78.8749273,38.443648700000004,5,martin luther king jr way,,HARRISONBURG,Harrisonburg City,va,22801,,a45ac095e1d6fd48
15,-78.2597873,38.3705792,170,luther ln,,MADISON,Madison County,va,22727,,9004df07e0fe7140
16,-77.6533395,39.262822799999995,12582,lutheran church rd,,LOVETTSVILLE,Loudoun County,va,20180,,04273fd550decf42
17,-77.4169563,37.241484299999996,2809,martin luther king dr,,PETERSBURG,Chesterfield County,va,23806,,465ca753a59fe765
18,-77.059207,37.0751171,850,martin luther king hwy,,WAVERLY,Surry County,va,23890,,6e30e45e935eae6c
19,-77.28878540000001,37.2857826,1300,luther blvd,,HOPEWELL,Hopewell City,va,23860,,4132c30a1394aba9
20,-77.33695870000001,37.5876304,6526,luther bosher ln,,MECHANICSVILLE,Hanover County,va,23111,,29a65f84f47ed257
21,-76.32681690000001,36.8357154,449,martin luther king fwy,,PORTSMOUTH,Portsmouth City,va,23704,,6c991c087a830304
22,-77.3751587,38.634016100000004,14713,luther allen pl,,WOODBRIDGE,Prince William County,va,22193,,521d9ca3db7c9e2e
23,-80.3799644,33.32395089999999,206,luther dr,,HOLLY HILL,,sc,29059,,02eff2c34b571bf7
24,-80.3792744,33.3254395,146,luther dr,,Unspecified,,sc,29059,,6c65a943bb45a4ea
25,-80.3804569,33.325275399999995,148,luther drive,,Unspecified,,sc,99999,,ea7a350fb5ffa924
26,-80.0069373,32.7929412,21,martin luther king blvd,,Charleston,,sc,29407,,79d873ff9684d903
27,-78.9744342,33.6924237,4146,john luther rd,,Myrtle Beach,,sc,29588,,5a7eb452dfb54bb3
28,-79.10980390000002,33.67193820000001,8261,martin luther dr,,Conway,,sc,29527,,f4a91fa94019ef31
29,-78.7513035,33.9158057,458,luther dr,,Longs,,sc,29568,,de5cf51bcc09bcb4
30,-78.89242929999999,33.7035153,925,luther senior ln,,Myrtle Beach,,sc,29577,,a5af5368821395af
31,-79.75466340000001,33.8659352,307,luther prosser ln,,LAKE CITY,,sc,29560,,dd650a53c719b198
32,-80.0899213,34.7332211,114,martin luther king,,CHESTERFIELD,,sc,29709,,7b1848bf702152f0
33,-80.5762637,32.378935,215,dr martin luther king jr dr,,beaufort,,sc,,,cfad19727f1626a8
34,-80.55516850000001,32.3628529,83,luther warren dr,,beaufort,,sc,,,1aa309c3c90d5177
35,-80.61089940000001,32.3923672,20,luther & margies ln,,beaufort,,sc,,,e972ee44370a13db
36,-80.62836290000001,32.3556558,25,luther ln,,beaufort,,sc,,,c0546979cfb71f1f
37,-80.5790897,32.377554700000005,247,dr martin luther king jr,,beaufort,,sc,,,1f5966800efbdc1a
38,-82.93601899999999,34.757343,203,luther land rd,,SENECA,,sc,29672,,0495ec624fc1b8fa
39,-83.05318009999999,34.632425899999994,451,luther ln,,WESTMINSTER,,sc,29693,,4ca3c910212d0a9f
40,-82.6827625,34.531468200000006,2901,martin luther king jr blvd,,ANDERSON,,sc,29625,,cdc89946ce140848
41,-82.3689217,34.8487762,13,luther dr,,city_of_greenville,,sc,29607,,325cdc4e0992ae1e
42,-81.15682120000001,33.87912670000001,326,luther dr,,GASTON,,sc,29053,,ce5d797de9254215
43,-82.06428620000001,33.5106702,140 A,lutheran dr,,Augusta,,ga,30907,,2b739e54d18c6880
44,-82.90075329999999,32.5352724,409,martin luther king j dr,,laurens,,ga,,,fd892d5b78990257
45,-82.9011288,32.5296259,105,martin luther king dr,,laurens,,ga,,,22a4b9654ca28ff1
46,-82.9011288,32.5277828,817,mlk,,laurens,,ga,,,d7ae61ee6a4b3aa5
47,-82.90186640000002,32.5146903,1301,mlk dr,,laurens,,ga,,,0647ae98328b5b90
48,-81.4983603,31.1784226,3511,martin luther king jr blvd brunswick 31520,,glynn,,ga,,,6b38909f43f65507
49,-81.48843079999999,31.1535346,1622,martin luther king jr blvd unit: .5 brunswick 31520,,glynn,,ga,,,62d0407bfe6e9ff1
50,-84.9768354,32.4624858,1100,martin luther king jr blvd,,COLUMBUS,,ga,31906,371,b2ca5011b2e9f16c
51,-83.1950963,32.825701,370,mlk jr circle,,wilkinson,,ga,,,ea3d1b0fde4ac3ac
52,-83.1891444,32.823014199999996,685,mlk jr rd,,wilkinson,,ga,,,da2d463783b27200
53,-83.9943436,30.8470498,1806,n martin luther king j dr,,thomas,,ga,,,b5bd479c0134183a
54,-83.9928254,30.8218909,200,s martin luther king j dr,,thomas,,ga,,,fdb629b98d20b84a
55,-83.9919859,30.827782799999998,308,mlk rear,,thomas,,ga,,,b5b47578c77449c2
56,-84.7188056,31.187704600000004,849,n mlk jr st,,miller,,ga,,,dcc878ab23831578
57,-84.7267154,31.178918300000003,0,mlk jr rd,,miller,,ga,,,1f87faa5a9fbfc02
58,-84.72929029999999,31.171315399999997,105,s mlk jr st,,miller,,ga,,,4e47e6371d766e79
59,-83.6522198,31.701371,118,mlk jr dr,,turner,,ga,,,20fef918e5b45a47
60,-83.5407364,33.0117517,0,martin luther king dr,,jones,,ga,,,9d225f7fa31179c2
61,-83.5363269,33.0115875,132,martin luther king blvd,,jones,,ga,,,dd1357893f364244
62,-84.2812433,33.6048362,5478,luther ct,,ELLENWOOD,,ga,30294,,373ce0dfc4b891bd
63,-82.4091527,32.221982399999995,0,mlk jr ave,,toombs,,ga,,,1c807cc3de2ae18f
64,-82.4093726,32.2215853,203,a/b mlk jr ave,,toombs,,ga,,,2849b9f1770c2382
65,-82.40910440000002,32.221471799999996,108,mlk ave,,toombs,,ga,,,595e310b64dce50b
66,-82.40757020000001,32.2214923,306,304 mlk jr ave,,toombs,,ga,,,44f9677fa7e647b0
67,-82.4074844,32.220807,313,mlk jr ave a&b,,toombs,,ga,,,371a763f32d06359
68,-82.406154,32.2207457,408,406 mlk jr ave,,toombs,,ga,,,d5e82bfacfd4e637
69,-82.4045098,32.2200218,512,514 mlk jr ave,,toombs,,ga,,,6b3ca5bd6c55fb9d
70,-82.40467609999999,32.219549900000004,513,515 mlk jr ave,,toombs,,ga,,,1b0c9883af01fbf8
71,-82.40047309999999,32.2183109,806,808 mlk jr ave,,toombs,,ga,,,74fdd277b33e252a
72,-82.3022747,32.2093743,289,mlk jr dr,,toombs,,ga,,,8f86d6418e519d54
73,-82.5834882,32.193700199999995,0,martin luther king,,montgomery,,ga,,,8602097f2433e343
74,-82.56016109999999,32.1872105,0,mlk dr,,montgomery,,ga,,,5dfa09568707cc09
75,-81.68967690000001,30.822377000000003,1031,martin luther king blvd,,camden,,ga,,,f18fdca331106480
76,-83.0619648,31.034000300000002,0,martin luther king a,,lanier,,ga,,,7e1f88aa54e7c795
77,-83.0659613,31.033379800000002,29,e martin luther king,,lanier,,ga,,,2ce9dc16dc7a1032
78,-83.05901970000001,31.034283000000002,0,mlk,,lanier,,ga,,,c7a131cbc1249574
79,-83.0595723,31.034269199999997,131,e mlk ave,,lanier,,ga,,,88461aa0e07c262d
80,-83.0580863,31.0342531,0,mlk jr ave,,lanier,,ga,,,e6f21ac36767687b
81,-83.0598459,31.0337107,0,mlk jr,,lanier,,ga,,,cba252e6242e56ab
82,-83.0605781,31.033648699999997,0,mlk ave,,lanier,,ga,,,4c7913f6a7fd7fe1
83,-83.0610931,31.0335751,86,e mlk jr ave,,lanier,,ga,,,be7af92cd4d5cb18
84,-83.0673909,31.0325892,10,mlk dr,,lanier,,ga,,,f1a68fbbc6e90044
85,-82.77283609999999,31.0242413,751,martin luther king h,,clinch,,ga,,,72d9da13ea24540b
86,-82.56841690000002,30.684529600000005,0,martin luther king d,,clinch,,ga,,,78f59627dd5b32a3
87,-83.44033859999999,31.1600659,206,martin luther king jr dr,,SPARKS,,ga,,,db7e9b7675f23255
88,-83.43158170000001,31.139272100000003,400,n martin luther king jr dr,,ADEL,,ga,,,2d986cf7a19fd20a
89,-83.4301565,31.134826899999997,102,s martin luther king jr dr,,ADEL,,ga,,,b82e4b9adc4d6066
90,-85.00815959999998,33.0278679,0,martin luther king jr ct,,troup,,ga,,,ce5320ca3611cd27
91,-85.1676571,32.8763051,0,martin luther king dr,,troup,,ga,,,778750ebb875f1dc
92,-82.8995463,32.0683516,23,w martin luther king b,,telfair,,ga,,,f19a42cec494401b
93,-82.89536209999999,32.0673356,30,e martin luther king j blvd,,telfair,,ga,,,8d06bae36d1be7df
94,-82.6850957,31.928524699999997,25,martin luther king dr,,telfair,,ga,,,02aefdd08297a7a8
95,-82.68398520000001,31.9277712,41,s martin luther king j dr,,telfair,,ga,,,1f950a2259421fbe
96,-84.1592431,31.3839701,321,mlk jr dr ne,,mitchell,,ga,,,eb862907ef8ff385
97,-84.15888100000001,31.3835488,316,mlk jr dr,,mitchell,,ga,,,1b66a3b48fe66ef3
98,-84.15948449999999,31.3835557,315,mlk jr blvd,,mitchell,,ga,,,7c0ba40c10f24ec6
99,-84.16088459999999,31.3768143,MLK/JACKSON,mlk/jackson,,mitchell,,ga,,,17b01c1d3c4eb9b2
100,-84.161582,31.3738189,117,mlk jr st,,mitchell,,ga,,,b20e12feb031f31c
101,-84.1623303,31.370022,284,mlk jr dr se,,mitchell,,ga,,,dbb5d63036a19a16
102,-84.2454681,31.302326500000003,6848,mlk jr rd,,mitchell,,ga,,,c5221427a9bdd7f2
103,-84.20425859999999,31.2379032,211,mlk jr rd/139 walker,,mitchell,,ga,,,ed05b39f4a06fd60
104,-84.16669959999999,31.135553100000003,506,mlk jr blvd nw,,mitchell,,ga,,,16f88b59677d6d91
105,-81.9931877,30.8439502,1020,martin luther king j rd,,charlton,,ga,,,6f78964131053fe7
106,-81.9968301,30.841292699999997,741,martin luther king j dr,,charlton,,ga,,,2c4336b192ec07cf
107,-81.997726,30.8405903,0,martin luther king rd,,charlton,,ga,,,ac07d8ba50ceb184
108,-84.74003259999999,31.570446,827,martin luther king j,,calhoun,,ga,,,3f0aa223e32b4c06
109,-84.50732140000001,31.4850604,0,mlk jr st sw,,calhoun,,ga,,,09bb5452e89730b1
110,-84.5073348,31.484689799999998,120,mlk jr st se,,calhoun,,ga,,,29ae2c46c50b6eeb
111,-82.2226292,33.2379719,412,martin luther king,,burke,,ga,,,83550f917f1fe93d
112,-82.2268859,33.2356342,0,martin luther king r,,burke,,ga,,,48ef2e6749b7fef4
113,-82.0241055,33.0917191,846,martin luther king j dr,,burke,,ga,,,521a109f295a0a62
114,-82.231864,33.2355041,0,mlk jr rd,,burke,,ga,,,1500280595cf274a
115,-81.42701629999999,31.373782300000002,912,martin luther king j dr,,mcintosh,,ga,,,c07c582af4044296
116,-81.4270994,31.373621999999997,0,martin luther king blvd,,mcintosh,,ga,,,ae825e0ae9b5fe3a
117,-81.427601,31.372669300000002,0,martin luther king j blvd,,mcintosh,,ga,,,4642e0e6176ad329
118,-84.3576945,33.7005272,973,luther st se,,city_of_atlanta,,ga,,ADDR00067746,5d0285ae526b4e5b
119,-84.4231002,33.7941229,918,luther street nw,,city_of_atlanta,,ga,,,9ebf19c3f97a893e
120,-84.1554102,31.567898,701,martin luther king dr,,dougherty,,ga,,,425ab15cfdbabbcd
121,-84.15528420000001,31.565121299999998,905,martin luther king j dr,,dougherty,,ga,,,983653dc208ada44
122,-84.2347235,33.7753877,700,george luther drive,,DECATUR,,ga,30032,,1d3f88f5f48b892f
123,-84.099088,33.7191768,2323,luther street,,LITHONIA,,ga,30058,,001121a5bf77fa1a
124,-84.78741109999999,31.771448100000004,41,martin luther king j,,randolph,,ga,,,4d48a759eb57cde6
125,-84.96087759999999,34.5041766,733,martin luther king,,CALHOUN,,ga,,,afe369f865d3f33e
126,-84.9200624,31.393144899999996,3495,martin luther king j,,early,,ga,,,fb8f6d52ef7f6839
127,-83.5154271,31.438575,105,martin luther king j dr,,tift,,ga,,,9c089c79212a96d7
128,-83.5152984,31.438041700000003,106,1/2 martin luther king j dr,,tift,,ga,,,b1b29bea7a81417b
129,-83.8216776,34.290262299999995,1305,martin luther king jr blvd,,hall,,ga,,,80aa656db3d2a459
130,-83.52662099999999,34.5142717,135,martin luther king jr dr,,CORNELIA,,ga,,,a87c5f01d6365932
131,-84.9440676,34.713374,166,luther way,,DALTON,,ga,30721,,4c1d85ad962bc6cf
132,-83.6292968,32.830959,695,martin luther king jr blvd,,MACON,,ga,31201,,f7e844781df51c5c
133,-84.3337857,33.875018299999994,1390,luther drive,,ATLANTA,,ga,30319,,c3d96ed24acc5e92
134,-84.6541655,33.941860299999995,581,luther  ct,,cobb,,ga,,,e3b1c7c99c6fb9a2
135,-84.6745223,33.9277661,,luther ward  rd,,cobb,,ga,,,b73e39bfb0ae8a75
136,-84.6706773,33.924861,,luther ward  rd  sw,,cobb,,ga,,,1349a9c40ea02be3
137,-84.6251875,33.8924818,2323,luther  ter,,cobb,,ga,,,1b13866ca6328af2
138,-84.6595091,33.885282000000004,3640,luther hall  rd,,cobb,,ga,,,b941e8b7d03d7cf1
139,-84.66135809999999,33.886030600000005,,luther hall  rd  sw,,cobb,,ga,,,79c2addbc08b0bbe
140,-84.58624959999999,33.8250874,1091,luther  dr,,cobb,,ga,,,62829268fe69e8cf
141,-84.6857468,33.9242518,1207,luther ward  ter,,cobb,,ga,,,4f98cc40acfd8e45
142,-82.2476542,31.810763399999995,0,luther surrency rd,,appling,,ga,,,0d3c3fa8c94c83af
143,-82.34462679999999,31.7945765,510,martin luther king j,,appling,,ga,,,d0e3e8a950fddbd2
144,-82.33143840000001,31.760778000000002,0,martin luther king r,,appling,,ga,,,2d9f98adf12e7602
145,-82.328335,31.751976899999995,689,martin luther king,,appling,,ga,,,e3c2c2ab803a6ccf
146,-82.348929,31.7979049,0,mlk ave,,appling,,ga,,,dd602d3b9c61919c
147,-82.3447877,31.7957939,436,mlk ave ne,,appling,,ga,,,7fa3fa93c67cb405
148,-82.34418690000001,31.7928895,0,mlk ave & nfl dr nw,,appling,,ga,,,6d88035978ddc412
149,-82.3427734,31.7914647,702,mlk jr ave,,appling,,ga,,,dc9e0448e6b7c1a2
150,-82.33965129999999,31.790098999999998,0,ben carter rd/mlk av,,appling,,ga,,,75580bcf870ded37
151,-82.3284665,31.7552863,467,mlk dr,,appling,,ga,,,aa1cc299de81dcc3
152,-82.3283887,31.7547936,503,mlk blvd,,appling,,ga,,,c56976755f0028c6
153,-82.3291665,31.753573499999998,0,580 mlk blvd,,appling,,ga,,,945b6691f7914290
154,-83.34607779999999,32.690525199999996,0,martin luther king,,twiggs,,ga,,,9cf0cedb4baeac69
155,-83.8015276,31.1927089,1301,martin luther king j,,colquitt,,ga,,,4c4dbcd96019a600
156,-83.5735875,34.0986502,10,mlk ave,,JEFFERSON,,ga,,,4d2dd5be6e0609e0
157,-83.3600226,32.3994828,609,martin luther king dr,,bleckley,,ga,,,2077c34c293146eb
158,-82.84468170000001,31.4982436,907,martin luther king dr,,coffee,,ga,,,4af5e837ead3b815
159,-82.8446066,31.4995037,803,mlk dr,,coffee,,ga,,,906a18652e70d391
160,-84.94723590000001,33.749120700000006,128,luther cir,,carroll,,ga,,,b0630362ac21ee3f
161,-84.9313197,33.7346143,100,horace luther dr,,carroll,,ga,,,c9cca7ec21e3d939
162,-81.1004963,32.071180600000005,510,martin luther king jr blvd,A,chatham,,ga,31401,132336,395ee7be23e73032
163,-81.1049108,32.0606212,1817,martin luther king jr  blvd,,chatham,,ga,31415,149864,4db634c7462234cd
164,-81.0961628,32.083696100000004,3,n martin luther king jr blvd,LS,chatham,,ga,31401,156949,82f8832a39c1ec87
165,-81.1058223,32.0580504,2111,martin luther king blvd,,chatham,,ga,31415,171696,b9202ecb50aa674d
166,-84.2417078,32.0756126,904 C,s martin luther king jr blvd,C,sumter,,ga,31719,,4405ee0719bf387a
167,-84.2388792,32.0804446,912,n martin luther king jr blvd,,sumter,,ga,31719,,d8c6e6f29ac3e2b5
168,-82.4135891,33.0024575,505,martin luther king dr,,jefferson,,ga,,,de360a8033f47fa3
169,-82.413227,33.0009842,0,martin luther king,,jefferson,,ga,,,91a2acdc769323cc
170,-82.3701051,32.891115,0,n martin luther king blvd,,jefferson,,ga,,,de14718be1d8f896
171,-82.3972115,32.8817473,947,martin luther king blvd,,jefferson,,ga,,,fca6edbbd92059e1
172,-82.3986518,32.880821600000004,0,n martin luther king,,jefferson,,ga,,,16a025b6c509e588
173,-82.3983192,32.8797989,834,martin luther king b,,jefferson,,ga,,,3777bacb17b75463
174,-82.3972008,32.8699885,320,martin luther king b rd,,jefferson,,ga,,,931b78c8963d6239
175,-82.3972464,32.8609679,40,martin luther blvd,,jefferson,,ga,,,8e084b05f88e347b
176,-82.3961386,32.8576784,205,s martin luther king blvd,,jefferson,,ga,,,e0d167d56076a7f2
177,-82.4146512,33.0024485,508,mlk dr,,jefferson,,ga,,,99e160b1ecd9dec5
178,-82.3970506,32.8818374,961,n mlk blvd,,jefferson,,ga,,,2f6fe9ff28b88d80
179,-82.3990059,32.8797426,831,mlk blvd,,jefferson,,ga,,,a6dd5db7fdd99ee7
180,-82.3978928,32.8645028,85,n mlk jr blvd,,jefferson,,ga,,,209caee35bd2d886
181,-82.3681632,31.2317912,0,martin luther king d,,ware,,ga,,,5db9a4afcb98d980
182,-83.6150444,32.6494478,110,luther ct,,houston,,ga,,,28e56b44593043d6
183,-83.6070755,32.614049699999995,90,martin luther king blvd,,houston,,ga,,,bf5a8dceb0333f51
184,-83.60225290000001,32.6109521,0,martin luther king,,houston,,ga,,,e7aa3c49fb4e5d32
185,-83.7394908,32.4553532,100,martin luther king dr,,houston,,ga,,,92c0adfa79320db7
186,-83.73860570000001,32.4528681,200,1/2 martin luther king dr,,houston,,ga,,,94694b32882c495a
187,-83.7397563,32.4504169,401,a martin luther king dr,,houston,,ga,,,e6157d86e126df86
188,-83.74019890000001,32.45022,401,b martin luther king dr,,houston,,ga,,,0fd9b0eed8dedd78
189,-82.04367490000001,32.4133212,1009,"martin luther king, blvd",,candler,,ga,,,ab483aedfcc2d347
190,-82.0552486,32.3982508,0,trapnell/mlk/lee st,,candler,,ga,,,589f40595cf08e25
191,-82.1025708,32.1804321,543,martin luther drive,,tattnall,,ga,,,8eab3f1d1be732d5
192,-81.9873083,32.0235045,447,john luther branch r,,tattnall,,ga,,,c3295688a6d8c659
193,-81.91309150000001,31.998797999999997,734,luther d scott w roa,,tattnall,,ga,,,9e15ecf9c3bf28df
194,-81.9119757,31.9969669,800,luther d-scott w roa,,tattnall,,ga,,,dfea452a924743c3
195,-82.10343990000001,32.1817806,611,mlk drive,,tattnall,,ga,,,f647ee8aecd69e42
196,-81.92975340000001,31.945744199999996,505,mlk st,,tattnall,,ga,,,810ae10ff97dea06
197,-84.6514902,32.087585499999996,686,mlk dr,,stewart,,ga,,,a816f83b65c3bd61
198,-84.6505487,32.0869787,618,mlk,,stewart,,ga,,,009440f63173cae2
199,-82.7222282,32.7339708,108,mlk jr. dr.,,johnson,,ga,,,a17dbe165b617435
200,-82.7217266,32.7339776,0,mlk dr.,,johnson,,ga,,,d320f093181df78e
201,-82.7256963,32.733937,216,mlk jr. dr,,johnson,,ga,,,af90146492eac779
202,-82.7251223,32.733463199999996,16,mlk jr.,,johnson,,ga,,,5c845f4faa437e2a
203,-82.7221584,32.732899100000004,98,mlk jr dr.,,johnson,,ga,,,a9124774f97ec902
204,-85.16622480000001,32.8726603,708,martin luther king dr,,harris,,ga,,,031a1dbb161ee129
205,-85.1671448,32.8700291,611,martin luther king jr dr,,harris,,ga,,,8a701d6d070e3ae9
206,-85.1669678,32.8694816,604,martin luther king j dr,,harris,,ga,,,7b97524d0b6f38f4
207,-84.0446971,33.9676391,1284,luther way,,LAWRENCEVILLE,,ga,30043,,27c9b509fa4d3449
208,-83.8338929,33.9148554,3211,luther wages rd,,DACULA,,ga,30019,,3aa065b7a2c35aef
209,-83.2685915,30.8295724,622,e martin luther king j dr,,lowndes,,ga,,,ff5fb2dc9f53408a
210,-83.2614809,30.8279924,6,martin luther king j cir,,lowndes,,ga,,,876a274a71dd83e8
211,-83.2770753,30.8267441,102,w martin luther king j dr,,lowndes,,ga,,,e10420104f27abd9
212,-83.2774186,30.8260692,109,1/2 w martin luther king j dr,,lowndes,,ga,,,1733b4b2c2a4a690
213,-84.45872,33.6789934,2800,luther drive,,East Point,,ga,30344,,e4cf2aee31b50d2f
214,-84.5214307,33.7703328,4080,martin luther king jr drive  sw,,Fulton County,,ga,30336,,e7711fa933763786
215,-84.46024090000002,33.6787139,2174,luther circle,,East Point,,ga,30344,,d56c0c6e753224f3
216,-84.35625809999999,33.7010443,1014,luther street se,,Atlanta,,ga,30315,,36d5620ec9b04017
217,-84.4231002,33.7941229,918,luther street nw,,Atlanta,,ga,30318,,2d86259ee25adc1a
218,-90.8690046,32.3585518,1715,martin luther king blvd,,warren,,ms,,,6a6377c19933408b
219,-90.8656209,32.358464,1775,martin luther king blvd (1/2),,warren,,ms,,,0c93b2c643134568
220,-90.8675204,32.359471899999996,1739,martin luther king blvd 1/2,,warren,,ms,,,836f1f23ed96d985
221,-90.8591849,32.360285100000006,1875,marin luther king,,warren,,ms,,,7cb0ecb53f65293b
222,-88.9758471,34.2368467,1176,martin luther king dr,,pontotoc,,ms,,,c0b91495520bd8fb
223,-88.9748364,34.256316999999996,194,martin luther king,,pontotoc,,ms,,,1b648b47841162e2
224,-88.97505179999999,34.2400836,925,s martin luther king,,pontotoc,,ms,,,186cd2728b9a8352
225,-88.9747962,34.241082399999996,820,mlk dr,,pontotoc,,ms,,,ef8bf8032823b0d8
226,-88.9735116,34.2463073,0,mlk,,pontotoc,,ms,,,0b1f7ac955413de3
227,-90.4586793,32.347739000000004,,martin luther king jr dr,,hinds,,ms,,,892716fecfde7335
228,-90.45813840000001,32.34666,,martin luther king,,hinds,,ms,,,eecc6e5be5b5808b
229,-90.19528940000001,32.3114005,927,martin luther king dr,,hinds,,ms,,,9873091d6470491e
230,-90.20642840000001,32.3302001,2613,martin luther king jr,,hinds,,ms,,,0b5039becc0c9dce
231,-90.410933,32.8545637,0,dr martin luther k,,yazoo,,ms,,,51eb786af8a9d35d
232,-90.4116339,32.8649221,0,dr martin lluther,,yazoo,,ms,,,6e3a360f7dfcd621
233,-90.4115488,32.852587899999996,139,martin luther king,,yazoo,,ms,,,6f8adc1eb29be309
234,-90.27040440000002,32.733325199999996,796,luther davis rd,,yazoo,,ms,,,872ae67d1e09600f
235,-88.8849238,30.396647700000003,677,dr martin luther king jr blvd,,city_of_biloxi,,ms,,,b09f6189f9806ccb
236,-88.89002009999999,30.398177899999997,820,martin luther king jr blvd #2,,city_of_biloxi,,ms,,,4fa9f9fafd13fcdd
237,-88.69300390000001,32.2288966,89,luther walker rd,,lauderdale,,ms,,,8f3c9b9472009017
238,-88.4326297,32.4931913,5613,luther ray cobb rd,,lauderdale,,ms,,,5c6ee4078dff2317
239,-90.87244390000001,32.3548212,1404,martin luther king blvd,,city_of_vicksburg,,ms,,,05f8f398fd002d4d
240,-88.8189492,30.414070000000002,809,martin luther king jr av,,OCEAN SPRINGS,,ms,39564,,dc2ebb1351785b5b
241,-89.2990848,31.3034901,814,martin luther king av,,city_of_hattiesburg,,ms,,100001,180ba77352227450
242,-89.3076994,31.302415999999997,115,luther st,,city_of_hattiesburg,,ms,,100195,3f780aa6b52874e1
243,-89.0914373,30.403878499999998,15165,martin luther king jr blvd,,Gulfport,,ms,39501,,4f2c9fb1c67fc91a
244,-86.1921738,36.9952331,701,luther lawrence rd,,SMITHS GROVE,,ky,42171,082A-63C,5151e1786a8eea72
245,-86.4383504,37.004039,319,martin luther king jr ct,,BOWLING GREEN,,ky,42101,039B-02R-020,6c675f5224f1e0e4
246,-84.2192398,38.003192600000006,1645,martin luther king jr dr,,clark,,ky,40391,,5cfbfd10859e31f7
247,-84.502247,38.040991999999996,343,s martin luther king blvd,201,lexington-fayette,,ky,,,97c9c206a3074d9a
248,-84.49158100000001,38.047368,210,n martin luther king blvd,,lexington-fayette,,ky,,,f18ce31dca36bb39
249,-84.5491447,38.2169296,529,martin luther king jr dr,,GEORGETOWN,,ky,40324,,6cbb1b3a6d2767c6
250,-88.6018073,37.0916561,415,martin luther king jr dr,,city_of_paducah,,ky,,,4782c942f9298e19
251,-84.50682040000001,39.077865700000004,101,e martin luther king jr blvd,,campbell,,ky,,,a8225f45d08b8898
252,-84.5065013,39.0776977,105 1/2,1/2 e martin luther king jr blvd,,campbell,,ky,,,ecabb230a9ca2fd2
253,-84.5093992,39.077098299999996,13,w martin luther king jr blvd,,campbell,,ky,,,f8e2d696341151ca
254,-84.5160821,39.0766881,416,w martin luther king jr blvd fl 1,,campbell,,ky,,,7246477139a80001
255,-84.51609920000001,39.0767446,416,w martin luther king jr blvd fl 2,,campbell,,ky,,,5716f92f938fe203
256,-84.514297,39.0773259,310,w martin luther king jr blvd rear,,campbell,,ky,,,5b1a0006bdf9c9f3
257,-84.5054875,39.077873499999995,131,e martin luther king jr blvd rear,,campbell,,ky,,,8b035b03830e07a9
258,-84.5164443,39.0766935,424,w martin luther king jr blvd fl 3,,campbell,,ky,,,0cecfa99321f168b
259,-84.5144089,39.0763143,321,w martin luther king jr blvd spc 1,,campbell,,ky,,,9ec61b53188931cf
260,-84.5143937,39.0762565,321,w martin luther king jr blvd spc 2,,campbell,,ky,,,c2148b3c3d93fd32
261,-84.5145407,39.076242,321,w martin luther king jr blvd spc 3,,campbell,,ky,,,157573f0ceef432f
262,-84.5145427,39.076289700000004,321,w martin luther king jr blvd spc 4,,campbell,,ky,,,1f65b859e06b277b
263,-84.51459670000001,39.076328600000004,321,w martin luther king jr blvd spc 5,,campbell,,ky,,,9ea0773a6534351d
264,-84.5146055,39.0763711,321,w martin luther king jr blvd spc 6,,campbell,,ky,,,d9813ced08a322b2
265,-84.5146262,39.0764164,321,w martin luther king jr blvd spc 7,,campbell,,ky,,,a24cdacf96e0eb9f
266,-84.51454720000001,39.0764029,321,w martin luther king jr blvd spc 8,,campbell,,ky,,,78837afa86d66cce
267,-85.7621848,38.24857279999999,600,dr martin luther king pl,,LOUISVILLE,,ky,40202,,50db233ec50e734f
268,-82.6458286,38.4789518,501,martin luther king blvd,,boyd,,ky,,,180ba57109acb3de
269,-88.0817637,30.717296899999997,2268,dr martin luther king jr ave,15,city_of_mobile,,al,36617,,f737770645e94351
270,-86.9748459,34.7680049,2300,martin luther king dr,,ATHENS,,al,35611,,c3522552307aebb7
271,-87.78094759999999,30.866595399999998,308,dr martin luther king blvd,,baldwin,,al,,,ff02e8da68b69f9d
272,-86.38389649999999,32.3134052,4001,luther dr,,MONTGOMERY,,al,36108,,120561cf5c78c5ca
273,-86.58219090000001,34.7575988,301,max luther dr nw,,HSV,,al,,,76e9428db76f21f8
274,-85.8421553,33.620778200000004,503,martin luther king dr,,calhoun,,al,,,b1ec58b3aca43be6
275,-85.8438939,33.6200192,0,martin luther king jr dr,,calhoun,,al,,,0533b0e3eb18a7cf
276,-85.8610776,33.6134596,1705,martin luther king,,calhoun,,al,,,377d89cc71b4960e
277,-86.0388662,34.67554570000001,310,dr martin luther,,jackson,JACKSON,al,,2704193001072000,2d0543b98220ba4b
278,-85.9548655,31.800276300000004,459,luther dr,,TROY,,al,36081,,5845e0ab7df5c7b7
279,-85.96453819999999,31.8135662,401,martin luther king dr,,TROY,,al,36081,,8edc004d40130706
280,-95.3799676,35.958236299999996,00202,s martin luther king blvd,,wagoner,,ok,,,4c0def49e9331cc8
281,-95.3797618,35.9519481,00800,s martin luther king blvd~wag,,wagoner,,ok,,,f227609b0136dfb4
282,-95.9890642,36.25795170000001,7204,n martin luther king jr bv e,,TULSA,,ok,741261109,,ca1221cbb274c739
283,-95.99719990000001,36.2499588,6600,n martin luther king jr bv,,SPERRY,,ok,740731902,,a2afc8ab493f0e3e
284,-95.99118759999999,36.2472255,6501,n  martin luther king jr bv e,,TULSA,,ok,74126,,30b2beb260804a57
285,-95.9933532,36.180226899999994,1715,n   martin luther king jr bv e,,TULSA,,ok,74103,,b912497a9491288d
286,-95.9938485,36.1793181,1616,n  martin luther king  jr bv e,,TULSA,,ok,74106,,fe5c391742ea5feb
287,-95.993844,36.1742995,1338,n  martin luther king jr bv,,TULSA,,ok,741520853,,6d7b517fd2dbcaf7
288,-95.9938436,36.1747109,1356,n  n martin luther king jr bv e,,TULSA,,ok,741480958,,b7e387209b02e24e
289,-95.9907235,36.1590308,200,n martin luther king bv e,,TULSA,,ok,741145619,,856ab4306755a2b6
290,-95.78729859999999,36.063749200000004,216,luther dr,,BROKEN ARROW,,ok,74012,,ed5029371677a88b
291,-97.1924123,35.339223,12800,s  luther rd,,Oklahoma City,Cleveland,ok,,,ad27107a03c185a2
292,-97.1944708,35.3325208,13600,s  luther  rd,,Oklahoma City,Cleveland,ok,,,e24a76c494f8f90c
293,-97.1960173,35.3221994,14609,s luther rd,,Oklahoma City,Cleveland,ok,,,286a39e54669e64b
294,-97.1954482,35.3199459,14925,luther rd,,Oklahoma City,Cleveland,ok,,,74845c0153f901f4
295,-97.1962182,35.3370933,13101,se luther rd,,Oklahoma City,Cleveland,ok,,,c513897c1310b374
296,-97.4771866,35.5410887,6601,n martin luther king ave,,Oklahoma City,Oklahoma,ok,,,1f406d6c3eaebb17
297,-97.4776777,35.5297595,5801,n a martin luther king ave,,Oklahoma City,Oklahoma,ok,,,ee972c40228b0f3a
298,-97.4776833,35.534256899999995,6101,n martin luther king blvd,,Oklahoma City,Oklahoma,ok,,,8e0c44592c090455
299,-97.47751550000001,35.5232854,5201,n martin luther king,,Oklahoma City,Oklahoma,ok,,,4b919a77a4b90799
300,-97.4772482,35.521294899999994,4901,martin luther king ave,,Oklahoma City,Oklahoma,ok,,,947bfde6e4e493c0
301,-97.4771733,35.464814000000004,105,s martin luther king ave,,Oklahoma City,Oklahoma,ok,,,6f97a32714caf418
302,-97.196162,35.4709193,491,n luther rd,,Harrah,Oklahoma,ok,,,c3771d4d34f04181
303,-97.1969679,35.484057799999995,1593,n luther,,Harrah,Oklahoma,ok,,,8b6e65c78053a661
304,-97.21667099999999,35.6726209,19814,lutheran rd,,Oklahoma City,Oklahoma,ok,,,5f2e154e52d4117d
305,-97.195676,35.6782816,20345,luther,,Luther,Oklahoma,ok,,,1a03d95823e66f87
306,-97.2522068,35.941770500000004,00104,s martin luther king,,Langston,Logan,ok,,,9d52c1be5aa28704
307,-97.2521189,35.943832,00223,martin luther king,,Langston,Logan,ok,,,270069dbce456c8f
308,-97.2521146,35.946799,00519,n martin luther king dr,,Langston,Logan,ok,,,755eff9a9504544e
309,-97.2513217,35.9463691,00605,n martin luther,,Langston,Logan,ok,,,ad8b53ab3a2bd6e5
310,-97.19033929999999,35.743151399999995,18650,e simmons rd luther,,Rural,Logan,ok,,,8b54c288ca7645b1
311,-82.04237359999999,26.933912300000003,602,dr martin luther king jr blvd,,charlotte,,fl,33950,,bfef82100dc474fe
312,-82.0260665,26.9868391,2511,luther rd,615,charlotte,,fl,33983,,e4c2a365565c4632
313,-84.56453540000001,30.4079773,3654,luther hall rd,,leon,,fl,,,9865a82eb51ee747
314,-82.5483722,27.360289399999996,1179,dr martin luther king jr way,,Sarasota,,fl,,AP_12182012_020154,10f8587ca5591c46
315,-82.5445333,27.3595472,1300,dr. martin luther king jr way,,Sarasota,,fl,,AP_03282016_397559,6495a4bac5ba04d7
316,-82.1125496,27.050719399999995,4652,luther ave,,North Port,,fl,,AP_12182012_228154,9303e5e012e6fc40
317,-87.1791246,30.662126899999997,3441,luther fowler rd,,Pace,,fl,32571,,3574a79e57daa849
318,-87.04017569999999,30.6192798,5082,dr martin luther king jr dr,,Milton,,fl,32570,,419027bc572fd451
319,-81.8401828,26.641426799999998,3579,dr martin luther king jr blvd,,FORT MYERS,,fl,33916,,48149633c29e283d
320,-81.926869,28.112018199999998,5310,lake luther rd,,city_of_lakeland,,fl,33805,,0f80c159874b6109
321,-81.921797,28.1219942,59,lake luther dr,,city_of_lakeland,,fl,33805,,e9a07cbd68a08981
322,-81.41358659999999,28.297444300000002,951,martin luther king blvd,,osceola,,fl,34741,,043e59cf382ad8ff
323,-81.44364190000002,28.261513300000004,1602,luther ln,,osceola,,fl,34746,,23438e5f180f4c76
324,-80.063255,26.535908199999998,130,e martin luther king jr blvd,,Boynton Beach,,fl,33435,,c382cb78f0c0695b
325,-80.667185,26.816403100000002,284,dr martin luther king jr blvd w,,Pahokee,,fl,33476,,df264946b8b4bf11
326,-80.6644227,26.682477399999996,257,dr martin luther king jr blvd e,,Belle Glade,,fl,33430,,fab60b53aa562836
327,-80.0726882,26.7699565,1268,dr martin luther king jr blvd,,Riviera Beach,,fl,33404,,0f675c345e818348
328,-80.06826629999999,26.536360700000003,315,w martin luther king jr blvd,,Boynton Beach,,fl,33435,,87bed8e6a5cc9140
329,-81.8972992,28.842167699999997,1415,dr martin luther king jr blvd,,lake,,fl,34748,,efb6a1eb0116e168
330,-81.3026689,28.805732300000003,700,martin luther king jr blvd,,SANFORD,,fl,32771.0,2619305AE45000000,28b48cc89ce573b8
331,-85.30417,29.820742,410,martin luther king blvd,,gulf,,fl,,,eb15e9767b1cc138
332,-85.3042489,29.8202642,308,"martin luther king blvd, unit a",,gulf,,fl,,,d4d844e7a0d37901
333,-85.3041282,29.820173999999998,308,"martin luther king blvd, unit b",,gulf,,fl,,,f767fadfbe4b160b
334,-81.43310720000001,27.506334399999997,918,martin luther king jr blvd,,highlands,,fl,,,9432dd65c3bc1c36
335,-81.7405891,30.3910163,5999,martin luther king dr,,JACKSONVILLE,,fl,32219,,669845cdf1f6c608
336,-81.4745636,29.6697826,9775,luther beck rd,,Hastings,,fl,32145,,6cb23abec93d3543
337,-81.0330943,29.2165413,429,n martin luther king blvd,,DAYTONA BEACH,,fl,32114,,c931510aa64a90ed
338,-81.0277184,29.2066538,144,s martin luther king blvd,,DAYTONA BEACH,,fl,32114,,b0de38b91dddd4bc
339,-81.2333606,28.9467784,1600,dr martin luther king blvd,,DELTONA,,fl,32725,,e5f56eeaa1025255
340,-81.8510022,27.2123239,1,n luther ave,,ARCADIA,,fl,,,2f3bfa52e27213ea
341,-81.85091949999999,27.210645799999998,130,s luther ave,,ARCADIA,,fl,,,08b8fbf5e094d5d6
342,-82.4609698,27.9817825,100,e martin luther king blvd,,hillsborough,,fl,33603,,ae6dd0e3f219008f
343,-82.46154770000001,27.9817326,105,w martin luther king blvd,,hillsborough,,fl,33603,,b127086729670ea5
344,-82.3608041,27.9821809,8350,e dr martin luther king jr blvd,,hillsborough,,fl,33619,,4d17410f7b6bb6da
345,-82.2883943,27.9807337,808,w dr martin luther king jr blvd,,hillsborough,,fl,33584,,04df4d1b80817b07
346,-82.21517270000001,27.9955648,14413,dr martin luther king jr blvd,,hillsborough,,fl,33527,,d3f138d428d89126
347,-82.429249,27.9817147,2708,martin luther king blvd,,hillsborough,,fl,33610,,692b42f393731c4b
348,-82.56740620000001,27.5243472,1206,dr martin luther king jr pl,,Palmetto,Manatee,fl,34221,,01ac4faa217c5fc5
349,-82.7848084,28.022390100000003,1367,martin luther king jr ave,,pinellas,,fl,34698,,0c49f0fc68820c87
350,-82.64675150000001,27.723823100000004,4825,dr martin luther king jr st s,,pinellas,,fl,33705,,cd4443d97390966d
351,-82.647126,27.8163648,4834,dr martin luther king jr st n,,pinellas,,fl,33703,,e6bcfcda6309b077
352,-82.7916563,27.9801394,1415,n martin luther king jr ave,,pinellas,,fl,33755,,29d179546c78b9c6
353,-82.79113840000001,27.952096100000002,1249,s martin luther king jr ave,,pinellas,,fl,33756,,6c928b9681894d34
354,-82.7615726,28.141100599999998,327,w martin luther king jr dr,,pinellas,,fl,34689,,f7b3e473df59cd5f
355,-82.75324509999999,28.141182500000003,312,e martin luther king jr dr,,pinellas,,fl,34689,,eb27be7a61d892eb
356,-80.2382135,27.1936005,908,se martin luther king jr blvd,,STUART,,fl,34994-2410,,1936fb7032d5a044
357,-81.6840816,29.997635499999998,610,martin luther king jr blvd,,GREEN COVE SPRINGS,CLAY,fl,,38-06-26-017730-000-00,cc6609a9bb727eff
358,-81.68420090000001,29.9971913,609,martin luther king blvd,,GREEN COVE SPRINGS,CLAY,fl,,38-06-26-017756-000-00,1f10063f72a30690
359,-86.5790054,30.753722600000003,1052,1/2 martin luther king ave c,,CRESTVIEW,OKALOOSA,fl,32536,18-3N-23-0000-0044-0000,ee61f93e7a813c1b
360,-85.53664609999998,30.7876966,557,martin luther king dr,,CHIPLEY,WASHINGTON,fl,32428,00000000-00-2675-0000,4cd55e9d12715a00
361,-85.5372187,30.789018199999997,,538ab martin luther king dr,,CHIPLEY,WASHINGTON,fl,32428,00000000-00-2769-0000,57c78e7ca8f43eac
362,-87.1627579,30.6612032,3829,luther fowler rd,,PACE,SANTA_ROSA,fl,,28-2N-29-0000-00102-0000,d9881f9564f12031
363,-87.0404419,30.623330499999998,5189,dr martin luther king jr dr,,MILTON,SANTA_ROSA,fl,,03-1N-28-2530-05300-0071,c073ee8188e78591
364,-87.04064050000001,30.620325399999995,5113,dr martin luther king jr st,,MILTON,SANTA_ROSA,fl,,03-1N-28-2530-06500-0040,05a1a731a210c4df
365,-81.8319695,30.566855600000004,618305,dr martin luther king jr ave,,CALLAHAN,NASSAU,fl,32011,29-2N-25-0000-0027-0000,fad9c41a779b5c3e
366,-81.82613470000001,30.5706467,45001,luther st,,CALLAHAN,NASSAU,fl,32011,51-2N-25-4170-0066-0000,6446ec7749de809b
367,-84.9939097,29.7270645,123,martin luther king ave,,,FRANKLIN,fl,32320,01-09S-08W-8330-0160-0100,afa90eb9e574f0cd
368,-84.9910341,29.7299472,67,martin luther king,,MS. CLARA B. WINFIELD,FRANKLIN,fl,32320,01-09S-08W-8330-0180-0010,f8d39e2b15eb6125
369,-81.85762220000001,26.6412108,2701,dr martin luther king jr blvd,,FORT MYERS,LEE,fl,33916,134424P3006130320,486406ad0aae4bf0
370,-81.8590609,26.641289,2649/2653,2649/2653 dr martin luther king jr blvd,,FORT MYERS,LEE,fl,33916,134424P3006140160,a42aac15a275135d
371,-81.8609791,26.641482699999997,2549/2551,2549/2551 dr martin luther king jr blvd,,FORT MYERS,LEE,fl,33901,134424P3025040110,56259a85cc31388d
372,-81.83544140000001,26.642242100000004,3773-3801,3773-3801 dr martin luther king jr blvd,,FORT MYERS,LEE,fl,33916,174425P4003000290,a168c581da8012c9
373,-81.8338882,26.642277000000004,3901-3905,3901-3905 dr martin luther king jr blvd,,FORT MYERS,LEE,fl,33916,174425P4003000310,bab017548a357b56
374,-81.8433421,26.6415702,3429/3433,3429/3433 dr martin luther king jr blvd,,FORT MYERS,LEE,fl,33916,184425P3033020030,d30851ce1008c504
375,-81.8416198,26.6416015,3511-3535,3511-3535 dr martin luther king jr blvd,,FORT MYERS,LEE,fl,33916,184425P3034030080,3add7a8df4c21157
376,-81.8535535,26.6406831,2934/2936,2934/2936 dr martin luther king jr blvd,,FORT MYERS,LEE,fl,33916,194425P1002020110,b82dbbed873f812c
377,-81.8471975,26.6399625,3218/3220,3218/3220 dr martin luther king jr blvd,,FORT MYERS,LEE,fl,33916,194425P20050B0010,de9e0c4653e07e76
378,-81.8451138,26.640771,3340/3346,3340/3346 dr martin luther king jr blvd,,FORT MYERS,LEE,fl,33916,194425P20050E0010,1577cf50e723ce3a
379,-81.8144282,26.640150199999997,4901/4911,4901/4911 dr martin luther king jr blvd,,FORT MYERS,LEE,fl,33905,21442501000070000,e0335a4eb5d8168f
380,-81.8064078,26.6375734,5301-5321,5301-5321 dr martin luther king jr blvd,,FORT MYERS,LEE,fl,33905,224425P1003000010,296010c6e01bea1f
381,-81.868101,26.640522100000002,2220/2232,2220/2232 dr martin luther king jr blvd,,FORT MYERS,LEE,fl,33901,244424P1010000210,fb2948fd29f301d8
382,-81.2525442,29.5993677,104,luther dr,,PALM COAST,FLAGLER,fl,32137,07-11-31-7037-00110-0060,3fa99b358dc32a4c
383,-81.80126920000001,27.526504,1543,martin luther king jr ave,,WAUCHULA,HARDEE,fl,33873,15-34-25-0830-00017-0008,1e88e87ecd2a1fd8
384,-81.8538181,27.598018100000004,1105,luther rd,,BOWLING GREEN,HARDEE,fl,33834,19-33-25-0000-01810-0000,6d40ad54291e2053
385,-82.9572495,30.517449100000004,1204,martin luther king dr sw,,JASPER,HAMILTON,fl,32052,6220-000,af00b76ba82c2c93
386,-85.9216837,30.7293498,1681,james luther st,,PONCE DE LEON,HOLMES,fl,32455,1827.01-001-00B-017.000,36a85163719c1232
387,-82.9484433,30.5170543,110,martin luther king blvd se,,JASPER,HAMILTON,fl,,6391-010,eada34c47c7ebaae
388,-82.9546757,30.5174794,808,martin luther king blvd sw,,JASPER,HAMILTON,fl,32052,6170-000,63c9064fd3cd8729
389,-85.67758909999999,30.7901956,209,martin luther king jr av,,BONIFAY,HOLMES,fl,,0531.03-003-027-004.000,274fbaee0ec86bea
390,-85.673956,30.7901088,511,martin luther king dr e,,BONIFAY,HOLMES,fl,32425,0531.04-001-030-005.000,a9c54bc2126df8e0
391,-85.4201207,30.8951136,2108,martin luther king st,,COTTONDALE,JACKSON,fl,32431,27-6N-12-0000-0010-0040,7c66770a633b786a
392,-84.3156194,30.174466,1308,dr martin luther king jr rd,,,WAKULLA,fl,,00-00-043-000-09801-063,37cc4aa0dbb88d75
393,-83.1810962,30.049918100000003,694,sw martin luther king jr,,MAYO,LAFAYETTE,fl,32066,1305110012100000010,867079659be76d59
394,-83.1810308,30.0462642,447,sw martin luther king blv,,MAYO,LAFAYETTE,fl,32066,1305110013056000010,dcf9fcec83a74ef6
395,-83.1809504,30.050514899999996,738,sw martin luther king,,MAYO,LAFAYETTE,fl,32066,1305110012084000040,49fd2e3658080306
396,-83.6341966,30.458438899999997,234,sw martin luther king st,,GREENVILLE,MADISON,fl,32331,00-00-00-2332-002-000,7974bc9ee4247616
397,-83.373032,30.462533399999998,288,se luther dr,,MADISON,MADISON,fl,32340,25-1N-09-4813-019-000,ee63fe2e9f310198
398,-83.7671715,30.570710700000003,506,luther fountain rd,,MONTICELLO,JEFFERSON,fl,32344,18-2N-6E-0000-0042-0000,7e90d0d9fcf4f027
399,-83.86307509999999,30.543987199999997,380,s martin luther king jr ave,,MONTICELLO,JEFFERSON,fl,32344,00-00-00-0250-0000-0120,eb090b6ae6af49f6
400,-83.7718166,30.577232399999996,208,luther fountain dr,,MONTICELLO,JEFFERSON,fl,32344,18-2N-6E-0000-0056-0000,6051d762b94ec06f
401,-81.9674266,30.309246299999998,615,martin luther king jr dr,,BALDWIN,DUVAL,fl,32234,0001650000R,535527dbf04d6646
402,-82.1953142,28.3687126,37507,martin luther king b,,DADE CITY,PASCO,fl,33523,27-24-21-0000-03700-0000,2508311c083f8451
403,-81.7996663,27.747051799999998,109,se dr martin luther king jr st,,FORT MEADE,POLK,fl,33841,253134477000019032,9803ce8b8dbcca60
404,-81.62250859999999,28.1230359,1714,martin luther king jr way,,HAINES CITY,POLK,fl,33844,272721753000000660,5022065b3265f189
405,-81.6234001,28.013724800000002,615,martin luther king jr st,,DUNDEE,POLK,fl,33838,272828844000023081,94add59fff1c4330
406,-81.92065649999999,28.123482399999997,42,lake luther dr,,LAKELAND,POLK,fl,33805,242720161500000120,0edcb8b1ab208029
407,-81.80325079999999,27.7466533,109,sw dr martin luther king jr st,,FORT MEADE,POLK,fl,33841,253134477000011014,52c76f5a4f6700b7
408,-81.92208259999998,28.1244748,6335,lake luther rd,,LAKELAND,POLK,fl,33805,242720161500000143,fb07a8ac74957d3e
409,-81.80232559999999,27.747145500000002,32,sw dr martin luther king jr blvd,,FORT MEADE,POLK,fl,33841,253134478500002070,893c60840bd75357
410,-81.83346209999999,27.891575899999996,980,martin luther king jr blvd e,,BARTOW,POLK,fl,33830,253008414500082081,d032ef2e00149d8e
411,-81.9652946,27.8992495,701,dr martin luther king jr ave ne,,MULBERRY,POLK,fl,33860,233001000000023070,8d0cb4405a32f32d
412,-81.6231677,28.0140011,611,dr martin luther king st,,DUNDEE,POLK,fl,33838,272828844000023090,2a98197e363d3322
413,-81.6225079,28.123573800000003,1814,n martin luther king jr way,,HAINES CITY,POLK,fl,33844,272721753000000620,2f14ca4c615218b9
414,-81.9615983,28.0546596,940,n martin luther king jr ave,,LAKELAND,POLK,fl,33801,232813074500001010,fde35d044f4ac868
415,-81.80366409999999,27.7471652,122,dr martin luther king jr st sw,,FORT MEADE,POLK,fl,33841,253134477000002031,3dc6f08e5b72edc1
416,-81.8229395,27.891665399999997,2080,e martin luther king blvd,,BARTOW,POLK,fl,33830,253009000000033850,1e4aed61bd5f96a9
417,-81.7990742,27.7466313,126,dr martin luther king jr st se,,FORT MEADE,POLK,fl,33841,253134477000022014,6c243e03e6801bcd
418,-81.6221168,28.1205185,1305,dr martin luther king,,HAINES CITY,POLK,fl,33844,272721756000004010,805db1cbfb7d9a3d
419,-81.62243609999999,28.118077500000002,812,dr martin luther king jr way,,HAINES CITY,POLK,fl,33844,272721756000011110,c2ec92e4a861c815
420,-81.5933574,27.9004668,25,dr martin luther king jr blvd s,,LAKE WALES,POLK,fl,33853,273002905500002120,04d45acf7dbcec66
421,-81.96185990000001,28.0632202,1420,martin luther king jr ave n,,LAKELAND,POLK,fl,33805,232812000000014040,bf1441023bf6b6a0
422,-81.5940188,27.906141700000003,517,dr martin luther king jr blvd n,,LAKE WALES,POLK,fl,33853,273002908500000310,e8b5f7f038597f8c
423,-81.8026896,27.747042800000003,34,sw martin luther king jr st,,FORT MEADE,POLK,fl,33841,253134478500002101,5fdbf021d4fc2604
424,-81.59342600000001,27.9025016,130,dr martin luther king blvd n,,LAKE WALES,POLK,fl,33853,273002908000002140,22a4b65cc3e26f1e
425,-81.96172359999998,28.0565593,1046,martin luther king jr hwy,,LAKELAND,POLK,fl,33805,232812056500001013,c1f7101e2c5ce040
426,-81.62354140000001,28.017381,213,dr martin luther king st sw,,DUNDEE,POLK,fl,33838,272828844000007240,19fdd2b2b03d7c33
427,-81.47654159999999,29.6801831,9501,luther beck rd,,HASTINGS,ST_JOHNS,fl,32145,0494500000,12e88469ccb6e418
428,-80.24220720000001,27.1940473,645,se martin luther king jr blvd,,STUART,MARTIN,fl,34994,04-38-41-000-000-00210-2,ef16f81b80809273
429,-80.2463192,27.1943576,407,se martin luther king blvd,,STUART,MARTIN,fl,34994,04-38-41-004-010-00130-4,dbb9534d68f56464
430,-83.7231257,30.277065399999998,9085,luther wilson rd,,Greenville,TAYLOR,fl,32331,01450-000,a7edb780094e2818
431,-82.0424084,28.8626266,108-10,108-10 dr martin luther king jr,,WILDWOOD,SUMTER,fl,34785,G06F034,88ef37a2a2bb7e58
432,-82.0448694,28.859188,415,dr martin luther king ave,,WILDWOOD,SUMTER,fl,34785,G06J052,798ac5039368d02c
433,-82.04260790000001,28.863152799999998,100,dr martin luther king dr,,WILDWOOD,SUMTER,fl,34785,G06F029,f9548bef6bf7bce8
434,-82.04268520000001,28.862984899999997,102-04,102-04 dr martin luther king jr,,WILDWOOD,SUMTER,fl,34785,G06F030,1435b0f4721da55d
435,-82.04273690000001,28.8628704,106,dr martin luther king jr,,WILDWOOD,SUMTER,fl,34785,G06F033,f729319ecc5b32d8
436,-82.0428493,28.862625199999997,112-14,112-14 dr martin luther king jr,,WILDWOOD,SUMTER,fl,34785,G06F041,48e97c5dc7c882e2
437,-81.87323959999999,27.205093100000003,1869,martin luther king jr st sw,,ARCADIA,DESOTO,fl,34266,01-38-24-0190-0040-0130,1b79ecb8aab1ace8
438,-81.85032259999998,27.2105163,129,luther ave s,,ARCADIA,DESOTO,fl,34266,31-37-25-0224-00O0-0150,ff4739d7a0ebbfed
439,-81.85031690000001,27.2148435,222,luther ave n,,ARCADIA,DESOTO,fl,34266,31-37-25-0224-00C0-0010,3f6836d01752664d
440,-82.6250398,30.198687699999997,843,martin luther king st ne,,,COLUMBIA,fl,,00-00-00-10669-000,b2d3bd946528e22f
441,-82.638428,30.1982945,164,martin luther king st nw,,LAKE CITY,COLUMBIA,fl,,00-00-00-11353-000,152608874f8ec274
442,-85.0390772,30.435561600000003,21031,martin luther king dr se,,BLOUNTSTOWN,CALHOUN,fl,32424,33-1N-08-0001-0023-0000,1a4d41ac0bfe0615
443,-85.0408347,30.435612899999995,20939,martin luther king ave se,,BLOUNTSTOWN,CALHOUN,fl,32424,33-1N-08-0003-0028-0000,e13972223fab7505
444,-85.0392073,30.436260100000002,21032,martin luther king bv se,,BLOUNTSTOWN,CALHOUN,fl,32424,33-1N-08-0180-0018-1500,c4362924e67fcc61
445,-84.9717187,30.5177988,7852,martin luther king rd nw,,BRISTOL,LIBERTY,fl,32321,006-1N-7W-01129 000,45e889cf5323557d
446,-81.8710657,26.641353000000002,2075-2115,2075-2115 dr martin luther king jr blvd,,FORT MYERS,LEE,fl,33901,134424P4004100020,d8f1e62ba27c58fc
447,-81.81839559999999,26.632827000000002,4460-4540,4460-4540 dr martin luther king jr blvd,,FORT MYERS,LEE,fl,33905,214425P1001000160,f63737b81bf9d46c
448,-87.21646059999999,30.443250800000005,3001,dr martin luther king jr dr a,,PENSACOLA,ESCAMBIA,fl,32503,042S306003009002,926d828b08f9efc6
449,-87.2177322,30.4474436,3435,n dr martin luther king dr rear,,PENSACOLA,ESCAMBIA,fl,32503,042S303001031001,4c076fd47f32fd3c
450,-87.2153907,30.441850800000005,2800,blk dr martin luther king jr,,PENSACOLA,ESCAMBIA,fl,32503,000S009025041343,5902bf3176bf8898
451,-87.2129377,30.4251826,1101,n dr martin luther king jr dr,,PENSACOLA,ESCAMBIA,fl,32503,000S009020022036,7e7d770fd09d8483
452,-87.2170058,30.446042900000002,3300,blk dr martin luther king jr dr,,PENSACOLA,ESCAMBIA,fl,32503,042S306003009005,abf5e92c3cb9bc2c
453,-86.5720932,30.754601300000004,490,martin luther king jr.,,CRESTVIEW,OKALOOSA,fl,32536,17-3N-23-2490-0077-0100,f26fcc9fd02c6534
454,-86.5692531,30.7564542,194,martin luther king ave w,,CRESTVIEW,OKALOOSA,fl,32536,17-3N-23-2490-0013-0760,18a99c258a18c6b7
455,-87.2145795,30.4367172,,2300blk dr martin luther king jr,,PENSACOLA,ESCAMBIA,fl,32503,000S009020002113,ce6baceea59fa444
456,-87.2137458,30.4292785,1513,dr martin luther king jr 1/2,,PENSACOLA,ESCAMBIA,fl,32503,000S009020019098,4b4e3ae2f2f5f197
457,-87.2175747,30.448054,3455,n dr martin luther king dr,,PENSACOLA,ESCAMBIA,fl,32503,042S303001050001,9feb9e4690e39388
458,-86.57112940000002,30.7553488,398,martin luther king blvd w,,CRESTVIEW,OKALOOSA,fl,32536,17-3N-23-2490-0011-0040,f33fd1a9340277bb
459,-86.5688426,30.7561064,157,martin luther k blvd,,CRESTVIEW,OKALOOSA,fl,32536,17-3N-23-2490-0018-0140,26e0f0d5a6da1d2e
460,-86.569141,30.7566505,136,martin luther king jr ave a & b,,CRESTVIEW,OKALOOSA,fl,32536,17-3N-23-2490-0013-077A,931569b0110f0afb
461,-86.5784503,30.752768,1005,martin luther king jr ave e-4,,CRESTVIEW,OKALOOSA,fl,32536,18-3N-23-1290-000E-0040,3eb189e48a0e1bba
462,-86.5788832,30.7527228,1005,martin luther king jr ave f-1,,CRESTVIEW,OKALOOSA,fl,32536,18-3N-23-1290-000F-0010,ec956b5c8cfbb0d7
463,-86.5786991,30.752744099999997,1005,martin luther king jr ave e-8,,CRESTVIEW,OKALOOSA,fl,32536,18-3N-23-1290-000E-0080,d6f15efc61e4d229
464,-86.5786304,30.7527507,1005,martin luther king jr ave e-7,,CRESTVIEW,OKALOOSA,fl,32536,18-3N-23-1290-000E-0070,50311bb0a20d7d5b
465,-86.5785608,30.752757399999997,1005,martin luther king jr ave e-6,,CRESTVIEW,OKALOOSA,fl,32536,18-3N-23-1290-000E-0060,b11e8d11b17a3bba
466,-86.57850090000001,30.7527631,1005,martin luther king jr ave e-5,,CRESTVIEW,OKALOOSA,fl,32536,18-3N-23-1290-000E-0050,dbbe5bc149847dfc
467,-86.5788869,30.752334,1005,martin luther king jr ave f-8,,CRESTVIEW,OKALOOSA,fl,32536,18-3N-23-1290-000F-0080,cba5ad19c0e8ce8f
468,-86.57888630000001,30.7523937,1005,martin luther king jr ave f-7,,CRESTVIEW,OKALOOSA,fl,32536,18-3N-23-1290-000F-0070,42ff4fadb3e62777
469,-86.5788858,30.7524538,1005,martin luther king jr ave f-6,,CRESTVIEW,OKALOOSA,fl,32536,18-3N-23-1290-000F-0060,5272f4e501ee2177
470,-86.5788853,30.752506,1005,martin luther king jr ave f-5,,CRESTVIEW,OKALOOSA,fl,32536,18-3N-23-1290-000F-0050,b4dde26fd2a44532
471,-86.5788849,30.752550399999997,1005,martin luther king jr ave f-4,,CRESTVIEW,OKALOOSA,fl,32536,18-3N-23-1290-000F-0040,6a1248d27fcd589c
472,-86.5788844,30.752603000000004,1005,martin luther king jr ave f-3,,CRESTVIEW,OKALOOSA,fl,32536,18-3N-23-1290-000F-0030,9292e8f0060a01b1
473,-86.5788838,30.752663300000002,1005,martin luther king jr ave f-2,,CRESTVIEW,OKALOOSA,fl,32536,18-3N-23-1290-000F-0020,bf3b230ca0bd90b6
474,-86.5783898,30.7527738,1005,martin luther king jr ave e-3,,CRESTVIEW,OKALOOSA,fl,32536,18-3N-23-1290-000E-0030,f542f811deff68d0
475,-86.5783199,30.7527804,1005,martin luther king jr ave e-2,,CRESTVIEW,OKALOOSA,fl,32536,18-3N-23-1290-000E-0020,2eaaad46f00fe443
476,-86.57825140000001,30.752787199999997,1005,martin luther king jr ave e-1,,CRESTVIEW,OKALOOSA,fl,32536,18-3N-23-1290-000E-0010,a2bf24e66790dc0f
477,-86.57801500000001,30.7523684,1005,martin luther king jr ave d-9,,CRESTVIEW,OKALOOSA,fl,32536,18-3N-23-1290-000D-0090,8eb808f5cf00e79f
478,-86.5780227,30.7524278,1005,martin luther king jr ave d-8,,CRESTVIEW,OKALOOSA,fl,32536,18-3N-23-1290-000D-0080,396e9841a826884d
479,-86.57803050000001,30.752487899999995,1005,martin luther king jr ave d-7,,CRESTVIEW,OKALOOSA,fl,32536,18-3N-23-1290-000D-0070,c2b8cf78a5a4d9f6
480,-86.5780373,30.752539799999997,1005,martin luther king jr ave d-6,,CRESTVIEW,OKALOOSA,fl,32536,18-3N-23-1290-000D-0060,b9de32ead7213556
481,-86.5780431,30.752583899999998,1005,martin luther king jr ave d-5,,CRESTVIEW,OKALOOSA,fl,32536,18-3N-23-1290-000D-0050,8b86ecfc9e0dfd97
482,-86.57804990000001,30.752636199999998,1005,martin luther king jr ave d-4,,CRESTVIEW,OKALOOSA,fl,32536,18-3N-23-1290-000D-0040,cd50641ca4dd5e67
483,-86.5780577,30.7526966,1005,martin luther king jr ave d-3,,CRESTVIEW,OKALOOSA,fl,32536,18-3N-23-1290-000D-0030,27f0decb9915832d
484,-86.5780645,30.752748999999998,1005,martin luther king jr ave d-2,,CRESTVIEW,OKALOOSA,fl,32536,18-3N-23-1290-000D-0020,10dab333719075a9
485,-86.5780723,30.7528082,1005,martin luther king jr ave d-1,,CRESTVIEW,OKALOOSA,fl,32536,18-3N-23-1290-000D-0010,014659c6d6d2729b
486,-86.5774,30.7524705,1005,martin luther king jr ave c-8,,CRESTVIEW,OKALOOSA,fl,32536,18-3N-23-1290-000C-0080,0c8597bac3155b61
487,-86.577331,30.752476799999997,1005,martin luther king jr ave c-7,,CRESTVIEW,OKALOOSA,fl,32536,18-3N-23-1290-000C-0070,856b7f717870475d
488,-86.5772613,30.7524831,1005,martin luther king jr ave c-6,,CRESTVIEW,OKALOOSA,fl,32536,18-3N-23-1290-000C-0060,de8e8817d8729c3b
489,-86.5772016,30.752488500000002,1005,martin luther king jr ave c-5,,CRESTVIEW,OKALOOSA,fl,32536,18-3N-23-1290-000C-0050,530da64374bd24c6
490,-86.5771528,30.7524929,1005,martin luther king jr ave c-4,,CRESTVIEW,OKALOOSA,fl,32536,18-3N-23-1290-000C-0040,1d1cada05b71c99c
491,-86.5770945,30.7524982,1005,martin luther king jr ave c-3,,CRESTVIEW,OKALOOSA,fl,32536,18-3N-23-1290-000C-0030,298b7631f97e079f
492,-86.57702490000001,30.7525044,1005,martin luther king jr ave c-2,,CRESTVIEW,OKALOOSA,fl,32536,18-3N-23-1290-000C-0020,a8acbbee6bf50926
493,-86.5769578,30.752509999999997,1005,martin luther king jr ave c-1,,CRESTVIEW,OKALOOSA,fl,32536,18-3N-23-1290-000C-0010,59b9a0ee4f895a9c
494,-86.577588,30.7524208,1005,martin luther king jr ave b-9,,CRESTVIEW,OKALOOSA,fl,32536,18-3N-23-1290-000B-0090,8fa7982f733ca8d2
495,-86.5775955,30.752480100000003,1005,martin luther king jr ave b-8,,CRESTVIEW,OKALOOSA,fl,32536,18-3N-23-1290-000B-0080,223f70cf5ef151ae
496,-86.5776021,30.7525321,1005,martin luther king jr ave b-7,,CRESTVIEW,OKALOOSA,fl,32536,18-3N-23-1290-000B-0070,a6eb39f6e9f9e865
497,-86.57760959999999,30.752592100000005,1005,martin luther king jr ave b-6,,CRESTVIEW,OKALOOSA,fl,32536,18-3N-23-1290-000B-0060,1858b47cdd7627da
498,-86.5776162,30.7526442,1005,martin luther king jr ave b-5,,CRESTVIEW,OKALOOSA,fl,32536,18-3N-23-1290-000B-0050,4121b57d5f71bec2
499,-86.57762190000001,30.752688800000005,1005,martin luther king jr ave b-4,,CRESTVIEW,OKALOOSA,fl,32536,18-3N-23-1290-000B-0040,97fbf33829cb98ba
500,-86.5776285,30.7527413,1005,martin luther king jr ave b-3,,CRESTVIEW,OKALOOSA,fl,32536,18-3N-23-1290-000B-0030,fcd1b5b6a7ef0b19
501,-86.57763609999999,30.7528015,1005,martin luther king jr ave b-2,,CRESTVIEW,OKALOOSA,fl,32536,18-3N-23-1290-000B-0020,e84b81cb086a0fea
502,-86.5776436,30.7528608,1005,martin luther king jr ave b-1,,CRESTVIEW,OKALOOSA,fl,32536,18-3N-23-1290-000B-0010,2db98d0fa2d5de14
503,-86.5774501,30.752887,1005,martin luther king jr ave a-8,,CRESTVIEW,OKALOOSA,fl,32536,18-3N-23-1290-000A-0080,2bcc442cefaa6429
504,-86.5773813,30.752892499999998,1005,martin luther king jr ave a-7,,CRESTVIEW,OKALOOSA,fl,32536,18-3N-23-1290-000A-0070,329112edd1e9d621
505,-86.5773123,30.752898100000003,1005,martin luther king jr ave a-6,,CRESTVIEW,OKALOOSA,fl,32536,18-3N-23-1290-000A-0060,753e398d9f847a53
506,-86.5772528,30.7529029,1005,martin luther king jr ave a-5,,CRESTVIEW,OKALOOSA,fl,32536,18-3N-23-1290-000A-0050,c5a33c4d4bdc33f2
507,-86.5772021,30.752907,1005,martin luther king jr ave a-4,,CRESTVIEW,OKALOOSA,fl,32536,18-3N-23-1290-000A-0040,8eb064025c043718
508,-86.5771417,30.7529119,1005,martin luther king jr ave a-3,,CRESTVIEW,OKALOOSA,fl,32536,18-3N-23-1290-000A-0030,1708c6daf0b455a1
509,-86.5770718,30.7529175,1005,martin luther king jr ave a-2,,CRESTVIEW,OKALOOSA,fl,32536,18-3N-23-1290-000A-0020,2510a9698ad47ab9
510,-86.5770035,30.7529239,1005,martin luther king jr ave a-1,,CRESTVIEW,OKALOOSA,fl,32536,18-3N-23-1290-000A-0010,8a7bfdd981f2125b
511,-86.5793241,30.753297600000003,1088,martin luther king jr ave w,,CRESTVIEW,OKALOOSA,fl,32536,18-3N-23-0000-0048-0010,eb7ba30a8ef2f331
512,-86.57884759999999,30.7540299,1052,1/2 martin luther king ave w,,CRESTVIEW,OKALOOSA,fl,32536,18-3N-23-0000-0045-0000,ebf59966e3ef92da
513,-86.5786777,30.7537637,1052,1/2 martin luther king ave b,,CRESTVIEW,OKALOOSA,fl,32536,18-3N-23-0000-0043-0000,8b37ed51c493df0b
514,-84.99328440000001,29.727063300000005,120,mlk aj's bar & grill blvd,,,FRANKLIN,fl,32320,01-09S-08W-8330-0159-0050,56ebb30c6369a46a
515,-83.8633493,30.5390393,890,s mlk jr,,MONTICELLO,JEFFERSON,fl,32344,00-00-00-0450-0016-0081,9118a79648e5f2f3
516,-83.8633183,30.542494399999995,490,mlk blvd (old s rhodes),,MONTICELLO,JEFFERSON,fl,32344,00-00-00-0250-0000-0101,301444ae5189567f
517,-83.8640082,30.540358500000004,705,dr mlk ave,,MONTICELLO,JEFFERSON,fl,32344,00-00-00-0450-0017-0041,843893762c745615
518,-83.8632578,30.541938899999998,520,mlk jr blvd (s rhodes),,MONTICELLO,JEFFERSON,fl,32344,00-00-00-0250-0000-0090,e0cd7de13c91443e
519,-83.8632257,30.5403636,730,mlk jr (old-s rhodes st),,MONTICELLO,JEFFERSON,fl,32344,00-00-00-0450-0015-0050,4a754312bd44654a
520,-83.8638627,30.5430494,475,mlk blvd- (old s rhodes),,MONTICELLO,JEFFERSON,fl,32344,00-00-00-0250-0000-0023,bdc8defc55b117cd
521,-83.86370059999999,30.543393199999997,405,s rhodes (mlk jr blvd),,MONTICELLO,JEFFERSON,fl,32344,00-00-00-0250-0000-0020,601caeba452803f5
522,-83.86325550000001,30.542214299999998,510,mlk blvd,,MONTICELLO,JEFFERSON,fl,32344,00-00-00-0250-0000-0091,1f1a50f9fdd1827d
523,-81.594064,27.9039591,303,n mlk blvd,,LAKE WALES,POLK,fl,33853,273002000000034220,54158471af7f9b64
524,-81.62219870000001,28.121738099999998,1511,n mlk jr way,,HAINES CITY,POLK,fl,33844,272721753500012080,e3a0c5244043239b
525,-81.96639590000001,27.899098600000002,700,dr mlk jr ave ne,,MULBERRY,POLK,fl,33860,233001000000041020,d43ad40cc84842a3
526,-81.9650466,27.892920399999998,310,dr mlk jr ave,,MULBERRY,POLK,fl,33860,233012000000013060,11191ee3acb95044
527,-81.80511800000001,27.747030199999998,220,sw dr mlk jr st sw,,FORT MEADE,POLK,fl,33841,253134477000003033,efe2b7aa190f71f9
528,-81.9610821,28.053782799999997,915,mlk ave,,LAKELAND,POLK,fl,33815,232813077000005030,f6d9d87bf9c44746
529,-85.0405562,30.4356118,430,azalea & mlk dr,,BLOUNTSTOWN,CALHOUN,fl,32424,33-1N-08-0003-0027-0000,a88c00d400f22089
530,-85.0408626,30.4361503,402,preston & mlk ave,,BLOUNTSTOWN,CALHOUN,fl,32424,33-1N-08-0003-0022-0000,57e00eb8daa9778c
531,-85.597233,30.130782,915,luther st,,PANAMA CITY,BAY,fl,32404,,1abb87d5b9bbda9b
532,-85.6499741,30.158926300000005,600,martin luther king jr blvd,,PANAMA CITY,BAY,fl,32401,,3d0986cc75cb465e
533,-85.6501315,30.146539899999997,106,n  martin luther king jr blvd,,PANAMA CITY,BAY,fl,32401,,e07af943439270fe
534,-80.727678,28.329040000000003,1114,luther dr,,ROCKLEDGE,BREVARD,fl,32955,,3c3a385e1f92a878
535,-85.04034,30.435896999999997,20939,se martin luther king ave,,BLOUNTSTOWN,CALHOUN,fl,32424,,513fa1f8d8602028
536,-82.04563900000001,26.938228000000002,223,dr martin luther king jr blvd,,PUNTA GORDA,CHARLOTTE,fl,33950,,4b5a6e117b2f8b92
537,-82.031851,26.994901000000002,2300,luther rd,,PUNTA GORDA,CHARLOTTE,fl,33983,,d0c693e645e95a55
538,-82.637064,30.198403000000003,112,ne martin luther king st,,LAKE CITY,COLUMBIA,fl,32055,,240682eace1f6677
539,-82.637876,30.198413000000002,134,nw martin luther king st,,LAKE CITY,COLUMBIA,fl,32055,,79b8c1af94b1ff76
540,-81.85065,27.21203,1,n  luther ave,,ARCADIA,DESOTO,fl,34266,,80d034f1231f7ded
541,-81.850658,27.211495000000003,109,s  luther ave,,ARCADIA,DESOTO,fl,34266,,117e2eef5e74e243
542,-81.73568399999999,30.390511,5614,martin luther king dr,,JACKSONVILLE,DUVAL,fl,32219,,6b22491888400b06
543,-81.96794399999999,30.303354,72,martin luther king jr dr,,JACKSONVILLE,DUVAL,fl,32234,,aacb28c003052ca7
544,-87.21207,30.4222,800,dr martin luther king jr dr,,PENSACOLA,ESCAMBIA,fl,32501,,f0fa8a9191146e79
545,-84.99065999999999,29.72999,2,martin luther king jr ave,,APALACHICOLA,FRANKLIN,fl,32320,,70b86fb108f2a915
546,-85.30400999999999,29.81813,100,martin luther king blvd,,PORT ST JOE,GULF,fl,32456,,8acaf3e3124ce8ab
547,-82.948575,30.517432,202,martin luther king dr sw,,JASPER,HAMILTON,fl,32052,,5f317c34aac8d147
548,-82.94747,30.517307000000002,104,se martin luther king dr,,JASPER,HAMILTON,fl,32052,,2967242886ef9d3a
549,-82.947777,30.517341,108,sw martin luther king dr,,JASPER,HAMILTON,fl,32052,,58dfe648866ddb70
550,-82.46090790000001,27.981755600000003,100,e  martin luther king blvd,,TAMPA,HILLSBOROUGH,fl,33603,,564a7e947395ecf7
551,-82.4606113,27.9813679,100,w  martin luther king blvd,,TAMPA,HILLSBOROUGH,fl,33603,,b41470bf4f0a71a8
552,-85.67821500000001,30.790229800000002,201,martin luther king ave,,BONIFAY,HOLMES,fl,32425,,09287d479e11ac79
553,-83.771158,30.579240999999996,39,luther fountain rd,,MONTICELLO,JEFFERSON,fl,32344,,8369adc4c183eb51
554,-83.705641,30.281499,8105,luther wilson rd,,GREENVILLE,JEFFERSON,fl,32331,,37f6f25e2a515c98
555,-83.63253399999999,30.458153999999997,144,sw martin luther king st,,GREENVILLE,JEFFERSON,fl,32331,,1e1f230392b00b44
556,-84.571337,30.418262,2995,luther hall rd,,TALLAHASSEE,LEON,fl,32310,,e64f7ba09c84dfa5
557,-83.3735401,30.4622005,288,se luther dr,,MADISON,MADISON,fl,32340,,473b752ed0cbcba6
558,-80.25284,27.19394,1,se martin luther king jr blvd,,STUART,MARTIN,fl,34994,,ce9883d89a8b3997
559,-81.82661,30.5733965,618597,dr martin luther king jr ave,,CALLAHAN,NASSAU,fl,32011,,022aa4010701b35c
560,-81.44344,28.261703999999998,1601,luther ln,,KISSIMMEE,OSCEOLA,fl,34746,,de4b1946db1af109
561,-80.66783000000001,26.682240000000004,1,dr martin luther king jr blvd e,,BELLE GLADE,PALM BEACH,fl,33430,,d491f5309b31c8d5
562,-80.66833199999999,26.682238,40,dr martin luther king jr blvd w,,BELLE GLADE,PALM BEACH,fl,33430,,9d335ba1580cecba
563,-80.06383050000001,26.535844300000004,100,e  martin luther king jr blvd,,BOYNTON BEACH,PALM BEACH,fl,33435,,d41fb76d05fc6555
564,-80.0647346,26.5362898,111,w  martin luther king jr blvd,,BOYNTON BEACH,PALM BEACH,fl,33435,,ad7fad320df45c09
565,-82.64666,27.771465999999997,16,dr martin luther king jr st n,,ST PETERSBURG,PINELLAS,fl,33705,,8a4282b1a134271e
566,-82.646658,27.770937,25,dr martin luther king jr st s,,ST PETERSBURG,PINELLAS,fl,33705,,7b6146557cf43f7c
567,-82.646328,27.7650821,524,s  dr martin luther king jr st,,ST PETERSBURG,PINELLAS,fl,33705,,02b1f732e026f9e1
568,-82.7920568,27.9801104,1434,martin luther king jr ave n,,CLEARWATER,PINELLAS,fl,33755,,65e29317e977564c
569,-82.791756,27.966755,107,n  martin luther king jr ave,,CLEARWATER,PINELLAS,fl,33755,,62bef871d5da151e
570,-82.791776,27.964655,115,s  martin luther king jr ave,,CLEARWATER,PINELLAS,fl,33756,,9e8da1df5c0cee03
571,-82.755513,28.14132,112,e  martin luther king jr dr,,TARPON SPRINGS,PINELLAS,fl,34689,,1bd2ad913ab59bed
572,-82.756651,28.14132,3,w  martin luther king jr dr,,TARPON SPRINGS,PINELLAS,fl,34689,,1304cea69e5d0a10
573,-81.59368,27.902116999999997,118,dr martin luther king jr blvd n,,LAKE WALES,POLK,fl,33853,,622416f204c262c2
574,-81.5936,27.9004,21,dr martin luther king jr blvd s,,LAKE WALES,POLK,fl,33853,,683e9cdaa6771282
575,-81.921578,28.12401,35,lake luther dr,,LAKELAND,POLK,fl,33805,,9ff2595f73e06264
576,-81.926,28.110266999999997,5260,lake luther rd,,LAKELAND,POLK,fl,33805,,9288e65d87efdb02
577,-81.7205346,28.099430600000005,550,martin luther king jr st,,LAKE ALFRED,POLK,fl,33850,,f36163213c72e8f2
578,-87.17963,30.662461999999998,3433,luther fowler rd,,PACE,SANTA ROSA,fl,32571,,25fd12fb9d98b927
579,-81.475425,29.674758,5025,luther beck rd,,HASTINGS,ST JOHNS,fl,32145,,17a8b7dbbdeeb645
580,-81.23336,28.9467784,1600,dr martin luther king blvd,,DELTONA,VOLUSIA,fl,32725,,cf679b946c04b87f
581,-81.0291863,29.2091041,120,n  dr martin luther king jr blvd,,DAYTONA BEACH,VOLUSIA,fl,32114,,40ff4d4ba4c19de6
582,-81.0282,29.208027,110,s  dr martin luther king jr blvd,,DAYTONA BEACH,VOLUSIA,fl,32114,,a2d18f119d5e0d79
583,-81.0291229,29.209069399999997,120,n  martin luther king blvd,,DAYTONA BEACH,VOLUSIA,fl,32114,,822417d7fb503201
584,-81.0283102,29.207588,112,s  martin luther king blvd,,DAYTONA BEACH,VOLUSIA,fl,32114,,8eb4204d84bd5a03
585,-82.567841,27.524345,1202,dr martin luther king jr pl,,PALMETTO,MANATEE,fl,34221,,775f93aaeddc3148
586,-82.537245,27.491889,2121,martin luther king ave e,,BRADENTON,MANATEE,fl,34208,,4907681c2f3d215d
587,-82.52588349999999,27.359499800000002,2214,dr martin luther king jr way,,SARASOTA,SARASOTA,fl,34234,,ef3df09f3b27dd88
588,-82.11456,27.050557,4515,luther ave,,NORTH PORT,SARASOTA,fl,34288,,ae15371e36b2d774
589,-81.965473,27.895046,110,dr mlk jr ave ne,,MULBERRY,POLK,fl,33860,,1d32b62094536320
590,-81.96557,27.896459999999998,300,dr mlk jr ave se,,MULBERRY,POLK,fl,33860,,41cdac0f44ba2941
591,-81.8733012,29.684307500000003,136,luther dr,,Interlachen,,fl,32148,SID-14666,df596e40a06b8c22
592,-81.6841493,29.997535600000003,610,martin luther king jr blvd,,GREEN COVE SPRINGS,,fl,32043,,3ba85332ed3a2a26
593,-81.83207309999999,30.5667461,618291,dr martin luther king jr ave,,Town of Callahan,,fl,,,59d2d97e8063ff7d
594,-81.826752,30.5730984,,dr martin luther king jr av,,Unincorporated Nassau County,,fl,,,ab14aae3701d6d7c
595,-81.82555550000001,30.5713392,45055,luther st,,Unincorporated Nassau County,,fl,,,101f60d27ea70aab
596,-82.4885266,29.7915837,13431,martin luther king blvd,,high-springs-alachua,alachua,fl,,,8255bf1bd55dceb0
597,-82.42469009999999,29.770087,12427,martin luther king hwy,,high-springs-alachua,alachua,fl,,,aa887f919e002c7a
598,-82.4237558,29.7681125,12330,nw martin luther king hwy,,high-springs-alachua,alachua,fl,,,d804c07f0c8175b9
599,-82.5925672,29.822899600000003,25,se martin luther king hwy,,high-springs-alachua,alachua,fl,,,f52ec7de8f287575
600,-82.59285109999999,29.8232417,10,se martin luther king dr,,high-springs-alachua,alachua,fl,,,967cf05c230f5496
601,-85.5972929,30.130155199999997,924,luther st,,panama-city,bay,fl,,,2248fa2c79bdd5fc
602,-85.6506292,30.1639168,,martin luther king blv,,panama-city,bay,fl,,,812fab6510a8f01b
603,-80.7265262,28.328790899999998,1154,luther dr,,cocoa-rockledge,brevard,fl,,,02e28cd648d51d00
604,-85.03997890000001,30.436181199999996,20984,martin luther king dr se,,blountstown,calhoun,fl,,,3942886ab55e928a
605,-85.0395479,30.436167600000005,505,martin luther king dr,,blountstown,calhoun,fl,,,38e46e6ca96bb5b6
606,-85.04036440000002,30.4361797,,martin luther king,,blountstown,calhoun,fl,,,92daf2927094270e
607,-85.0408636,30.4355717,20939,martin luther king ave se,,blountstown,calhoun,fl,,,88b70e2ed2258de7
608,-85.0364436,30.435786100000005,21191,martin luther king blvd se,,blountstown,calhoun,fl,,,75b7ca5c9701eda0
609,-85.0391813,30.436266399999997,21032,martin luther king bv se,,blountstown,calhoun,fl,,,599289978bc4ff83
610,-82.0313948,26.994702,2290,luther rd,,port-charlotte,charlotte,fl,,,6ba0693db480eccd
611,-82.0262515,26.9876132,2511,luther rd -unit 1011,,port-charlotte,charlotte,fl,,,159228a36d6ffa6d
612,-82.0288427,26.990916100000003,2465,luther rd -bldg cell twr,,port-charlotte,charlotte,fl,,,2d03623526ccd6fe
613,-82.042402,26.933878999999997,602,dr martin luther king jr blvd,,punta-gorda,charlotte,fl,,,42f495fada547790
614,-82.3293788,28.835559600000003,00100,dr martin luther kin ave,,inverness,citrus,fl,,,24c97037ec7e505f
615,-81.68954529999999,29.9961527,1102,martin luther king jr blvd,,green-cove-springs,clay,fl,,,f25c176305dde0ad
616,-81.86543,27.204943699999998,1401,martin luther king jr st sw,,arcadia-east,desoto,fl,,,366e8280da20a8c2
617,-81.8503168,27.2148435,222,luther ave n,,arcadia-east,desoto,fl,,,51400380aca092cf
618,-81.8509163,27.2106408,130,luther ave s,,arcadia-east,desoto,fl,,,18ce7fa8b3de0bfa
619,-81.70935279999999,30.3574647,,martin luther king jr pkwy,,jacksonville-west,duval,fl,,,21a6bdbff3eeee26
620,-81.9688226,30.312910499999997,964,martin luther king jr dr,,baldwin,duval,fl,,,db68ca48e02ffd25
621,-81.6364938,30.346074800000004,,martin luther king  jr pkwy,,jacksonville-west,duval,fl,,,f83f25b4d6ec9dca
622,-87.2174153,30.4476015,3435,dr martin luther king jr dr,,pensacola,escambia,fl,,,a47e12112bb45276
623,-87.21754279999999,30.447989500000002,3455,n dr martin luther king dr,,pensacola,escambia,fl,,,6be466e6f29f43e5
624,-87.21776440000001,30.447449199999998,3435,n dr martin luther king dr rear,,pensacola,escambia,fl,,,5e5fd2a18c2aeb0e
625,-87.2145629,30.436636199999995,2300,dr martin luther king jr,,pensacola,escambia,fl,,,829899c8a4ef8783
626,-87.21450920000001,30.438004,2400,dr martin luther king jr blk,,pensacola,escambia,fl,,,7d4e58f68ac5ff70
627,-87.2145795,30.4367172,2300,2300blk dr martin luther king jr,,pensacola,escambia,fl,,,b5131f3e88f406ea
628,-87.2164604,30.44325,3001,dr martin luther king jr dr a,,pensacola,escambia,fl,,,e7203ba6188299e2
629,-87.2170058,30.4460428,3300,dr martin luther king jr dr blk,,pensacola,escambia,fl,,,da02c88700fa879b
630,-87.2137458,30.4292785,1513,dr martin luther king jr 1/2,,pensacola,escambia,fl,,,2d2abd1d7f9c2dba
631,-87.2129377,30.4251826,1101,n dr martin luther king jr dr,,pensacola,escambia,fl,,,db1523d5b16eafed
632,-81.2542615,29.462768199999996,45,e martin luther king jr blvd,,bunnell,flagler,fl,,,447542cbafecc5cb
633,-84.9939097,29.7270645,123,martin luther king ave,,apalachicola,franklin,fl,,,f242007d5a60a8cd
634,-85.3042153,29.8210656,418,martin luther king jr blv,,port-st-joe,gulf,fl,,,b0a85e05babb9d6d
635,-85.3038998,29.8223276,603,605 607 martin luther king jr blv,,port-st-joe,gulf,fl,,,19e94192bf5a59c0
636,-85.3037963,29.819823,201,203207 martin luther king jr blv,,port-st-joe,gulf,fl,,,4fa52dccfe548667
637,-85.3041995,29.821862699999997,514,514-524 martin luther king blvd,,port-st-joe,gulf,fl,,,e0d42ebbff9330fc
638,-85.30388409999999,29.8215396,509,511 513 martin luther king blvd,,port-st-joe,gulf,fl,,,4ec019589e72259b
639,-85.3037066,29.8200345,311,311a311b martin luther king blvd,,port-st-joe,gulf,fl,,,3d4211b3ff69f9b8
640,-85.30419959999999,29.819150699999998,202,204206 martin luther king blvd,,port-st-joe,gulf,fl,,,926e952eb4d88035
641,-82.9546757,30.5174794,808,martin luther king blvd sw,,jasper,hamilton,fl,,,8708802fc422713b
642,-82.95056509999999,30.517761100000005,305,martin luther king dr sw,,jasper,hamilton,fl,,,e9298245230681a9
643,-81.8016118,27.545301399999996,310,martin luther king jr ave,,wauchula,hardee,fl,,,213d4d3064dcc1a4
644,-82.35685620000001,27.9814582,,e martin luther king blvd,,brandon,hillsborough,fl,,,b44303789d15ec62
645,-82.447202,27.9818068,1028,e dr martin luther king jr blvd,,tampa,hillsborough,fl,,,f90a5823348b6bab
646,-82.48186770000001,27.981047600000004,2130,w dr martin luther king jr blvd,,tampa,hillsborough,fl,,,91fd156064a66176
647,-82.482089,27.981068100000005,,w martin luther king blvd,,tampa,hillsborough,fl,,,138564968a49a95f
648,-82.2969215,27.981282,11911,e dr martin luther king jr bv,,brandon,hillsborough,fl,,,e272a972357f1fba
649,-82.1245595,28.0143436,,s martin luther king blvd,,plant-city,hillsborough,fl,,,beab486ae5561f4c
650,-82.1223083,28.014263699999997,115,e dr  martin luther king jr blvd,,plant-city,hillsborough,fl,,,5c99ec1364f77a10
651,-82.11271550000001,28.014899600000003,1106,e dr martin luther king jr st,,plant-city,hillsborough,fl,,,7907616f0dda50d2
652,-82.1018765,28.015397200000002,2003,dr martin luther king jr st,,plant-city,hillsborough,fl,,,4881b66064bcc30e
653,-82.1140183,28.0145137,,e dr matrin luther king jr blvd,,plant-city,hillsborough,fl,,,4c39ae02d6ec0d6d
654,-82.1128613,28.014493800000004,1303,e martin luther king st,,plant-city,hillsborough,fl,,,0bde46a686506c0e
655,-82.1279251,28.013789000000003,702,w martin luther king jr blvd,,plant-city,hillsborough,fl,,,9d85c663caacca39
656,-82.1299317,28.0136563,802,w martin luther king jr bv,,plant-city,hillsborough,fl,,,1f76da0f76a9bb52
657,-82.1340165,28.012092499999998,1201,dr martin luther king jr av,,plant-city,hillsborough,fl,,,e23a5be08ed2a496
658,-82.12349379999999,28.0140724,109,109-113 martin luther king bv,,plant-city,hillsborough,fl,,,f6fa60c32ec3657e
659,-82.19931170000001,27.999600800000003,15030,e dr martin luther king jr & sumne,,plant-city,hillsborough,fl,,,515cfbac32227d3a
660,-82.1702242,28.007270399999996,4612,dr. martin luther king jr blvd,,plant-city,hillsborough,fl,,,ee4f98753f0967ba
661,-82.1951769,27.9978686,15309,dr  martin luther king blvd,,plant-city,hillsborough,fl,,,11e8399e27688155
662,-82.2285181,27.9927209,13780,e dr martin luther king jr & mott,,plant-city,hillsborough,fl,,,22cf5e23f4e24078
663,-82.4313585,27.9817018,2418,e dr martin luther king jr blvd a b,,tampa,hillsborough,fl,,,123bac16d33a0f32
664,-82.4275253,27.9816433,2908,e dr martin luther king jr blvd 1/2,,tampa,hillsborough,fl,,,45c131e8fd668a3d
665,-82.479986,27.9810868,1936,w dr martin luther king jr blvd 102,,tampa,hillsborough,fl,,,4c61dbb09c4f3589
666,-82.5075477,27.979265100000003,3802,w dr martin luther king jr bv,,tampa,hillsborough,fl,,,12fe9db213d6d691
667,-82.3696595,27.9816959,,e dr  martin luther king bv,,tampa,hillsborough,fl,,,0d54380fea6e8f00
668,-82.47995809999999,27.9810869,1936,w dr martin luther king jr blvd 201,,tampa,hillsborough,fl,,,265c8ceec55b4d07
669,-82.4799952,27.9810785,1936,w dr martin luther king jr blvd 202,,tampa,hillsborough,fl,,,340bb1d792c259f5
670,-82.4799953,27.981086699999995,1936,w dr martin luther king jr blvd 101,,tampa,hillsborough,fl,,,2d24c2f4a0491fbf
671,-82.4799673,27.981078600000004,1936,w dr martin luther king jr blvd 205,,tampa,hillsborough,fl,,,2727bf097f3ab680
672,-82.2964296,27.982796,,e martin luther king bv,,brandon,hillsborough,fl,,,434ca600fc39795f
673,-82.47995809999999,27.981078600000004,1936,w dr martin luther king jr blvd 206,,tampa,hillsborough,fl,,,e9d802ea39d34154
674,-82.3019125,27.981115399999997,11703,e dr martin luther king jr av,,brandon,hillsborough,fl,,,f725ad6b01997c9d
675,-82.3917244,27.982886600000004,5804,dr martin luther king jr blvd 1/2,,tampa,hillsborough,fl,,,df35590389fb034b
676,-82.4453233,27.981769699999997,1222,e dr martin luther king jr blvd a e,,tampa,hillsborough,fl,,,198e72323f4216ed
677,-82.4799859,27.9810785,1936,w dr martin luther king jr blvd 203,,tampa,hillsborough,fl,,,b06995d8fd9d5041
678,-82.4799674,27.9810868,1936,w dr martin luther king jr blvd 104,,tampa,hillsborough,fl,,,d31a2725434a0236
679,-82.29374150000001,27.981064,1208,dr martin luther king jr bv,,brandon,hillsborough,fl,,,6f598b71674f6883
680,-82.2154287,27.996170399999997,14416,dr martin luther king blvd,,plant-city,hillsborough,fl,,,fc857e30c1886dd3
681,-82.4566476,27.981768900000002,,e dr martin luther king blvd,,tampa,hillsborough,fl,,,ddfbf7d8d5d9f0e0
682,-82.4799767,27.9810868,1936,w dr martin luther king jr blvd 103,,tampa,hillsborough,fl,,,167851d1e0778e93
683,-82.4394133,27.981918699999998,1798,e martin luther kning blvd,,tampa,hillsborough,fl,,,646da83da053cfbd
684,-82.4799767,27.9810785,1936,w dr martin luther king jr blvd 204,,tampa,hillsborough,fl,,,60f1f71a29e038ca
685,-82.128027,28.0137642,704,w dr martin luther king,,plant-city,hillsborough,fl,,,85d386b6a1ec457e
686,-82.12672409999999,28.0140168,1111,w dr martin luther king jr st,,plant-city,hillsborough,fl,,,4cb35beadf8bdb08
687,-82.3003653,27.983519399999995,11724,e dr martin luther king jr blvd 11,,brandon,hillsborough,fl,,,5eb06c18f0c15e06
688,-82.2931021,27.9819977,,w martin luther king bv,,brandon,hillsborough,fl,,,9b2cdf98934663d3
689,-82.1318457,28.013335100000003,1002,w dr  martin luther king jr st,,plant-city,hillsborough,fl,,,bae56dcef332cf7f
690,-82.1280504,28.0132451,603,w dr  martin luther king jr blvd,,plant-city,hillsborough,fl,,,e1584713339f530b
691,-82.47039840000001,27.981422,800,w martin luther king blvd 1,,tampa,hillsborough,fl,,,1856ca2deb1bf34d
692,-82.4703705,27.981422100000003,800,w martin luther king blvd 4,,tampa,hillsborough,fl,,,7416d22cb4c9c50c
693,-82.3042267,27.9805928,11607,e martin luther king,,brandon,hillsborough,fl,,,16c6753b93602774
694,-82.44238809999999,27.9809787,1501,dr martin luther king jr blvd e,,tampa,hillsborough,fl,,,5ed24231534f59f6
695,-82.2822023,27.982448699999996,421,w martin luther king,,brandon,hillsborough,fl,,,a1f9d1aaed10cf16
696,-85.67758990000002,30.7901956,209,martin luther king jr av,,bonifay,holmes,fl,,,0a2d57f7c71516be
697,-85.673956,30.790109,511,martin luther king dr e,,bonifay,holmes,fl,,,99ca98c3110b7d8c
698,-85.92168290000001,30.7292714,1681,james luther st,,west-holmes,holmes,fl,,,5aa52d0604e88a99
699,-85.4140638,30.8942789,,martin luther king st,,cottondale,jackson,fl,,,7748e8dee8d8646f
700,-83.771772,30.577101000000003,208,luther fountain dr,,monticello,jefferson,fl,,,648f6aeb9fd2645b
701,-83.76838659999999,30.5777733,,luther fountain rd,,monticello,jefferson,fl,,,7fcf7d223ffcd6fc
702,-83.863075,30.543987199999997,380,s martin luther king jr ave,,monticello,jefferson,fl,,,57c35e072d4faada
703,-81.8472217,26.6400468,3218,3218/3220 dr martin luther king jr blvd,,fort-myers,lee,fl,,,24d7dac856cba400
704,-81.8681196,26.640632699999998,2220,2220/2232 dr martin luther king jr blvd,,fort-myers,lee,fl,,,6136a10c9c57477d
705,-81.8716338,26.641154600000004,2075,2075-2115 dr martin luther king jr blvd,,fort-myers,lee,fl,,,f4ede451e2469b41
706,-81.8066372,26.6380705,5301,5301-5321 dr martin luther king jr blvd,,fort-myers,lee,fl,,,1adddd5d8a2159ac
707,-81.8144142,26.640083899999997,4901,4901/4911 dr martin luther king jr blvd,,fort-myers,lee,fl,,,c06373b398a761e9
708,-81.845113,26.640747100000002,3340,3340/3346 dr martin luther king jr blvd,,fort-myers,lee,fl,,,f6305b6218f8f7ff
709,-81.84334,26.641510200000003,3429,3429/3433 dr martin luther king jr blvd,,fort-myers,lee,fl,,,f3c916c79cc2d9a6
710,-81.8590543,26.641354200000002,2649,2649/2653 dr martin luther king jr blvd,,fort-myers,lee,fl,,,3849838fecbc1d9c
711,-81.8414882,26.6415489,3511,3511-3535 dr martin luther king jr blvd,,fort-myers,lee,fl,,,f9a00dc12a0177f2
712,-81.85355340000001,26.640664500000003,2934,2934/2936 dr martin luther king jr blvd,,fort-myers,lee,fl,,,9a0afcd96ae65616
713,-81.8336412,26.6424152,3901,3901-03-05 dr martin luther king jr blvd,,fort-myers,lee,fl,,,7f341898959f8f3c
714,-81.83542290000001,26.642654200000003,3801,3801/3805 dr martin luther king jr blvd,,fort-myers,lee,fl,,,15543b779e2e8606
715,-84.5696778,30.4167716,,luther hall rd,,southwest-leon,leon,fl,,,74693a773a6701d4
716,-84.2858091,30.4584842,1416,n martin luther king jr blvd unit 1,,tallahassee-central,leon,fl,,,8212f1d25de63043
717,-84.94037440000001,30.546550899999996,4626,martin luther king rd nw,,west-liberty,liberty,fl,,,0342eea4c6d13b69
718,-84.9540285,30.5441936,,martin luther king rd,,west-liberty,liberty,fl,,,308ad6f43cffa5c6
719,-83.37211590000001,30.462732300000003,288,se luther dr,,madison,madison,fl,,,d0b221fac6983bce
720,-83.6342872,30.458499800000002,242,sw martin luther king st,,greenville,madison,fl,,,ab0fe2cb699a4791
721,-83.6331674,30.458730199999998,,vacant sw martin luther king st,,greenville,madison,fl,,,5e5d0cffad92fe66
722,-83.3714371,30.4638985,,vacant se luther dr,,madison,madison,fl,,,a51d987337ac9d90
723,-82.5681427,27.524771500000003,1232,dr martin luther king jr pl,,palmetto,manatee,fl,,,f009a1e1692c51c4
724,-82.1527959,29.179926000000002,706,martin luther king j,,ocala,marion,fl,,,780e6e1575e03c98
725,-82.1538541,29.1758882,1260,sw martin luther king ave,,ocala,marion,fl,,,64b18602e6b28ab5
726,-82.15263409999999,29.2044977,1710,nw martin luther king ave,,ocala,marion,fl,,,414073650d22e564
727,-82.15273459999999,29.182724199999996,410,sw martin luther king a,,ocala,marion,fl,,,77bfeb31fd7d7f1b
728,-82.1528949,29.1878975,206,nw martin luther king j,,ocala,marion,fl,,,d0dc43c65559c13b
729,-82.15271070000001,29.1889257,254,nw martin luther king,,ocala,marion,fl,,,8372497fb67cf171
730,-82.1525665,29.214999600000006,2750,nw martin luther king a,,ocala,marion,fl,,,315675beeb9c6dbc
731,-80.2419859,27.193304700000002,720,se martin luther king jr blvd,,stuart,martin,fl,,,0ab0e165982465a1
732,-80.2381235,27.1941077,907,se martin luther king blvd,,stuart,martin,fl,,,6b6d706a701a9f29
733,-80.2382136,27.1936005,908,martin luther king bv,,stuart,martin,fl,,,b55a01c4af8f1cb9
734,-80.2384443,27.1936017,906,se martin luther king bv,,stuart,martin,fl,,,47d88f8c3f7a0f4c
735,-80.2401064,27.1923285,800,se martin luther king jr blvd 830,,stuart,martin,fl,,,1915bff7a628d25c
736,-80.252178,27.194177500000002,13,se martin luther king jr blvd 15,,stuart,martin,fl,,,9f60916413e834d1
737,-80.24757779999999,27.1936415,320,martin luther king jr. blvd,,stuart,martin,fl,,,251734807b871ec9
738,-81.8311892,30.5672172,,dr martin luther king jr ave,,callahan-hilliard,nassau,fl,,,4ee3a3ad141ed29a
739,-81.824745,30.5732164,618620,martin luther king av,,callahan-hilliard,nassau,fl,,,aeefc623fe4411ce
740,-86.5688093,30.756127799999998,157,martin luther k blvd,,crestview,okaloosa,fl,,,c0175e1b80e7ea83
741,-86.5691685,30.756632399999997,136,martin luther king jr ave a & b,,crestview,okaloosa,fl,,,3443409509963c29
742,-86.5692531,30.7564542,194,martin luther king ave w,,crestview,okaloosa,fl,,,c446cc453b1b2050
743,-86.57209240000002,30.754600399999994,490,martin luther king jr.,,crestview,okaloosa,fl,,,a6d3d339a9d22241
744,-86.5711401,30.755342699999996,398,martin luther king blvd w,,crestview,okaloosa,fl,,,fa520312db98eb14
745,-86.5770108,30.7529398,1005,martin luther king jr ave a-1,,crestview,okaloosa,fl,,,4fa0d2ee6c580874
746,-86.5770784,30.752934399999997,1005,martin luther king jr ave a-2,,crestview,okaloosa,fl,,,62a5d86601134d4e
747,-86.5771469,30.7529288,1005,martin luther king jr ave a-3,,crestview,okaloosa,fl,,,55945647cc05ddf5
748,-86.5772079,30.7529239,1005,martin luther king jr ave a-4,,crestview,okaloosa,fl,,,513c973833946851
749,-86.5772528,30.7529029,1005,martin luther king jr ave a-5,,crestview,okaloosa,fl,,,57f533b09491b4d6
750,-86.5773087,30.7529158,1005,martin luther king jr ave a-6,,crestview,okaloosa,fl,,,762c8a2b57dcbaf3
751,-86.577384,30.7529212,1005,martin luther king jr ave a-7,,crestview,okaloosa,fl,,,92f25b8a8f5b6f6a
752,-86.5774416,30.752870299999998,1005,martin luther king jr ave a-8,,crestview,okaloosa,fl,,,8bfba381d57993cd
753,-86.57695749999999,30.7525105,1005,martin luther king jr ave c-1,,crestview,okaloosa,fl,,,5a4e45607228a105
754,-86.5770234,30.7525046,1005,martin luther king jr ave c-2,,crestview,okaloosa,fl,,,9d5adea212e89acf
755,-86.5770921,30.7524984,1005,martin luther king jr ave c-3,,crestview,okaloosa,fl,,,f18a894fb61fafb7
756,-86.57715300000001,30.7524929,1005,martin luther king jr ave c-4,,crestview,okaloosa,fl,,,90a18a4c5d817021
757,-86.5771989,30.752504499999997,1005,martin luther king jr ave c-5,,crestview,okaloosa,fl,,,150d22df16e1966c
758,-86.5772522,30.752483899999998,1005,martin luther king jr ave c-6,,crestview,okaloosa,fl,,,698d95a44a37c0ec
759,-86.5773258,30.752465899999997,1005,martin luther king jr ave c-7,,crestview,okaloosa,fl,,,41fd873a0d956bdc
760,-86.5773954,30.752486800000003,1005,martin luther king jr ave c-8,,crestview,okaloosa,fl,,,e6601b306da51fad
761,-86.5776426,30.752852500000003,1005,martin luther king jr ave b-1,,crestview,okaloosa,fl,,,697ef7e6a1765b5c
762,-86.5776353,30.752794800000004,1005,martin luther king jr ave b-2,,crestview,okaloosa,fl,,,d9db3c572fe0d634
763,-86.57762790000001,30.7527364,1005,martin luther king jr ave b-3,,crestview,okaloosa,fl,,,4a91d21a2cfa3e05
764,-86.57762120000001,30.7526832,1005,martin luther king jr ave b-4,,crestview,okaloosa,fl,,,7596c071bf5ff5ad
765,-86.5776162,30.7526442,1005,martin luther king jr ave b-5,,crestview,okaloosa,fl,,,390114655f46ba4b
766,-86.5776095,30.752591100000004,1005,martin luther king jr ave b-6,,crestview,okaloosa,fl,,,6f877b8dd6bf26f3
767,-86.5776011,30.752524100000002,1005,martin luther king jr ave b-7,,crestview,okaloosa,fl,,,05d46a4bcce7c162
768,-86.5775955,30.752480100000003,1005,martin luther king jr ave b-8,,crestview,okaloosa,fl,,,b33e219fd0d1e19d
769,-86.5776076,30.752426399999997,1005,martin luther king jr ave b-9,,crestview,okaloosa,fl,,,91f1938ed0a4ab2b
770,-86.57808890000001,30.7528029,1005,martin luther king jr ave d-1,,crestview,okaloosa,fl,,,475b31435e2a0d14
771,-86.5780813,30.752744500000002,1005,martin luther king jr ave d-2,,crestview,okaloosa,fl,,,c2eb5b856f9cf2aa
772,-86.5780745,30.752691700000003,1005,martin luther king jr ave d-3,,crestview,okaloosa,fl,,,b3388fe7a866cd0c
773,-86.57806679999999,30.7526325,1005,martin luther king jr ave d-4,,crestview,okaloosa,fl,,,e3aa05fac2d3b685
774,-86.5780599,30.752579700000002,1005,martin luther king jr ave d-5,,crestview,okaloosa,fl,,,ec739532d2f55b2d
775,-86.5780373,30.752539799999997,1005,martin luther king jr ave d-6,,crestview,okaloosa,fl,,,f6b97fa5cec864a0
776,-86.5780594,30.752485399999998,1005,martin luther king jr ave d-7,,crestview,okaloosa,fl,,,9c157fe21a57f5c1
777,-86.5780397,30.752423699999998,1005,martin luther king jr ave d-8,,crestview,okaloosa,fl,,,9c61d24dfee103c0
778,-86.57801500000001,30.7523684,1005,martin luther king jr ave d-9,,crestview,okaloosa,fl,,,52230df1ae850633
779,-86.5782618,30.752782399999997,1005,martin luther king jr ave e-1,,crestview,okaloosa,fl,,,e839d0e949c9e70d
780,-86.5783297,30.752795799999998,1005,martin luther king jr ave e-2,,crestview,okaloosa,fl,,,d7f5bf71753a5ed6
781,-86.5783939,30.752782699999997,1005,martin luther king jr ave e-3,,crestview,okaloosa,fl,,,f3913635b1531b2d
782,-86.578453,30.752750300000002,1005,martin luther king jr ave e-4,,crestview,okaloosa,fl,,,5f62ef35c8f55f91
783,-86.57850069999999,30.7527631,1005,martin luther king jr ave e-5,,crestview,okaloosa,fl,,,7d2e844752f1a519
784,-86.57856269999999,30.752757199999998,1005,martin luther king jr ave e-6,,crestview,okaloosa,fl,,,639a34992893b0c4
785,-86.5786313,30.7527506,1005,martin luther king jr ave e-7,,crestview,okaloosa,fl,,,ff583632b485c149
786,-86.5786989,30.752744099999997,1005,martin luther king jr ave e-8,,crestview,okaloosa,fl,,,da5e51337936a2e8
787,-86.5788833,30.7527171,1005,martin luther king jr ave f-1,,crestview,okaloosa,fl,,,1ba8d9430aee4c00
788,-86.5788838,30.752659100000002,1005,martin luther king jr ave f-2,,crestview,okaloosa,fl,,,9f30b21eb72b0163
789,-86.5788844,30.7526006,1005,martin luther king jr ave f-3,,crestview,okaloosa,fl,,,70170934fcd0b45f
790,-86.5788849,30.752547200000002,1005,martin luther king jr ave f-4,,crestview,okaloosa,fl,,,523f6ca36855f870
791,-86.5788853,30.7524993,1005,martin luther king jr ave f-5,,crestview,okaloosa,fl,,,6ab775bb3665004e
792,-86.5788858,30.7524462,1005,martin luther king jr ave f-6,,crestview,okaloosa,fl,,,3d07d6562986feba
793,-86.5788864,30.7523868,1005,martin luther king jr ave f-7,,crestview,okaloosa,fl,,,2b42ed33df9f14fd
794,-86.5788869,30.752334,1005,martin luther king jr ave f-8,,crestview,okaloosa,fl,,,29ab182badb38fae
795,-86.57929150000001,30.753301699999998,1088,martin luther king jr ave w,,crestview,okaloosa,fl,,,f301341ae009bb39
796,-86.578847,30.754001199999998,1052,1/2 martin luther king ave w,,crestview,okaloosa,fl,,,9e50a4ccb0417d32
797,-86.5790054,30.753722600000003,1052,1/2 martin luther king ave c,,crestview,okaloosa,fl,,,49d083ea4fddf5fe
798,-86.5786777,30.7537637,1052,1/2 martin luther king ave b,,crestview,okaloosa,fl,,,36170019882759d7
799,-80.6810342,26.682509399999997,1301,dr martin luther king jr blvd w,,belle-glade-pahokee,palm-beach,fl,,,49f1a638b37faa35
800,-80.0626692,26.7695828,632,dr martin luther king jr blvd 1,,riviera-beach,palm-beach,fl,,,354d10d80f0dc6c9
801,-80.0606302,26.536346999999996,317,e martin luther king jr blvd a,,boynton-beach-delray-beach,palm-beach,fl,,,82f6b677ef9e8b5f
802,-80.0651647,26.5363766,119,w martin luther king jr blvd a,,boynton-beach-delray-beach,palm-beach,fl,,,000fb0c6eb2fa79f
803,-80.675336,26.6824685,,sw martin luther king jr blvd,,belle-glade-pahokee,palm-beach,fl,,,7b0620ca43a1de0c
804,-80.06887840000002,26.769777100000002,1028,dr martin luther king jr blvd a,,riviera-beach,palm-beach,fl,,,09647ac8fdd1a991
805,-82.1903905,28.3689602,37815,martin luther king b,,dade-city,pasco,fl,,,aec4189569909348
806,-82.79189190000001,27.9839874,1730,n martin luther king jr ave,,clearwater,pinellas,fl,,,f287c968c2b01d6d
807,-82.75142149999999,28.1410924,414,e martin luther king jr dr,,tarpon-springs,pinellas,fl,,,4eb1755deab0bd04
808,-82.7594391,28.1411131,221,w martin luther king jr dr,,tarpon-springs,pinellas,fl,,,56faff889490cfa5
809,-82.64724670000001,27.838491499999996,7250,dr martin luther king jr st n,,st-petersburg,pinellas,fl,,,2357435d362f5f96
810,-82.6498321,27.882185200000002,11850,dr martin luther king jr st n # 13,,st-petersburg,pinellas,fl,,,157bdf3a83f8756b
811,-82.6498321,27.882185200000002,11850,dr martin luther king jr st n # 21,,st-petersburg,pinellas,fl,,,db78a49965ffb9c4
812,-82.6498321,27.882185200000002,11850,dr martin luther king jr st n # 23,,st-petersburg,pinellas,fl,,,199fe530fdf76916
813,-82.6498321,27.882185200000002,11850,dr martin luther king jr st n # 11,,st-petersburg,pinellas,fl,,,021396cb43154369
814,-82.6498321,27.882185200000002,11850,dr martin luther king jr st n # 12,,st-petersburg,pinellas,fl,,,324b569a08b0bb2d
815,-82.6498321,27.882185200000002,11850,dr martin luther king jr st n # 10,,st-petersburg,pinellas,fl,,,069e5b8b9e27989b
816,-82.6498321,27.882185200000002,11850,dr martin luther king jr st n # 22,,st-petersburg,pinellas,fl,,,4caad46d21308573
817,-82.6498321,27.882185200000002,11850,dr martin luther king jr st n # 51,,st-petersburg,pinellas,fl,,,5895198874355127
818,-82.6498321,27.882185200000002,11850,dr martin luther king jr st n # 52,,st-petersburg,pinellas,fl,,,53d5c7b285f64a7b
819,-82.6498321,27.882185200000002,11850,dr martin luther king jr st n # 53,,st-petersburg,pinellas,fl,,,2cdc4e1cc7530a38
820,-82.6498321,27.882185200000002,11850,dr martin luther king jr st n # 71,,st-petersburg,pinellas,fl,,,e7ac64b4af4bb811
821,-82.7917819,27.9378031,1626,s dr martin luther king jr ave,,clearwater,pinellas,fl,,,f37304bf4c9d2a28
822,-82.7920013,27.954931899999995,,martin luther king jr ave s,,clearwater,pinellas,fl,,,fd0c12f5a8c661ae
823,-82.7912595,27.958914299999996,605,s martin luther king jr ave  # 5,,clearwater,pinellas,fl,,,e7b783360a240409
824,-82.79140720000001,27.9588924,605,s martin luther king jr ave  # 3,,clearwater,pinellas,fl,,,75b78049a05f9f66
825,-82.7915692,27.958893100000004,605,s martin luther king jr ave  # 1,,clearwater,pinellas,fl,,,c2d6cc752a9c1545
826,-82.64659520000001,27.7110274,6231,dr martin luther king jr st s,,st-petersburg,pinellas,fl,,,4bf740f79b3b38d9
827,-82.64786120000001,27.846073699999998,8100,dr martin luther king jr st n # 212,,st-petersburg,pinellas,fl,,,1017c5d3c2af9023
828,-82.64786120000001,27.846073699999998,8100,dr martin luther king jr st n # 202,,st-petersburg,pinellas,fl,,,859a25eb21d8779d
829,-82.64786120000001,27.846073699999998,8100,dr martin luther king jr st n # 210,,st-petersburg,pinellas,fl,,,54f8d04538b7b661
830,-82.64786120000001,27.846073699999998,8100,dr martin luther king jr st n # 305,,st-petersburg,pinellas,fl,,,85a0f58e0173e847
831,-82.64786120000001,27.846073699999998,8100,dr martin luther king jr st n # 105,,st-petersburg,pinellas,fl,,,b12107129882ff32
832,-82.64786120000001,27.846073699999998,8100,dr martin luther king jr st n # 308,,st-petersburg,pinellas,fl,,,68692bbb3717cd51
833,-82.64786120000001,27.846073699999998,8100,dr martin luther king jr st n # 111,,st-petersburg,pinellas,fl,,,296a235f43f775a8
834,-82.64786120000001,27.846073699999998,8100,dr martin luther king jr st n # 209,,st-petersburg,pinellas,fl,,,7efa59a609878cc0
835,-82.64786120000001,27.846073699999998,8100,dr martin luther king jr st n # 205,,st-petersburg,pinellas,fl,,,85bb2ae997282c5d
836,-82.64786120000001,27.846073699999998,8100,dr martin luther king jr st n # 107,,st-petersburg,pinellas,fl,,,d1fef9565411511c
837,-82.64786120000001,27.846073699999998,8100,dr martin luther king jr st n # 104,,st-petersburg,pinellas,fl,,,ccc25df72ef0c800
838,-82.64786120000001,27.846073699999998,8100,dr martin luther king jr st n # 207,,st-petersburg,pinellas,fl,,,5ccbc7b23751c0f7
839,-82.64786120000001,27.846073699999998,8100,dr martin luther king jr st n # 114,,st-petersburg,pinellas,fl,,,f84695ec128834d1
840,-82.64786120000001,27.846073699999998,8100,dr martin luther king jr st n # 206,,st-petersburg,pinellas,fl,,,cd9e0857fc862c49
841,-82.64786120000001,27.846073699999998,8100,dr martin luther king jr st n # 110,,st-petersburg,pinellas,fl,,,db5caa096f96b0e1
842,-82.79004990000001,27.9524428,1247,s martin luther king jr ave  # 101,,clearwater,pinellas,fl,,,a251675239a381cf
843,-82.79004990000001,27.9524428,1247,s martin luther king jr ave  # 301,,clearwater,pinellas,fl,,,51c1c662b76f9d31
844,-82.79004990000001,27.9524428,1247,s martin luther king jr ave  # 202,,clearwater,pinellas,fl,,,32349a3e8dfef4f1
845,-82.79004990000001,27.9524428,1247,s martin luther king jr ave  # 302,,clearwater,pinellas,fl,,,759bdf378a56c683
846,-82.79004990000001,27.9524428,1247,s martin luther king jr ave  # 102,,clearwater,pinellas,fl,,,9926a380b0f3ad89
847,-82.6498321,27.882185200000002,11850,dr martin luther king jr st n # 91,,st-petersburg,pinellas,fl,,,592346dfb13dc8ac
848,-82.6498321,27.882185200000002,11850,dr martin luther king jr st n # 92,,st-petersburg,pinellas,fl,,,e6e91625d23ce329
849,-82.6498321,27.882185200000002,11850,dr martin luther king jr st n # 93,,st-petersburg,pinellas,fl,,,455e26cf2c163c8e
850,-82.7911442,27.952494599999998,1243,s martin luther king jr ave  # c-10,,clearwater,pinellas,fl,,,9ceee2644b0b8e5a
851,-82.7911442,27.952494599999998,1243,s martin luther king jr ave  # c-20,,clearwater,pinellas,fl,,,cf13c0ea835cfa9b
852,-82.7911442,27.952494599999998,1243,s martin luther king jr ave  # c-30,,clearwater,pinellas,fl,,,2870de7d7153b979
853,-82.7911442,27.952494599999998,1243,s martin luther king jr ave  # c-40,,clearwater,pinellas,fl,,,1fc0b22c636d1641
854,-82.7911442,27.952494599999998,1243,s martin luther king jr ave  # c-50,,clearwater,pinellas,fl,,,ff3c374c54b23b23
855,-82.7911394,27.9530071,1243,s martin luther king jr ave  # b-10,,clearwater,pinellas,fl,,,883c1597195f16e3
856,-82.7911394,27.9530071,1243,s martin luther king jr ave  # b-50,,clearwater,pinellas,fl,,,ce3592fa994dbf9a
857,-82.7914168,27.952728399999998,1243,s martin luther king jr ave  # a-10,,clearwater,pinellas,fl,,,675b69c2291cf05b
858,-82.7914168,27.952728399999998,1243,s martin luther king jr ave  # a-20,,clearwater,pinellas,fl,,,6e3d340752093d84
859,-82.7914168,27.952728399999998,1243,s martin luther king jr ave  # a-50,,clearwater,pinellas,fl,,,959b89f56533f798
860,-82.7901655,27.952694800000003,1241,s martin luther king jr ave  # 103,,clearwater,pinellas,fl,,,ba52cc1584a51432
861,-82.7901655,27.952694800000003,1241,s martin luther king jr ave  # 304,,clearwater,pinellas,fl,,,d05638eb9384560f
862,-82.79069790000001,27.9529006,1239,s martin luther king jr ave  # 303,,clearwater,pinellas,fl,,,92828f0708790627
863,-82.79069790000001,27.9529006,1239,s martin luther king jr ave  # 104,,clearwater,pinellas,fl,,,2b7d4b38d1682db7
864,-82.79069790000001,27.9529006,1239,s martin luther king jr ave  # 203,,clearwater,pinellas,fl,,,b6258b1bb41bb61f
865,-82.79069790000001,27.9529006,1239,s martin luther king jr ave  # 204,,clearwater,pinellas,fl,,,c975d38f3fa6fd52
866,-82.6498321,27.882185200000002,11850,dr martin luther king jr st n # 14,,st-petersburg,pinellas,fl,,,a7d0b589ecce14af
867,-82.79059790000001,27.952433199999998,1245,s martin luther king jr ave  # 201,,clearwater,pinellas,fl,,,3f57f207a08819da
868,-82.6498321,27.882185200000002,11850,dr martin luther king jr st n # 43,,st-petersburg,pinellas,fl,,,aa7a29e18e017724
869,-82.6498321,27.882185200000002,11850,dr martin luther king jr st n # 41,,st-petersburg,pinellas,fl,,,7011d2488417be42
870,-82.6498321,27.882185200000002,11850,dr martin luther king jr st n # 42,,st-petersburg,pinellas,fl,,,8a4ea6c70d217999
871,-82.6498321,27.882185200000002,11850,dr martin luther king jr st n # 33,,st-petersburg,pinellas,fl,,,6d915ea84b904bc9
872,-82.6498321,27.882185200000002,11850,dr martin luther king jr st n # 72,,st-petersburg,pinellas,fl,,,6ff8b89278986c07
873,-82.6498321,27.882185200000002,11850,dr martin luther king jr st n # 73,,st-petersburg,pinellas,fl,,,ad778982aac61bdd
874,-82.6498321,27.882185200000002,11850,dr martin luther king jr st n # 83,,st-petersburg,pinellas,fl,,,ebf92ef91ddaddc2
875,-82.6498321,27.882185200000002,11850,dr martin luther king jr st n # 61,,st-petersburg,pinellas,fl,,,4643c788abe4cca5
876,-82.6498321,27.882185200000002,11850,dr martin luther king jr st n # 62,,st-petersburg,pinellas,fl,,,221e3fab0e02ba11
877,-82.6498321,27.882185200000002,11850,dr martin luther king jr st n # 31,,st-petersburg,pinellas,fl,,,bfb30a87a7a64a07
878,-82.6498321,27.882185200000002,11850,dr martin luther king jr st n # 32,,st-petersburg,pinellas,fl,,,16ca4d416874cc62
879,-82.6498321,27.882185200000002,11850,dr martin luther king jr st n # 81,,st-petersburg,pinellas,fl,,,ac3a743378822da6
880,-82.6498321,27.882185200000002,11850,dr martin luther king jr st n # 82,,st-petersburg,pinellas,fl,,,bd3315ff56d4a132
881,-82.6498321,27.882185200000002,11850,dr martin luther king jr st n # 63,,st-petersburg,pinellas,fl,,,b4dab5f0c878370a
882,-82.7911442,27.952494599999998,1243,s martin luther king jr ave  #  c-3,,clearwater,pinellas,fl,,,24cbf410dca23682
883,-82.79004990000001,27.9524428,1247,s martin luther king jr ave  # 105,,clearwater,pinellas,fl,,,723bc1cb741db647
884,-82.64786120000001,27.846073699999998,8100,dr martin luther king jr st n # 214,,st-petersburg,pinellas,fl,,,c46489747803d5e0
885,-82.64786120000001,27.846073699999998,8100,dr martin luther king jr st n # 108,,st-petersburg,pinellas,fl,,,47031668cd3aad19
886,-82.64786120000001,27.846073699999998,8100,dr martin luther king jr st n # 102,,st-petersburg,pinellas,fl,,,d8087ffbbc9e45cf
887,-82.79127209999999,27.9325282,1763,s dr martin luther king jr ave  # a,,clearwater,pinellas,fl,,,7a7dea16f8efd774
888,-82.79004990000001,27.9524428,1247,s martin luther king jr ave  # 106,,clearwater,pinellas,fl,,,38c406b757addf2c
889,-82.79004990000001,27.9524428,1247,s martin luther king jr ave  # 306,,clearwater,pinellas,fl,,,f7a6b0fd529ccbbd
890,-82.79004990000001,27.9524428,1247,s martin luther king jr ave  # 205,,clearwater,pinellas,fl,,,f1fa6dd22bcceb64
891,-82.79146899999999,27.958892499999997,605,s martin luther king jr ave  # 2,,clearwater,pinellas,fl,,,2ac96ea2057e8cd3
892,-82.7911394,27.9530071,1243,s martin luther king jr ave  # b-40,,clearwater,pinellas,fl,,,d791209c7036ed14
893,-82.64786120000001,27.846073699999998,8100,dr martin luther king jr st n # 203,,st-petersburg,pinellas,fl,,,39d234c0b99a79d4
894,-82.64786120000001,27.846073699999998,8100,dr martin luther king jr st n # 312,,st-petersburg,pinellas,fl,,,a32846ba8a3b8b25
895,-82.64786120000001,27.846073699999998,8100,dr martin luther king jr st n # 310,,st-petersburg,pinellas,fl,,,39ab850e54b69224
896,-82.64786120000001,27.846073699999998,8100,dr martin luther king jr st n # 301,,st-petersburg,pinellas,fl,,,426a70cbc41841a2
897,-82.64786120000001,27.846073699999998,8100,dr martin luther king jr st n # 109,,st-petersburg,pinellas,fl,,,4b22c895631d3c80
898,-82.64786120000001,27.846073699999998,8100,dr martin luther king jr st n # 311,,st-petersburg,pinellas,fl,,,f728444ec7192cfe
899,-82.7914168,27.952728399999998,1243,s martin luther king jr ave  # a- 1,,clearwater,pinellas,fl,,,a34e50e04db82b1f
900,-82.64786120000001,27.846073699999998,8100,dr martin luther king jr st n # 314,,st-petersburg,pinellas,fl,,,56dba5c49dc587dd
901,-82.79133900000001,27.9589211,605,s martin luther king jr ave  # 4,,clearwater,pinellas,fl,,,0d9b876ab159c605
902,-82.64786120000001,27.846073699999998,8100,dr martin luther king jr st n # 101,,st-petersburg,pinellas,fl,,,2f15a74d9471e2d3
903,-82.64786120000001,27.846073699999998,8100,dr martin luther king jr st n # 303,,st-petersburg,pinellas,fl,,,eff4ed346f242490
904,-82.79004990000001,27.9524428,1247,s martin luther king jr ave  # 207,,clearwater,pinellas,fl,,,4748a4af4ac00d41
905,-82.64786120000001,27.846073699999998,8100,dr martin luther king jr st n # 309,,st-petersburg,pinellas,fl,,,ae4d03e315d83498
906,-82.79233990000002,27.9764521,,martin luther king jr ave n,,clearwater,pinellas,fl,,,f6749b8bc413a7aa
907,-82.6478396,27.8438964,7770,dr martin luther king jr st n # 201,,st-petersburg,pinellas,fl,,,52efa3e24dca1323
908,-82.6488246,27.854762599999997,9100,dr martin luther king jr st n # 142,,st-petersburg,pinellas,fl,,,022009b1553f302e
909,-82.6488246,27.854762599999997,9100,dr martin luther king jr st n # 140,,st-petersburg,pinellas,fl,,,12c29d710aeb7c88
910,-82.6488246,27.854762599999997,9100,dr martin luther king jr st n # 141,,st-petersburg,pinellas,fl,,,131ca2ca31fc4aef
911,-82.6478396,27.8438964,7770,dr martin luther king jr st n # 103,,st-petersburg,pinellas,fl,,,d327240408f60219
912,-82.6488246,27.854762599999997,9100,dr martin luther king jr st n # 106,,st-petersburg,pinellas,fl,,,32c15e49cf53227b
913,-82.6488246,27.854762599999997,9100,dr martin luther king jr st n # 150,,st-petersburg,pinellas,fl,,,2c03a53066332feb
914,-82.6488246,27.854762599999997,9100,dr martin luther king jr st n # 806,,st-petersburg,pinellas,fl,,,2e50aebb6802c016
915,-82.6478396,27.8438964,7770,dr martin luther king jr st n # 208,,st-petersburg,pinellas,fl,,,2f2c11cedf923bd3
916,-82.6488246,27.854762599999997,9100,dr martin luther king jr st n # 709,,st-petersburg,pinellas,fl,,,e146ea3c7b544d3f
917,-82.6488246,27.854762599999997,9100,dr martin luther king jr st n # 908,,st-petersburg,pinellas,fl,,,71a9b02e4143124f
918,-82.6488246,27.854762599999997,9100,dr martin luther king jr st n # 507,,st-petersburg,pinellas,fl,,,5b17c30edd7738f8
919,-82.6488246,27.854762599999997,9100,dr martin luther king jr st n # 160,,st-petersburg,pinellas,fl,,,161de1a9b19632af
920,-82.6488246,27.854762599999997,9100,dr martin luther king jr st n # 706,,st-petersburg,pinellas,fl,,,98634a4006d021b4
921,-82.6488246,27.854762599999997,9100,dr martin luther king jr st n # 204,,st-petersburg,pinellas,fl,,,7c2f77e738602347
922,-82.6488246,27.854762599999997,9100,dr martin luther king jr st n # 130,,st-petersburg,pinellas,fl,,,00366e2bce721fa8
923,-82.6488246,27.854762599999997,9100,dr martin luther king jr st n # 170,,st-petersburg,pinellas,fl,,,b7616c5e59f1a659
924,-82.6488246,27.854762599999997,9100,dr martin luther king jr st n # 603,,st-petersburg,pinellas,fl,,,44582c1b5f55491a
925,-82.6488246,27.854762599999997,9100,dr martin luther king jr st n # 904,,st-petersburg,pinellas,fl,,,13dd637ffaf7ede8
926,-82.6488246,27.854762599999997,9100,dr martin luther king jr st n # 322,,st-petersburg,pinellas,fl,,,7d3a589798bb1fcc
927,-82.6488246,27.854762599999997,9100,dr martin luther king jr st n # 811,,st-petersburg,pinellas,fl,,,baedb3940d46cf78
928,-82.6488246,27.854762599999997,9100,dr martin luther king jr st n # 701,,st-petersburg,pinellas,fl,,,6d496799dba1aae2
929,-82.6488246,27.854762599999997,9100,dr martin luther king jr st n # 809,,st-petersburg,pinellas,fl,,,7531342aafe0be71
930,-82.6488246,27.854762599999997,9100,dr martin luther king jr st n # 804,,st-petersburg,pinellas,fl,,,46ef67a175ce8b4e
931,-82.6488246,27.854762599999997,9100,dr martin luther king jr st n # 502,,st-petersburg,pinellas,fl,,,8c3635287aba6f15
932,-82.6488246,27.854762599999997,9100,dr martin luther king jr st n # 501,,st-petersburg,pinellas,fl,,,9e4721b88df29ac3
933,-82.6488246,27.854762599999997,9100,dr martin luther king jr st n # 901,,st-petersburg,pinellas,fl,,,faf4f28e6366e1c9
934,-82.6488246,27.854762599999997,9100,dr martin luther king jr st n # 708,,st-petersburg,pinellas,fl,,,2e47f343929645be
935,-82.6488246,27.854762599999997,9100,dr martin luther king jr st n # 907,,st-petersburg,pinellas,fl,,,011e924ccf415536
936,-82.6478396,27.8438964,7770,dr martin luther king jr st n # 302,,st-petersburg,pinellas,fl,,,8ca12d2e790c4158
937,-82.6488246,27.854762599999997,9100,dr martin luther king jr st n # 812,,st-petersburg,pinellas,fl,,,f27240d337e83971
938,-82.6488246,27.854762599999997,9100,dr martin luther king jr st n # 604,,st-petersburg,pinellas,fl,,,9879a7e87c02f9dd
939,-82.6488246,27.854762599999997,9100,dr martin luther king jr st n # 512,,st-petersburg,pinellas,fl,,,d61b223aba32b5f3
940,-82.6488246,27.854762599999997,9100,dr martin luther king jr st n # 808,,st-petersburg,pinellas,fl,,,b6c95a0884822c83
941,-82.6488246,27.854762599999997,9100,dr martin luther king jr st n # 316,,st-petersburg,pinellas,fl,,,9b5ebf27e163e153
942,-82.6488246,27.854762599999997,9100,dr martin luther king jr st n # 802,,st-petersburg,pinellas,fl,,,805e43dee01b0c1c
943,-82.6488246,27.854762599999997,9100,dr martin luther king jr st n # 515,,st-petersburg,pinellas,fl,,,f7a4768e1e7a14ee
944,-82.6488246,27.854762599999997,9100,dr martin luther king jr st n # 304,,st-petersburg,pinellas,fl,,,e31244ecf6fe68a8
945,-82.6488246,27.854762599999997,9100,dr martin luther king jr st n # 712,,st-petersburg,pinellas,fl,,,8920b69391e687e1
946,-82.6488246,27.854762599999997,9100,dr martin luther king jr st n # 714,,st-petersburg,pinellas,fl,,,9fee803f015142d1
947,-82.6488246,27.854762599999997,9100,dr martin luther king jr st n # 715,,st-petersburg,pinellas,fl,,,1e7eb59b856565d2
948,-82.6488246,27.854762599999997,9100,dr martin luther king jr st n # 508,,st-petersburg,pinellas,fl,,,c9ef0395abce486d
949,-82.6488246,27.854762599999997,9100,dr martin luther king jr st n # 120,,st-petersburg,pinellas,fl,,,cb1092f07cf45540
950,-82.6488246,27.854762599999997,9100,dr martin luther king jr st n # 711,,st-petersburg,pinellas,fl,,,4352d6d7bed7df97
951,-82.6488246,27.854762599999997,9100,dr martin luther king jr st n # 513,,st-petersburg,pinellas,fl,,,8ed81072e0c262f3
952,-82.6488246,27.854762599999997,9100,dr martin luther king jr st n # 605,,st-petersburg,pinellas,fl,,,6e354bf661da07ee
953,-82.6488246,27.854762599999997,9100,dr martin luther king jr st n # 100,,st-petersburg,pinellas,fl,,,3c2c3a703f8473ac
954,-82.6488246,27.854762599999997,9100,dr martin luther king jr st n # 803,,st-petersburg,pinellas,fl,,,e0f6de5f3f9b01c7
955,-82.6488246,27.854762599999997,9100,dr martin luther king jr st n # 504,,st-petersburg,pinellas,fl,,,4b409de7c00c4bd2
956,-82.6488246,27.854762599999997,9100,dr martin luther king jr st n # 313,,st-petersburg,pinellas,fl,,,71d82035637b6bc2
957,-82.6488246,27.854762599999997,9100,dr martin luther king jr st n # 810,,st-petersburg,pinellas,fl,,,a8459256e478b0fa
958,-82.6488246,27.854762599999997,9100,dr martin luther king jr st n # 903,,st-petersburg,pinellas,fl,,,fa49c5dffc3768f9
959,-82.6488246,27.854762599999997,9100,dr martin luther king jr st n # 602,,st-petersburg,pinellas,fl,,,bed7d73ad86cb38e
960,-82.6488246,27.854762599999997,9100,dr martin luther king jr st n # 703,,st-petersburg,pinellas,fl,,,d8fa3591d417de56
961,-82.6488246,27.854762599999997,9100,dr martin luther king jr st n # 607,,st-petersburg,pinellas,fl,,,5f605b6035c7fe1e
962,-82.6488246,27.854762599999997,9100,dr martin luther king jr st n # 405,,st-petersburg,pinellas,fl,,,fa54e812eba71e04
963,-82.6488246,27.854762599999997,9100,dr martin luther king jr st n # 406,,st-petersburg,pinellas,fl,,,44f16e3c14f9b0e8
964,-82.6488246,27.854762599999997,9100,dr martin luther king jr st n # 307,,st-petersburg,pinellas,fl,,,ed458c0ca17b7e64
965,-82.6488246,27.854762599999997,9100,dr martin luther king jr st n # 509,,st-petersburg,pinellas,fl,,,834755667f0754f1
966,-81.9244772,28.1202016,6010,lake luther rd,,lakeland,polk,fl,,,3dafba18fc77023e
967,-81.92539520000001,28.1207108,6014,lake luther dr,,lakeland,polk,fl,,,8216bf6754a678e0
968,-81.9615063,28.056475399999997,1046,martin luther king jr hwy,,lakeland,polk,fl,,,466289b7573c0806
969,-81.7206083,28.1026133,780,martin luther king jr st,,winter-haven-auburndale,polk,fl,,,692f849c8ee3865f
970,-81.6225243,28.120788,1400,n martin luther king jr way,,haines-city,polk,fl,,,b40081a8b1273982
971,-81.622525,28.120966100000004,,martin luther king jr way,,haines-city,polk,fl,,,26d61024840a72e7
972,-81.6222363,28.1210305,,dr martin luther king jr way,,haines-city,polk,fl,,,99c768ad5f4c5bde
973,-81.62211740000001,28.1205353,1309,dr martin luther king,,haines-city,polk,fl,,,5487b79cea80d32f
974,-81.827617,27.8911167,,martin luther king jr blvd e,,bartow,polk,fl,,,71f89f2cb77162bc
975,-81.82792099999999,27.891205,,martin luther king jr blvd s,,bartow,polk,fl,,,0296749696312c8a
976,-81.8039182,27.747024300000003,,sw dr martin luther king jr st,,bartow,polk,fl,,,e36cfcdae0bc88be
977,-81.8047103,27.746986199999995,210,dr martin luther king jr st sw,,bartow,polk,fl,,,e2170448fb1ad515
978,-81.7998755,27.7469837,,se dr martin luther king jr st,,bartow,polk,fl,,,49374125ce8fb5f1
979,-81.7993612,27.7469783,,dr martin luther king jr st se,,bartow,polk,fl,,,f5ee50ceae3475db
980,-81.80232559999999,27.747145500000002,32,sw dr martin luther king jr blvd,,bartow,polk,fl,,,894319150a8be123
981,-81.62354140000001,28.017381,213,dr martin luther king st sw,,haines-city,polk,fl,,,3f22e5ee93a2de16
982,-81.6226805,28.018090500000003,,dr martin luther king jr st,,haines-city,polk,fl,,,f7ef7fd09f691a2b
983,-81.8026895,27.747077,34,sw martin luther king jr st,,bartow,polk,fl,,,8f9a8544e09be7f2
984,-81.9652944,27.899249600000005,701,dr martin luther king jr ave ne,,bartow,polk,fl,,,3f253fdea0ad805e
985,-81.6240275,28.0160185,324,dr martin luther king st,,haines-city,polk,fl,,,e4dcb8624cb80736
986,-81.8243772,27.891538899999997,,martin luther king jr blvd w,,bartow,polk,fl,,,dc2abdab8fe346ab
987,-81.5933565,27.900192200000003,,dr martin luther king jr blvd s,,lake-wales,polk,fl,,,f63eb4dcfb8afdc7
988,-81.593503,27.902501399999995,130,dr martin luther king blvd n,,lake-wales,polk,fl,,,ecbf22fe89986688
989,-81.83365529999999,27.891575399999997,966,1/2 martin luther king jr blvd,,bartow,polk,fl,,,e98415acc03bc164
990,-81.5940188,27.906141700000003,517,dr martin luther king jr blvd n,,lake-wales,polk,fl,,,46e98aaa963bc0de
991,-81.96168490000001,28.052606199999996,834,"martin luther king jr ave 3, 4",,lakeland,polk,fl,,,f22cfa6d8d7ea79f
992,-87.1552261,30.6616832,4020,luther fowler rd,,pace,santa_rosa,fl,,,1df528aab9f56620
993,-82.5212245,27.3594602,2430,e dr martin luther king jr way,,sarasota,sarasota,fl,,,fcb7c7035340bca4
994,-82.1116043,27.050713399999996,4756,luther ave,,north-port,sarasota,fl,,,ce876e21c806ec39
995,-81.4719924,29.674175599999998,9620,luther beck rd,,hastings,st_johns,fl,,,9e35338b50f038a6
996,-82.04490059999999,28.859243699999997,415,dr martin luther king ave,,wildwood,sumter,fl,,,199463d81ffab371
997,-82.0428863,28.8626419,112,112-14 dr martin luther king jr,,wildwood,sumter,fl,,,7fc8c626e343263d
998,-82.0426516,28.863236699999998,100,dr martin luther king dr,,wildwood,sumter,fl,,,d51fc8f2c5ed911d
999,-82.042737,28.8630357,102,102-04 dr martin luther king jr,,wildwood,sumter,fl,,,c677215adcb2a826
1000,-82.0426623,28.8626576,108,108-10 dr martin luther king jr,,wildwood,sumter,fl,,,c0ab0cf54dad1e1c
1001,-81.0327725,29.2160483,411,n martin luther king blvd,,daytona-beach,volusia,fl,,,e7defb77d3172409
1002,-81.03081540000001,29.214914500000003,357,n martin luther king blvd  & 359,,daytona-beach,volusia,fl,,,31761ef2daac9385
1003,-81.030072,29.210759499999998,204,n martin luther king blvd  & 206,,daytona-beach,volusia,fl,,,ea31a7846224ab54
1004,-81.027822,29.2078925,117,s martin luther king blvd  & 115,,daytona-beach,volusia,fl,,,fa0c2a40ede9f8d7
1005,-81.02648520000001,29.205385800000002,239,s martin luther king blvd  & 241,,daytona-beach,volusia,fl,,,259bff0f5377ad7e
1006,-81.0254204,29.2032917,345,s martin luther king blvd  & 347,,daytona-beach,volusia,fl,,,25cff7c22d8a2ddc
1007,-81.0232075,29.1993972,543,s martin luther king blvd  & 551,,daytona-beach,volusia,fl,,,66c6e287c6729b9b
1008,-81.02259980000001,29.1979815,633,s martin luther king blvd  & 635,,daytona-beach,volusia,fl,,,5ed0e6795ffe98b4
1009,-81.02763359999999,29.2063891,200,s martin luther king blvd  & 202,,daytona-beach,volusia,fl,,,21be27e0d93aa7b7
1010,-81.02645629999999,29.203297999999997,400,s martin luther king blvd  etal,,daytona-beach,volusia,fl,,,3b6b05376a557044
1011,-84.2594171,30.172817900000002,2438,dr martin luther king jr rd,,east-wakulla,wakulla,fl,,,0a91ca2c740b2440
1012,-85.5372187,30.789018199999997,538,538ab martin luther king dr,,chipley,washington,fl,,,5fe86fd374704d60
1013,-82.63589549999999,30.1985985,187,martin luther king st ne,,lake-city,columbia,fl,,,9ee0ab55ba32c6fd
1014,-82.63855840000001,30.198299100000003,170,martin luther king st nw,,lake-city,columbia,fl,,,a8230cac208dd78a
1015,-85.64827640000001,30.179983399999998,1810,mlk blvd,,panama-city,bay,fl,,,0b1ca88c345c9236
1016,-85.6501315,30.1465398,106,mlk blvd n,,panama-city,bay,fl,,,83058523a3913461
1017,-85.65003349999999,30.161358399999997,7121,7121/2 mlk blvd,,panama-city,bay,fl,,,8dfa50b095e43976
1018,-85.65068079999999,30.1614658,7131,7131/2 mlk blvd,,panama-city,bay,fl,,,8c6d5fa38ffa58ac
1019,-85.0393435,30.436161199999997,,preston & mlk ave,,blountstown,calhoun,fl,,,59dfaf829490780d
1020,-85.040397,30.435609499999998,,azalea & mlk dr,,blountstown,calhoun,fl,,,2b5a51f5efdc496f
1021,-85.038033,30.4361733,,river & mlk st,,blountstown,calhoun,fl,,,d4c9e1feae1ab16d
1022,-85.0376005,30.436281400000002,,gadsden & mlk st,,blountstown,calhoun,fl,,,314f5d038cf0b572
1023,-84.99328440000001,29.727063300000005,120,mlk aj's bar & grill blvd,,apalachicola,franklin,fl,,,e8d6e6c07502304d
1024,-82.5204739,27.980086800000002,,air cargo & mlk rd,,tampa,hillsborough,fl,,,0dd0bfbabff5d415
1025,-82.4265764,27.9812036,,e mlk bv,,tampa,hillsborough,fl,,,6d7bd5d73de87c3e
1026,-82.11400490000001,28.0149477,110,s warnell & mlk st,,plant-city,hillsborough,fl,,,843beb34d0e37807
1027,-82.1096292,28.0150283,1508,e dr  mlk  jr blvd,,plant-city,hillsborough,fl,,,2de80f4433cd4a93
1028,-82.1099554,28.015023499999998,1502,e dr  mlk jr blvd,,plant-city,hillsborough,fl,,,01919978b413f9cd
1029,-82.11603609999999,28.014900800000003,916,dr mlk jr blvd,,plant-city,hillsborough,fl,,,755ae50348a61b40
1030,-82.11957530000001,28.0145126,405,e mlk blvd,,plant-city,hillsborough,fl,,,7650daf66d190165
1031,-82.11973259999999,28.014512300000003,,e mlk & lake st blvd,,plant-city,hillsborough,fl,,,984a2e2e27c16ad4
1032,-82.19002409999999,28.0026553,15514,mlk hy,,plant-city,hillsborough,fl,,,12dd53f835be85b5
1033,-82.2076565,27.9968125,3264,sydney dover & mlk rd,,plant-city,hillsborough,fl,,,d080d06de20dc5f5
1034,-82.195265,28.0008038,,e mlk  & tanner rd bv,,plant-city,hillsborough,fl,,,237d3e73b10e354f
1035,-82.2483195,27.989346299999998,,e mlk & shady acres blvd,,brandon,hillsborough,fl,,,88ffe9ed141fdd3f
1036,-82.5248662,27.981035499999997,4810,w mlk & west shore blvd,,tampa,hillsborough,fl,,,192f27926b607338
1037,-82.4737686,27.981740500000004,,riverside & mlk,,tampa,hillsborough,fl,,,979fef9c43c06dea
1038,-82.28299759999999,27.9821252,,w mlk bv,,brandon,hillsborough,fl,,,4756f70e1912be51
1039,-82.2724422,27.9855881,710,e mlk,,brandon,hillsborough,fl,,,2fe3d13ee1dd6ec6
1040,-82.4226037,27.981232000000002,3311,e mlk & 34th st blvd,,tampa,hillsborough,fl,,,02aa9059951c25d2
1041,-82.5162211,27.9822973,4408,n hubert & mlk av,,tampa,hillsborough,fl,,,3cc80731352a5c54
1042,-82.2430853,27.990700800000003,2901,mcintosh and mlk rd,,brandon,hillsborough,fl,,,603fea12e2ac6a6a
1043,-82.29202099999999,27.981285200000002,,w dr mlk jr bv,,brandon,hillsborough,fl,,,b419e4607285fdf7
1044,-82.5140292,27.981965000000002,4201,w mlk & lois blvd,,tampa,hillsborough,fl,,,83ba4fe3e1ba2b1f
1045,-82.3066864,27.981104600000002,,mlk & hewitt st,,brandon,hillsborough,fl,,,d21ffa4ce04a9dfd
1046,-82.47036120000001,27.981422100000003,800,w mlk,,tampa,hillsborough,fl,,,617b5edd105a1238
1047,-82.44950490000001,27.981236300000003,3906,10th & mlk bv st,,tampa,hillsborough,fl,,,6fb34916baa0d829
1048,-82.23575,27.991426399999998,,e mlk & gallagher rd,,plant-city,hillsborough,fl,,,1e2159b773eb1751
1049,-82.4799955,27.981063,1936,w mlk blvd,,tampa,hillsborough,fl,,,d1d8b19f0e780c80
1050,-83.863874,30.5430396,475,mlk blvd- (old s rhodes),,monticello,jefferson,fl,,,e3a91f89b86c2caa
1051,-83.86373329999999,30.5433929,405,s rhodes (mlk jr blvd),,monticello,jefferson,fl,,,7dedc919417ca69e
1052,-83.8633183,30.542494399999995,490,mlk blvd (old s rhodes),,monticello,jefferson,fl,,,74b7fafabc529169
1053,-83.8632253,30.5419397,520,mlk jr blvd (s rhodes),,monticello,jefferson,fl,,,7c85c07e0aae23a8
1054,-83.8632257,30.5403636,730,mlk jr (old-s rhodes st),,monticello,jefferson,fl,,,251ac9c378a3744e
1055,-83.8639844,30.5403205,705,dr mlk ave,,monticello,jefferson,fl,,,101863d145438b71
1056,-83.8632252,30.5399843,,s mlk jr & e second,,monticello,jefferson,fl,,,e038c83620f07039
1057,-83.8633959,30.539392100000004,,s mlk jr,,monticello,jefferson,fl,,,ac91d14cb303d41c
1058,-81.85950059999999,26.6405564,2000,cranford ave/2600 dr mlk jr blvd,,fort-myers,lee,fl,,,007e3c230c5b8c88
1059,-86.665788,30.4341097,,mlk jr blvd,,fort-walton-beach,okaloosa,fl,,,f3fea71501ee1ab5
1060,-86.66610109999999,30.4317316,,mlk jr blve,,fort-walton-beach,okaloosa,fl,,,1f5b8e7fd7831c0b
1061,-81.9652714,27.893248600000003,302,dr mlk jr ave,,bartow,polk,fl,,,aba17aa0795208fe
1062,-81.62219870000001,28.121738099999998,1511,n mlk jr way,,haines-city,polk,fl,,,cf7aac7ea5eaec6d
1063,-81.62243740000001,28.118423999999997,,avenue a & mlk,,haines-city,polk,fl,,,88058e722b79fddc
1064,-81.8051248,27.7470451,220,sw dr mlk jr st sw,,bartow,polk,fl,,,eeb12da8217ecd73
1065,-81.9656546,27.8914228,,dr mlk jr ave se,,bartow,polk,fl,,,438da4698d71b0e8
1066,-81.96895079999999,27.899743400000002,18211,dr mlk jr ave ne,,bartow,polk,fl,,,b24480ca0edeb43d
1067,-81.82612440000001,27.891072499999996,1715,1/2 mlk blvd,,bartow,polk,fl,,,9e5d5be9e8ba7eb0
1068,-81.9610872,28.0538028,915,915 1/2 & 917 mlk ave,,lakeland,polk,fl,,,e57466973303620d
1069,-81.5940792,27.9039922,303,n mlk blvd,,lake-wales,polk,fl,,,a95553fdb9f7cd31
1070,-80.03642099999999,39.3444225,39,luther st,,GRAFTON,,wv,,,45c80daea811b261
1071,-95.3800153,29.8466784,65,luther  st,,HOUSTON,,tx,77076,1207885,ee2f2983451f29c1
1072,-95.3359783,29.6740922,7425,martin luther king  blvd,,HOUSTON,,tx,77033,204717,74a9081a9e330747
1073,-95.6648783,30.0997845,23407,lutheran cemetery  rd,,UNINCORPORATED,,tx,77375,725235,6ad09a7f22841160
1074,-95.7135442,30.013861699999996,19520,lutheran cemetary  rd,,UNINCORPORATED,,tx,77429,1108712,dd9f6eb96100fdd2
1075,-95.66507309999999,30.096992600000004,16008,lutheran school  rd,,UNINCORPORATED,,tx,77375,1248661,cd61ab5e8a08abbb
1076,-95.5693952,30.1324725,25630,zion lutheran cemetery  rd,,UNINCORPORATED,,tx,77375,684735,a6d27639a86d1f99
1077,-94.98278690000001,29.7293364,512,martin luther king  st,,BAYTOWN,,tx,77520,1037329,d77bab3f32974bb1
1078,-95.6706937,30.0971151,23010,lutheran church  rd,,UNINCORPORATED,,tx,77377,744515,a669b1ccea486576
1079,-95.6729565,30.0944002,16435,lutheran school,,UNINCORPORATED,,tx,77375,698580,546e47c920ffe6ba
1080,-95.2859995,29.998248800000002,9118,martin luther king  dr,,HOUSTON,,tx,77338,666172,7c713fa945a5bb50
1081,-95.3758218,29.846846799999998,153,luther,,HOUSTON,,tx,77076,464285,b1796a1dd2348e35
1082,-95.3360146,29.652556699999998,9015,martinpluther king  blvd,,HOUSTON,,tx,77033,187159,6aea472b63df6590
1083,-96.6008885,32.8758022,3406,luther ln,,city_of_garland,,tx,75043,,acd4347ef4c385a0
1084,-97.29033259999999,32.721038199999995,2501,martin luther king fwy,,FORT WORTH,,tx,76105,,81c550265d2f6faf
1085,-97.0843897,32.7221811,1701,martin luther dr,,ARLINGTON,,tx,76010,,6e7d7cc200740df4
1086,-97.29685649999999,32.723724,1908,martin luther king,,FORT WORTH,,tx,76104,,ad38347600a41a8f
1087,-97.22679699999999,32.857482899999994,7301,luther ct,,NORTH RICHLAND HILLS,,tx,76180,,b2da58ef042e354c
1088,-96.5433524,33.765364899999994,613,martin luther king st,,texoma-counties,,tx,75020,,6f75349f4a756f0c
1089,-97.11358709999999,33.6524245,2300,luther ln,,texoma-counties,,tx,76240,,277b45d7237bd280
1090,-96.6003223,32.875402,3502,luther ln,,dallas,,tx,,,8d49dad2553ca345
1091,-96.7698661,32.7673506,2618,martin luther king jr blvd,,dallas,,tx,,,af01923841e2d133
1092,-96.8922739,32.6513173,215,martin luther cir,,dallas,,tx,,,c7459998db7bca1c
1093,-96.9707098,32.9228397,39,luther rd,,dallas,,tx,,,2b243e666565ec8d
1094,-96.74855040000001,32.7351709,5700,luther st,,dallas,,tx,,,41d2a2cb4ad9d2f7
1095,-97.1637003,30.005016100000002,304,sw   martin luther king dr,,SMITHVILLE,BASTROP,tx,78957,,ae99c70a75917534
1096,-97.3617331,30.3358006,817,s   martin luther king jr blvd,,ELGIN,BASTROP,tx,78621,,0e67658df7175bf9
1097,-97.36775290000001,30.3499907,105,n   martin luther king jr blvd,,ELGIN,BASTROP,tx,78621,,de88626947781037
1098,-97.16140909999999,30.003569,100,se   martin luther king dr,,SMITHVILLE,BASTROP,tx,78957,,007b16f9aef722e3
1099,-97.1506323,29.999040700000002,1204,se   martin luther st,,SMITHVILLE,BASTROP,tx,78957,,312eebef1084b29b
1100,-97.3108898,30.1035844,303,martin luther king jr dr,,BASTROP,BASTROP,tx,78602,,6e0d9d3ec5009e53
1101,-97.461892,30.0308792,110,luther ln,,CEDAR CREEK,BASTROP,tx,78612,,56b18e65e41b0337
1102,-96.8290086,29.988470500000002,3782,luther hill rd,,LA GRANGE,149,tx,78945,,8e50c13a23a52e8f
1103,-97.1029795,29.691972800000002,503,martin luther king st,,FLATONIA,149,tx,78941,,1d46661ac0845b38
1104,-97.7310487,30.2781796,709,e   martin luther king jr blvd,,AUSTIN,TRAVIS,tx,78701,,d92c3069485206df
1105,-97.7377819,30.280299199999998,105,w   martin luther king jr blvd,,AUSTIN,TRAVIS,tx,78701,,231a3d62ca4f1d31
1106,-97.678737,30.541357,900,luther peterson pl,,ROUND ROCK,WILLIAMSON,tx,78681,,3e279e2ff72c50a7
1107,-97.69411720000001,30.6113212,628,luther dr,,GEORGETOWN,WILLIAMSON,tx,78628,,1ed7e982a80aa009
1108,-97.6805939,30.633797499999996,1105,martin luther king jr st,,GEORGETOWN,WILLIAMSON,tx,78626,,23c529b5ae1f728a
1109,-97.6559118,29.8724278,1201,e   mlk jr industrial blvd,, ,CALDWELL,tx,78644,,aca073cb1d63e60c
1110,-97.6700225,29.860611699999996,120,w   mlk industrial blvd w,, ,CALDWELL,tx,78644,,b317845d7578710f
1111,-97.94470770000001,29.878982899999997,517,w   mlk dr,,SAN MARCOS,HAYS,tx,78666,,e9ddf6fc5c721ed2
1112,-97.9404987,29.879842100000005,110,e   mlk dr,,SAN MARCOS,HAYS,tx,78666,,366c1bca3b0c5c96
1113,-97.94687590000001,29.8763548,801,mlk dr,,SAN MARCOS,HAYS,tx,78666,,6a8a2e650c194454
1114,-97.900724,29.602058399999997,4410,luther rd,,SEGUIN,,tx,78155,,2c959a62d3de2be1
1115,-97.70801379999999,30.2820679,2910 1/2,e martin luther king jr blvd,,city_of_austin,,tx,,,64ded44d25a64505
1116,-97.74090090000001,30.281231,303,w martin luther king jr blvd,,city_of_austin,,tx,,,d032c002adb399ba
1117,-97.7234152,30.292118199999997,921,luther ln,,city_of_austin,,tx,,,e7354fb1b888539c
1118,-95.44604050000001,30.303386199999995,700,dr martin luther king jr pl s,,CONROE,,tx,77301,,4cf33e188013bab3
1119,-95.4526329,30.3038495,209,dr martin luther king jr pl n,,CONROE,,tx,77301,,221e1f25094252cc
1120,-95.4409656,30.3060705,1001,martin luther king blvd,,,,tx,,,4b227e6591db5701
1121,-95.4884617,30.4235075,811 1/2,w martin luther king blvd,,WILLIS,,tx,77378,,ff65e0e546d8bc3d
1122,-95.7035613,30.402897499999998,729,martin luther king jr dr,,MONTGOMERY,,tx,77356,,35db191fa3798cae
1123,-95.7060676,30.408887100000005,,dr martin luther king dr,,MONTGOMERY,,tx,77356,,9d32d7e997df8b9f
1124,-95.70701190000001,30.409518900000002,1790,dr martin luther king jr dr,,MONTGOMERY,,tx,77356,,e5d6df44824c13bc
1125,-95.44940629999999,30.302469300000002,405,martin luther,,,,tx,,,ac33a1acee59a8b3
1126,-95.5586163,30.343148699999997,135,luther ln,,CONROE,,tx,77304,,6165c5b5a41d7332
1127,-95.4477435,30.303122499999997,507,mlk place s,,CONROE,,tx,77301,,3ef86bafe51c934f
1128,-95.4484932,30.305291399999998,508,mlk place,,CONROE,,tx,77301,,ac90954b1d39605f
1129,-97.0506728,33.036335,3717,luther ln,,city_of_flower_mound,,tx,,,303bde4941fe956c
1130,-98.4739046,29.4127577,318,martin luther king dr,,bexar,,tx,,,9b536f7ed7a9a263
1131,-98.49152990000002,29.4733472,102,luther dr,,bexar,,tx,,,f1fba4a1a72cf00b
1132,-98.4447383,29.412884499999997,2508,martin luther king,,bexar,,tx,,,c3b41c354f474a0b
1133,-94.63994890000001,31.595861,1901,martin luther king jr blvd,,NACOGDOCHES,,tx,,,6f1f8c44c53b65af
1134,-97.34209940000001,31.082256400000002,1305,martin luther king jr ln,,city_of_temple,,tx,,,a916a40c2141bce2
1135,-97.3409005,31.084974100000004,1005,s martin luther king jr dr,,city_of_temple,,tx,,,1d398cbc45f6c074
1136,-97.3374335,31.0961047,10,n martin luther king jr dr,,city_of_temple,,tx,,,23210901547f3cd1
1137,-97.31947579999999,31.214967600000005,1940,luther curtis rd,,city_of_temple,,tx,,,62dc9bdef9167833
1138,-96.5451473,29.710655300000003,815,martin luther king,, ,,tx, ,,447571a26291590d
1139,-94.7166804,32.4644604,2307,mlk bl,,city_of_longview,,tx,,,61ca2eb55e20564b
1140,-94.7169543,32.4551343,3107,mlk  bl,,city_of_longview,,tx,,,b415f718d7645305
1141,-96.83194990000001,32.378717200000004,1402,dr martin luther king jr blvd,,WAXAHACHIE,ELLIS,tx,75165,,1baa7548705efd0b
1142,-96.4979257,32.840362,106,luther ln,,HEATH,,tx,,,34b23fffff19f87d
1143,-98.4262884,29.413243400000002,3314,martin luther king dr,,san_antonio,,tx,,,d3989b31987f92d7
1144,-98.48746740000001,29.4733419,244,luther dr,,san_antonio,,tx,,,1a36162bd937c0b3
1145,-97.4085974,30.5649023,111,e martin luther king jr blvd,,williamson,,tx,76574,,2d3ed2b0f3457231
1146,-97.4121691,30.564663899999996,310,w martin luther king jr blvd,,williamson,,tx,76574,,73a2f02a45a7fde3
1147,-97.68126109999999,30.5468939,910,luther peterson pl,,williamson,,tx,78665,,83560cf3b86dae5a
1148,-97.6939818,30.6119016,625,luther dr,B,williamson,,tx,78628,,776cc148fa1f528e
1149,-97.6812473,30.639405,404,martin luther king jr st,,williamson,,tx,78626,,6a6363ae7ee5e3fd
1150,-98.42629620000001,29.4132484,3314,martin luther king dr,,city_of_san_antonio,,tx,,,11864f39331d11f8
1151,-98.48747519999999,29.473346999999997,244,luther dr,,city_of_san_antonio,,tx,,,f011c039b392819c
1152,-97.678737,30.541357,900,luther peterson pl,,round_rock,,tx,78681,,201859af22f5cd26
1153,-97.1105613,31.5590959,1410,martin luther king jr blvd,,Waco,,tx,76704,,a50ac13166ed8d2a
1154,-97.1136051,31.5605159,1104,s martin luther king jr blvd,,Waco,,tx,76704,,8b653771ead9deed
1155,-97.1082601,31.5586303,1816,martin luther king jr blvd rear,,Waco,,tx,76704,,e075e47acd27cded
1156,-97.14171,31.572552,1500,n martin luther king jr blvd,,Waco,,tx,76704,,d49a26c67a848d68
1157,-97.1213017,31.559510600000003,201,martin luther king jr blvd -rear,,Waco,,tx,76704,,0134d990c5a19e0b
1158,-97.1124792,31.5596609,,martin luther king jr blvd -row,,Waco,,tx,76704,,4f2fbf1240081cb4
1159,-97.1114979,31.559743100000006,1310,martin luther king jr blvd -1314,,Waco,,tx,76704,,41cf9ec2cfbd9746
1160,-80.6327662,34.913272799999994,6601,luther ln,,union,,nc,,,57aef219d5a9433d
1161,-82.7270892,35.24215220000001,,lutheran church,,transylvania,,nc,,,7529323d5629de99
1162,-82.2204227,35.428815,135,luther burbank dr,,CHIMNEY ROCK,,nc,28746,,de1eb9f7f4eb7877
1163,-79.41015829999999,35.165437700000005,1519,luther way,,SP,,nc,28387,,eae3a7371a53a239
1164,-80.4586392,35.6649102,423,n martin luther king jr ave,,SALISBURY,,nc,28144,,faa94b90d246ff37
1165,-80.4678005,35.6594685,422,s martin luther king jr ave,,SALISBURY,,nc,28144,,27d241ddf65ecf7d
1166,-80.48242979999999,35.6443653,1988,lutheran synod dr,,SALISBURY,,nc,28144,,99d76a1c29481948
1167,-80.4804072,35.647402500000005,212,luther ln,,SALISBURY,,nc,28144,,2b4fc8559f6ff238
1168,-79.0590557,35.9523903,1321,martin luther king jr blvd,,orange,,nc,27516,,2504591862f2781a
1169,-79.0556931,35.9194867,620,martin luther king jr,601,orange,,nc,27514,,541e513558c2e315
1170,-79.0550434,35.947709100000004,1208,martin luther king jr blvd,500,orange,,nc,27516,,6ef9a5c0c2fb4998
1171,-79.07747990000001,36.0500348,2313,luther dr,,orange,,nc,27278,,ab5423948ca7781d
1172,-79.75499980000001,36.028904499999996,1414,phifer-luther ct,,city_of_greensboro,,nc,27406,,462983d08cf00d62
1173,-79.773234,36.0414034,2240,martin luther king jr dr,,city_of_greensboro,,nc,27406,,6f053d14f178ca6c
1174,-79.76891459999999,36.0741609,112,luther st,,city_of_greensboro,,nc,27401,,628f442dcea9adea
1175,-79.763448,36.0782068,2112,lutheran st,,city_of_greensboro,,nc,27401,,d477a5a6d5469755
1176,-79.7737694,36.0481303,2031,martin luther king jr  dr,A,city_of_greensboro,,nc,27406,,9985aef44c9b2427
1177,-77.880107,35.7071086,2210,martin luther king jr pkwy se,,wilson,,nc,27893,,291a5df628565788
1178,-77.8862541,35.713601000000004,1913,martin luther king jr pkwy e,BLDG G,wilson,,nc,27893,,616f1fcc8cd62ad7
1179,-77.83118590000001,35.8611583,101,martin luther king jr cir,,wilson,,nc,27878,,da0d5f1d137c0839
1180,-78.05874200000001,35.706790000000005,6700,luther rd,SWPOT STOR,wilson,,nc,27893,,a8845490cbac35fa
1181,-77.63487109999998,35.7860127,305,s martin luther king jr st,,wilson,,nc,27864,,4a7c8a140ef40709
1182,-77.6327465,35.7894145,102,n martin luther king jr st,,wilson,,nc,27864,,70dd4e1266584afa
1183,-82.1329449,35.233923700000005,300,luther durham rd,,polk,,nc,,,8e609426d04461d9
1184,-77.05144969999999,35.545027000000005,142,e martin luther king jr dr,,Washington,,nc,27889,,f2d445dbb19212d8
1185,-77.05323940000001,35.5459687,114,w martin luther king jr dr,,Washington,,nc,27889,,5353fe0c67191869
1186,-80.8494455,35.2281806,424,w martin luther king jr bv,,CHARLOTTE,,nc,28202,75836,bf6a7f0b2c01c3ee
1187,-80.8302861,35.2093175,1703,luther st,,CHARLOTTE,,nc,28204,115170,18b4a70f5af0682d
1188,-80.845853,35.2243936,110,e martin luther king jr bv,,CHARLOTTE,,nc,28202,116190,489e29b16b7789cf
1189,-80.7442772,35.0712969,3903,luthers rock ct,,CHARLOTTE,,nc,28270,227376,8d0496f523cbd1bc
1190,-82.74765909999999,35.549010700000004,787,n luther rd,,buncombe,,nc,28715,,3f26c9c1830c095f
1191,-82.7389964,35.5384891,75,luther rd,,buncombe,,nc,28715,,1f4da92163be9674
1192,-82.67176440000001,35.547175,99999,bessie luther blvd,,buncombe,,nc,28715,,435ad2080ee67950
1193,-82.6891999,35.5729346,123,pete luther rd,,buncombe,,nc,28715,,acfcbfdd8f8cd913
1194,-82.6870832,35.578586,10,luther cove rd,,buncombe,,nc,28715,,ef5841e3879d0e80
1195,-82.6851462,35.5798536,2,luther woods dr,,buncombe,,nc,28715,,f01086368916c45c
1196,-82.60465429999999,35.5865314,52,luther st,,buncombe,,nc,28806,,f851f9f6b2f1896d
1197,-82.5493852,35.5892848,1,martin luther king jr dr,,buncombe,,nc,28801,,f5bd868d74a5bd6b
1198,-80.5933991,36.5052781,132,luther ridge ln,,MOUNT AIRY,,nc,27030-3964,,52b4413dffd42a27
1199,-80.5927172,36.5050827,,luther ridge tr,,MOUNT AIRY,,nc,27030,,4ea493a2df1b1149
1200,-78.6079378,34.6286206,106,martin luther king dr,,ELIZABETHTOWN,,nc,,,c6c9298e2aa43034
1201,-78.7874079,34.539274299999995,102,martin luther king jr dr,,BLADENBORO,,nc,,,a08dd78742974123
1202,-78.78646280000001,34.5386878,129,martinluther king jr dr,,BLADENBORO,,nc,,,943062545d2e79ed
1203,-78.839536,34.5829149,670,luther brisson rd,,BLADENBORO,,nc,,,ebfcb6af68e98500
1204,-78.9056856,35.938753399999996,519,martin luther king jr pkwy,,DURH,,nc,27713,71312,c7bc5d4a1876b142
1205,-78.9449194,36.063088,3136,luther rd,,DURH,,nc,27712,13077,31f95cdab4ec1fa0
1206,-78.9085122,35.9397232,637,martin luther king pkwy,,DURH,,nc,27713,104976,e6928690a397c75e
1207,-78.8935555,35.932632899999994,251,e martin luther king jr pkwy,,DURH,,nc,27713,97906,c0e99d69e08e3418
1208,-78.9294704,35.954575,1162,martin luther king jr          pkwy,,DURH,,nc,27707,125286,ca958bf3f58246bd
1209,-78.9318559,35.9566554,1172,martin luther king jr             pkwy,,DURH,,nc,27707,125288,790e3226ad4ecfb3
1210,-78.9006371,35.9377424,401,martin luther king jr blvd,,DURH,,nc,27713,126536,49f49fd8c8e9ef2f
1211,-78.9450625,36.0655545,4118,luther                         rd,,DURH,,nc,27712,128250,967166216bcdb490
1212,-83.5989031,35.311713299999994,100,luther bingham,,NANTAHALA GORGE,,nc,28713,,ca7c824eb2e2312c
1213,-77.79004959999999,35.320820899999994,406,martin luther king jr dr,,lenoir,,nc,,,3f17eb4238490a27
1214,-77.793076,35.315506899999995,102,martin luther king dr,,lenoir,,nc,,,515c4826c9778818
1215,-77.5727721,35.26399,,dr mlk jr bl,,lenoir,,nc,,,be2d286b7e10a812
1216,-77.5734938,35.259516,,e king st / dr mlk jr bl,,lenoir,,nc,,,a342ce25b1a0ec0c
1217,-80.48242990000001,35.6443653,1988,lutheran synod dr,,rowan,,nc,28144,,45a57d4266b84c05
1218,-80.4759766,35.6561634,809,s martin luther king jr av,,rowan,,nc,28144,,744e71a21bba76ff
1219,-80.4803459,35.647322100000004,212,luther ln,,rowan,,nc,28144,,1ddfe1e3a6b41822
1220,-80.46235329999999,35.663188899999994,204,n martin luther king jr av,,rowan,,nc,28144,,8dd0b7c5332d6666
1221,-80.4128422,35.5821314,265,luther barger rd,,rowan,,nc,28146,,509db68781e570a2
1222,-81.13625019999999,36.499962100000005,17,luther st,,alleghany,,nc,,,25940158832376d1
1223,-80.13168359999999,36.2856325,1107,martin luther king jr dr,,city_of_king,,nc,,,b455a76c1252fd97
1224,-80.1314663,36.28572379999999,1109,martin luther king jr rd,,city_of_king,,nc,,,a57f6027e0afc5bc
1225,-80.2420077,36.051999,3254,luther st,,forsyth,,nc,27127,,e61db29211aeba9b
1226,-80.22055470000001,36.073176700000005,1838,s martin luther king jr dr,,forsyth,,nc,27107,,39f9c8947d738a20
1227,-80.2316167,36.105338399999994,901,n martin luther king jr dr,APT E,forsyth,,nc,27101,,40062ac052310850
1228,-80.3063889,36.1655723,4986,luther green rd,,forsyth,,nc,27106,,a2929c8b31e1a36e
1229,-78.63784670000001,35.7688449,130,martin luther king jr blvd,,RALEIGH,,nc,,,66e2ecb01fcc54bc
1230,-78.59177729999999,35.7805581,171,luther rd,,RALEIGH,,nc,,,a5e6adaf84383c66
1231,-78.3100266,34.9901054,338,marin luther king jr blvd,,sampson,,nc,,,dcd789a7f271173f
1232,-78.5179394,34.9603198,,w dr martin luther king blvd,,sampson,,nc,,,d46d58e202f622a4
1233,-78.52243440000001,34.9603124,730,dr martin luther king blvd,,sampson,,nc,,,551b4a3c5fb8c497
1234,-78.5193479,34.95933,,w dr martin luther king jr blvd,,sampson,,nc,,,962cd9bc42a9488b
1235,-78.5156391,34.958376799999996,,w dr martin luther kin blvd,,sampson,,nc,,,d04766614e53739a
1236,-78.50961269999999,34.956621399999996,205,e dr martin luther king jr blvd,,sampson,,nc,,,243082aacb933b9a
1237,-78.5092724,34.9562546,270,e dr martin luther king blvd,,sampson,,nc,,,608f8191950fbea3
1238,-78.5076128,34.9548726,314,e dr martin luther ki,,sampson,,nc,,,a683efb236c907c8
1239,-78.50345949999999,34.9527924,608,dr martin luther king jr blvd,,sampson,,nc,,,f5bbe61ffc5e347b
1240,-78.3090774,34.9917813,357,mlk blvd,,sampson,,nc,,,92cf87ace4297eb0
1241,-78.3098127,34.9915899,,mlk jr blvd off,,sampson,,nc,,,99740c2f851548ec
1242,-78.30948149999999,34.9913126,,mlk jr blvd,,sampson,,nc,,,59ff402510999491
1243,-78.3110498,34.9904467,,mlk  blvd,,sampson,,nc,,,3b1a0c31f059ad58
1244,-78.514252,34.9602724,,w mlk blvd off,,sampson,,nc,,,c69655a27cbbd2b2
1245,-78.5158904,34.959337100000006,304,w mlk blvd,,sampson,,nc,,,8ca2214c2eeb12bc
1246,-78.5173219,34.9590741,407,w mlk jr blvd,,sampson,,nc,,,e0ad844a3f1416f0
1247,-78.51167559999999,34.9574225,,e mlk blvd,,sampson,,nc,,,07c682f8c3862557
1248,-80.30135250000001,35.261105900000004,17189,luther rd,,OAK,,nc,,,5cb7a981f70b8291
1249,-80.18821390000001,35.3481127,803,dr martin luther king jr dr,,ALB,,nc,,,0963f3e253bcb39f
1250,-80.0672513,36.3422608,1185,luther williams rd,,stokes,,nc,27042,,0d6cd0ea4e17ed4e
1251,-80.1276386,36.2865665,1236,martin luther king jr rd,,stokes,,nc,27052,,a50a07234e466d5b
1252,-80.09957,36.2780941,2268,martin luther king jr. rd,,stokes,,nc,27052,,65967076287fa6fe
1253,-80.09503959999999,36.2757879,2396,martin luther king rd,,stokes,,nc,27052,,26e22565fd0ce7e1
1254,-80.23044,36.104687899999995,801,north martin luther king jr drive,9A,WS,FORSYTH,nc,27101,,9adff3f65f34f273
1255,-79.5183385,36.083399299999996,3729,luther court,,,ALAMANCE,nc,27215,,490151feb900ed13
1256,-81.1876977,35.9081651,400,martin luther king drive,,,ALEXANDER,nc,28681,,82db36764cc04409
1257,-81.1909565,35.845673,175,luther stafford ave,,,ALEXANDER,nc,28681,,23161db0d22c3d0c
1258,-81.13930440000001,36.0193297,198,luther place,,,ALEXANDER,nc,28654,,66eeb3b7c928f78a
1259,-81.24542679999999,35.9272411,140,luther pennell lane,,,ALEXANDER,nc,28681,,090c27e264df948c
1260,-81.25136090000001,35.820969299999994,70,luthers pointe lane,,,ALEXANDER,nc,28681,,5eb1028670779786
1261,-81.1365057,36.500870500000005,79,luther st,,,ALLEGHANY,nc,28675,,53e61a3cd5812582
1262,-81.45648220000001,36.418615,200,luther road,,,ASHE,nc,28640,,a9fa4c6d806738e4
1263,-81.5248916,36.485303200000004,162,luther testerman road,,,ASHE,nc,28693,,12b8334ba685de97
1264,-76.9100796,36.1966134,113,luther brown rd (1317),,,BERTIE,nc,27924,,a6bec480934a79f1
1265,-76.91027779999999,36.195296,121,luther brown road,,,BERTIE,nc,27924,,246a529ae6bcce31
1266,-78.7874079,34.539274299999995,102,martin luther king jr drive,, ,BLADEN,nc,28320,,3306131f8280c881
1267,-78.839536,34.5829149,670,luther brisson road,, ,BLADEN,nc,28320,,1191fa05d704f037
1268,-82.7415885,35.5481881,656,north luther road,,,BUNCOMBE,nc,28715,,75cb345528778219
1269,-82.6834644,35.5677182,47,pete luther road,,,BUNCOMBE,nc,28715,,443672b9511b2dd4
1270,-82.6870744,35.578208000000004,9,luther cove road,,,BUNCOMBE,nc,28715,,5d3ff8aeb96d17e3
1271,-82.6844325,35.580964200000004,20,luther woods drive,,,BUNCOMBE,nc,28715,,8ee74e96970d02f6
1272,-79.4573688,35.734792600000006,1218,martin luther king jr boulevard,,SILER CITY,CHATHAM,nc,27344,,fdc931e4cac64951
1273,-79.16548590000001,35.717071399999995,191,dr martin luther king jr drive,,PITTSBORO,CHATHAM,nc,27312,,98883418ba8ade81
1274,-84.12800290000001,35.1556285,115,luther kidd road,,MURPHY,CHEROKEE,nc,28906,,dfe30cfe3dc7745f
1275,-83.88983979999999,35.171096,297,luther branch road,,ANDREWS,CHEROKEE,nc,28905,,c4086b45637cc758
1276,-84.21320970000001,35.2000453,10,luther davis road,,MURPHY,CHEROKEE,nc,28906,,8e86032ef1e84c82
1277,-83.8883929,35.1739244,68,julie luther lane,,ANDREWS,CHEROKEE,nc,28905,,2b76f51aae56190a
1278,-78.9921245,34.331841600000004,211,luther conner drive,,FAIR BLUFF,COLUMBUS,nc,28439,,f1f24a6d19ad6535
1279,-78.77395870000001,34.3101844,62,luther thompson drive,,CHADBOURN,COLUMBUS,nc,28472,,da7b7171c0912956
1280,-78.7093093,34.32960870000001,104,north martin luther king ave,,WHITEVILLE,COLUMBUS,nc,28472,,3d8689704e07ef71
1281,-78.7092418,34.3284826,109,south martin luther king ave,,WHITEVILLE,COLUMBUS,nc,28472,,11e9987f5b07b7b8
1282,-79.04285829999999,34.2994443,112,martin luther king jr st,,FAIR BLUFF,COLUMBUS,nc,28439,,1a2fdbf8360a4075
1283,-78.9468658,34.9676459,4028,william bill luther drive,,,CUMBERLAND,nc,28348,,661c6771d6ff40d3
1284,-78.88600600000001,35.0672644,44,martin luther king jr freeway,,,CUMBERLAND,nc,28301,,b4a705dae6cf76dc
1285,-80.09286180000001,35.82247460000001,200,luther lane,,,DAVIDSON,nc,27360,,31fe577b9b36a03d
1286,-80.1793514,35.8144234,297,holly grove luthern church road,,,DAVIDSON,nc,27292,,10c9408f326e3a48
1287,-77.9625573,34.8225445,105,luther sutton lane,,ROSE HILL,DUPLIN,nc,28458,,c46ae58eb566a675
1288,-78.91659709999999,35.9442959,782,martin luther king jr parkway,,DURH,DURHAM,nc,27713,,4aaf756da4c30f7d
1289,-78.9085122,35.9397232,637,martin luther king parkway,,DURH,DURHAM,nc,27713,,cb0bbc1d579f857a
1290,-78.8935555,35.932632899999994,251,east martin luther king jr parkway,,DURH,DURHAM,nc,27713,,23021f137771b7b5
1291,-77.6326439,35.789624700000005,104,north martin luther king jr st,,PINETOPS,EDGECOMBE,nc,27864,,7400399f4b26fa2f
1292,-77.63364909999999,35.788112,201,south martin luther king jr st,,PINETOPS,EDGECOMBE,nc,27864,,a6577f4f33a36d35
1293,-77.63180720000001,35.7908599,118,north martin luther king boulevard,,,EDGECOMBE,nc,27864,,b8ff20cd45529be1
1294,-77.6347668,35.7860234,305,south martin luther king st,,,EDGECOMBE,nc,27864,,69e509315c65677f
1295,-80.30506779999999,36.1659985,2317,luther green road,,WS,FORSYTH,nc,27106,,868d7305faadc5a9
1296,-80.2271395,36.0900376,601,south martin luther king jr drive,26,WS,FORSYTH,nc,27110,,0d5bd890fe07a441
1297,-78.31318279999999,35.932835499999996,344,luther perry road,,ZEB,FRANKLIN,nc,27597,,b1729e7b81b81954
1298,-79.7612413,36.078373,2207,lutheran st,, ,GUILFORD,nc,27401,,62f6357f9f057590
1299,-79.7549358,36.0295245,1413,phifer-luther court,, ,GUILFORD,nc,27406,,4b62331d99522e96
1300,-76.97407690000001,36.2899568,916,north dr martin luther king jr drive,,Ahoskie,HERTFORD,nc,27910,,bdd21d173388db1e
1301,-76.982972,36.2834586,111,south dr martin luther king jr drive,,Ahoskie,HERTFORD,nc,27910,,272f0a377d4752e5
1302,-76.9702819,36.2920037,1301,north dr martin luther king jr drive drive,,Ahoskie,HERTFORD,nc,27910,,2e2426113c53bb5e
1303,-77.571414,35.2683099,711,dr martin luther king jr boulevard,,KINSTON,LENOIR,nc,28501,,cfc4f69d8473d1a5
1304,-81.0880795,35.4547223,707,luther drive,,,LINCOLN,nc,28080,,c4a770ca6cd74766
1305,-81.4768596,35.525042,393,luther scronce road,,,LINCOLN,nc,28168,,92c9ce5e0d8f0b7e
1306,-81.2372391,35.5097034,164,luther shrum lane,,,LINCOLN,nc,28092,,5915bf9accf828ed
1307,-83.41192099999999,35.2533448,128,luther raby road,,FRANKLIN,MACON,nc,28734,,a87d893fc34a3e26
1308,-77.06424559999999,35.854462100000006,408,north martin luther king drive,,,MARTIN,nc,27892,,9a4be98fc59cb556
1309,-80.8407064,35.2173186,800,east martin luther king jr boulevard,,CHARLOTTE,MECKLENBURG,nc,28202,,e9ea51e43873afd5
1310,-80.8478856,35.2260032,255,west martin luther king jr boulevard,,CHARLOTTE,MECKLENBURG,nc,28202,,cc5bf0e985cb8b5a
1311,-80.7442772,35.0712969,3903,luthers rock court,,CHARLOTTE,MECKLENBURG,nc,28270,,568298f5a332ab8d
1312,-79.4101611,35.1654446,1519,luther way,,,MOORE,nc,28387,,173797a77b12b301
1313,-77.94254670000001,34.2548008,100,luther jordan bridge,,,NEW HANOVER,nc,28401,,837a0c9081db5d01
1314,-77.5985692,34.8759118,325,luther banks road,,RICHLANDS,ONSLOW,nc,28574,,4ed0730e8b90be8f
1315,-77.4201528,35.457719700000006,315,luther circle,,AYDE,PITT,nc,28513,,31c277570d951df6
1316,-79.9067348,35.5231468,3924,luther hurley road,,,RANDOLPH,nc,27371,,a13325a658e4ad22
1317,-79.8892929,35.6461468,2052,luther ctry lane,,,RANDOLPH,nc,27205,,3639f0399a6ec8ca
1318,-79.5768244,35.8609838,312,west luther ave,,,RANDOLPH,nc,27298,,a360a4263cc88fbb
1319,-79.57137759999999,35.8616195,101,east luther ave,,,RANDOLPH,nc,27298,,92c7f858b9e31024
1320,-79.80587829999999,35.7068835,425,martin luther king,,,RANDOLPH,nc,27203,,8b318fc245a93184
1321,-80.48242990000001,35.6443653,1988,lutheran synod drive,,SALS,ROWAN,nc,28144,,ee3626141ee6c179
1322,-80.4758712,35.656186299999995,805,south martin luther king jr ave,,SALS,ROWAN,nc,28144,,1bcbf43e1095563f
1323,-80.45889809999998,35.6646473,423,north martin luther king jr ave,,SALS,ROWAN,nc,28144,,3a03990d560ae6a7
1324,-80.4062485,35.58983679999999,875,luther barger road,,SALS,ROWAN,nc,28146,,0bc78b188e94a583
1325,-82.2193457,35.43062570000001,217,luther burbank drive,,,RUTHERFORD,nc,28746,,51acf18a242c2f9d
1326,-80.0672513,36.3422608,1185,luther williams road,,,STOKES,nc,27042,,8ea98ac69d62067e
1327,-80.1276386,36.2865665,1236,martin luther king jr road,,,STOKES,nc,27052,,e96db6c44a8281b9
1328,-80.09957,36.2780941,2268,martin luther king jr. road,,,STOKES,nc,27052,,ca2f4d44a78180f3
1329,-80.09503959999999,36.2757879,2396,martin luther king road,,,STOKES,nc,27052,,9db1e1bfe621395e
1330,-80.0966333,36.2766951,2363,martin luther king jr,,,STOKES,nc,27052,,6e7ef4fe5f5cf500
1331,-77.0409421,35.7733973,1164,luther modlin road,,,MARTIN,nc,27892,,07a36bab3489af03
1332,-80.718233,36.3004834,158,luthers trail,,DOBS,SURRY,nc,27017,,21ecc81cf0828585
1333,-77.89201369999999,35.714541600000004,1707 1707,martin luther king jr parkway east,,,WILSON,nc,27893,,d41fb5e42e301872
1334,-81.3278222,36.2673859,522,luther ridge drive,,,WILKES,nc,28651,,9f5faf2f9a373d18
1335,-81.9470748,35.9617425,141,luther franklin road,,AVERY COUNTY,AVERY,nc,,,ab5e26b3de1b0294
1336,-76.6240104,36.0676792,804,dr martin luther king jr ave,,,CHOWAN,nc,27932,,79c0ba70ab3581fc
1337,-81.4307621,35.2707474,110,luthers road,,,CLEVELAND,nc,28086,,d85f37952dbf2643
1338,-79.3431803,34.7337902,609,east martin luther king jr drive,,,ROBESON,nc,28364,,8f206e3ff0ff98d1
1339,-79.2933847,34.5400467,304,north martin luther king st,,,ROBESON,nc,28383,,8a1e245a795a2d94
1340,-79.0252441,34.6057225,1300,west martin luther king jr drive,,,ROBESON,nc,28358,,420154bee7ccdb6c
1341,-83.59734959999999,35.311779,628,luther bingham road,,,SWAIN,nc,28713,,370261e4c62c92b0
1342,-80.59306579999999,36.5060075,108,luther ridge lane,,MOUN,SURRY,nc,27030,,de55704b7ba0e3ab
1343,-78.247813,36.366023999999996,1966,dr martin luther king jr,,,WARREN,nc,27563,,507d80129860a51f
1344,-76.68296070000001,35.8958339,280,martin luther road,,PLYMOUTH,WASHINGTON,nc,27962,,c7db0efeac81e073
1345,-77.8805052,35.707300700000005,2208 2208,martin luther king jr parkway southeast,,,WILSON,nc,27893,,3107271fc09e9df0
1346,-77.66901899999999,36.1737034,514,martin luther king jr ave,,,HALIFAX,nc,27823,,62c6de6d9f6d460b
1347,-82.41904140000001,35.342121999999996,192,luther capell lane,,HENDERSONVILLE,HENDERSON,nc,28792,,df5e485f09302358
1348,-81.94709940000001,35.9612407,185,luther franklin lane,,AVERY COUNTY,AVERY,nc,,,9b08e6304a46024b
1349,-82.13502009999999,35.2364442,83,luther durham road,,,POLK,nc,28782,,a6bbec9cd5f5767c
1350,-80.4572726,35.6663951,607,north mlk jr ave,,,ROWAN,nc,28144,,61e5bfbd8b377da9
1351,-80.4880049,35.6525716,1620,south mlk jr ave,,,ROWAN,nc,28144,,3e7183fe1399dfd2
1352,-79.07748259999998,36.050042,2313,luther dr,,town_of_chapel_hill,,nc,,,8f6c2bd4ff75100e
1353,-79.0590584,35.952397399999995,1321,martin luther king jr blvd,,town_of_chapel_hill,,nc,,,8386f16635b727c4
1354,-79.0556958,35.9194938,620,martin luther king jr,601,town_of_chapel_hill,,nc,,,b588efab40d0a7b3
1355,-79.0550462,35.9477162,1208,martin luther king jr blvd,500,town_of_chapel_hill,,nc,,,04764bd7c5ef7d02
1356,-76.684191,35.895970299999995,334,martin luther rd,,PLYMOUTH,,nc,27962,,c1b7ef1e20ede6d0
1357,-78.5248363,35.5539218,64,luther ct,,CLAY,,nc,,,564f7b66fbdf85b5
1358,-78.34127190000001,35.4973356,812,martin luther king jr dr,,SMIT,,nc,,,43bea081d3f0c2f9
1359,-78.2832063,35.533582700000004,208,e dr martin luther king jr way,,SELM,,nc,,,ef899e44eedad924
1360,-78.2879599,35.5363235,405,w dr martin luther king jr way,,SELM,,nc,,,8a5a652ae815cc24
1361,-92.28877659999999,34.7492486,,dr martin luther king dr,,pulaski,,ar,,,232b663a885ddeda
1362,-92.2314392,34.645734600000004,,luther ln,,pulaski,,ar,,,4c2ed4613d1ef656
1363,-94.2211626,36.049543299999996,4188,w   martin luther king blvd,,FAYETTEVILLE,,ar,72704,,5f253ac691c5ddee
1364,-94.1594809,36.0561594,15,e   martin luther king blvd,,FAYETTEVILLE,,ar,72701,,6cbf2bc95608666f
1365,-94.0382223,36.0534205,14086,luther rd,,,,ar,72701,,fd37059c37a938a1
1366,-94.16989740000001,36.0567454,680,w  martin luther king blvd,,FAYETTEVILLE,,ar,72701,,143902980ac34744
1367,-94.155204,36.0565872,322,e  martin luther king blvd,,FAYETTEVILLE,,ar,72701,,99a81fbddaa1d604
1368,-76.99278170000001,38.862197200000004,2420,martin luther king jr avenue se,,WASHINGTON,,dc,20020,,81602fd7ae6a5606
1369,-77.0123381,38.8266669,4332,martin luther king jr avenue sw,,WASHINGTON,,dc,20032,,bdeb8266007188b5
1370,-76.6220403,39.2999871,833,n martin luther king jr blvd,,city_of_baltimore,,md,,,a9b21a73630b63b6
1371,-77.0423584,39.5644527,313,luther dr,,carroll,Carroll,md,21158,11754,1dd91ff6321c32ad
1372,-76.682121,39.472583,17,david luther ct,,COCKEYSVILLE,,md,21030,,737b2b26def71e4a
1373,-76.8854317,38.915188,7000,martin luther king junior highway,,HYATTSVILLE,,md,20785,,ee0762d3862dc92e
1374,-76.9028688,38.899376000000004,6035,martin luther king junior court,,CAPITOL HEIGHTS,,md,20743,,2368094ce5898582
1375,-76.6818728,39.468218,3,david luther ct,,COCKEYSVILLE,,md,21030,,0596d025d3f44fd9
1376,-76.63138790000001,39.429488799999994,505,riderwood lutherville dr,,LUTHERVILLE TIMONIUM,,md,21093,,3d553951837850c5
1377,-78.7207587,39.6431741,13200,luther lane se,,CUMBERLAND,,md,21502,,67a6d45b72ed46eb
1378,-76.638696,39.1417711,300,luther road,,GLEN BURNIE,,md,21061,,92dcce85384a3991
1379,-76.6349228,39.2048137,600,luther st,,BROOKLYN,,md,21225,,0180699e3ea5ce62
1380,-76.6287071,39.2931093,300,n martin luther king jr blvd,,BALTIMORE,,md,21201,,de23b650f832919b
1381,-77.0427584,39.5658984,301,luther dr,,WESTMINSTER,,md,21158,,4ad64e20bce55cab
1382,-76.90346650000001,38.89903579999999,6005,martin luther king jr ct,,CAPITOL HEIGHTS,,md,20743,,707b8b7432e04a5e
1383,-76.9011244,38.9087656,901,martin luther king jr hwy,,CAPITOL HEIGHTS,,md,20743,,35f710d1b372df1e
1384,-75.7841318,38.0341284,5549,luther miles lane,,MARION STATION,,md,21838,,f96c406e82cd9816
1385,-75.6705765,38.4229494,27170,martin luther dr,,HEBRON,,md,21830,,206202abc557a2fc
1386,-75.66451550000001,39.0977691,157,luther marvel dr,,Camden Wyoming,,de,19934,,b9045bf5bf2ce255
1387,-75.5196903,39.156384499999994,150,martin luther king jr blvd s,APT RM09,Dover,,de,19901,,e21d2f30ad415903
1388,-75.5165286,39.1572222,400,martin luther king jr blvd,,Dover,,de,19901,,6c40bae7dd717153
1389,-75.520486,39.1585119,121,martin luther king jr blvd n,,Dover,,de,19901,,d9ce77ce1c5f9e6e
1390,-75.519548,39.1561589,150,martin luther king jr blvd  apt 10k08,,city_of_dover,,de,,,8b741f466d55ad6a
1391,-75.5203981,39.155956599999996,122,martin luther king jr blvd,,city_of_dover,,de,,,b6687b07a308c908
1392,-90.0976014,29.951791999999998,3935,"martin luther king, jr. boulevard",,New Orleans,,la,,85001841,187ee54bc448ea1a
1393,-91.4224327,30.701721000000003,102,luther avenue,,NEW ROADS,,la,,,df6f68b5ea6d0291
1394,-91.5177265,30.6026983,4898,luther robillard,,LIVONIA,,la,,,fa969f14168af1e6
1395,-93.8504564,32.544464500000004,3488,dr martin luther king jr,,caddo,,la,,,b10904d5cada37ab
1396,-93.3602782,31.9879538,511,martin luther king dr,,COUSHATTA,,la,71019,,57dfdc8acb2a02ff
1397,-93.0701595,32.7876051,1405,martin luther king dr,,claiborne,,la,,,5d8bb377452a193c
1398,-91.6614819,29.9031408,200,martin luther king,,iberia,,la,,,4ac3c50fe171260a
1399,-93.4669071,32.9968262,708,martin luther king dr,,SPRINGHILL,,la,71075,,33dd889ee0e428bb
1400,-93.45325720000001,32.969206400000004,253,martin luther king jr dr,,CULLEN,,la,71075,,57155d957f20c654
1401,-90.0976014,29.951791999999998,3935,"martin luther king, jr. boulevard",,New Orleans,,la,,85001841,73710fc1c25e398d
1402,-91.0273868,29.939879600000005,0,dr. martin luther king dr,,assumption,,la,,,b270cb7007281e2c
1403,-91.4964775,32.464334,103,martin luther king dr,,DELHI,,la,71232,,4f565a25665f03a3
1404,-91.6799179,32.460488500000004,167,luther stowe rd,,RAYVILLE,,la,71269,,16e4888ffa4c42af
1405,-91.6527172,32.591684,15,luther horn rd,,RAYVILLE,,la,71269,,3391a767d78095aa
1406,-93.27373840000001,30.8391728,508,martin luther king dr,,beauregard,,la,,,dce8a1bffdbebc2c
1407,-93.6325641,30.6049484,325,luther warden rd,,beauregard,,la,,,1c11a36ad38109c5
1408,-93.4214907,30.6471015,170,virgil luther rd,,beauregard,,la,,,221aab58a8c17b4c
1409,-91.5606562,31.6251876,503,martin luther king rd,,FERRIDAY,,la,71334,,409e001bc196f72f
1410,-91.6268245,31.6046914,186,luther denim rd,,FERRIDAY,,la,71334,,1f466afa7d888715
1411,-90.56504720000001,30.483161300000003,28597,luther stewart rd,,livingston,,la,,,fa3d90581633980f
1412,-90.124204,29.8767464,2044,luther dr,,jefferson_parish,,la,70072,,79c00e866795d7de
1413,-93.7006392,32.0298809,702,martin luther king dr,,MANSFIELD,,la,,,01d54fac6d5c0d9d
1414,-93.6995662,32.2746059,185,luther ln,,FRIERSON,,la,,,3c1e3fe24dfda227
1415,-92.0154569,30.248110999999998,1308,martin luther king jr dr,,LAFAYETTE,,la,70501,,465aeddf02570c56
1416,-93.0955855,31.7578903,321,martin luther king d,,natchitoches,,la,,,1eb8cc88c0486e90
1417,-93.09574930000001,31.7565984,219,martin luther king,,natchitoches,,la,,,ddc93dea129be5ed
1418,-93.3786797,31.830296899999997,290,luther eason rd.,,natchitoches,,la,,,536a67c04facff11
1419,-91.8355937,30.118026,719,s s martin luther king dr dr,,st_martin,,la,70582,,a214122a8f23ea41
1420,-91.83062509999999,30.1309586,727,n n martin luther king dr dr,,st_martin,,la,70582,,8eede791927f05de
1421,-90.75762579999999,29.611755300000002,1733,martin luther king blvd,,HOUMA,,la,70360,,9d44025faa19244c
1422,-90.98626309999999,30.1216469,37052,martin luther king st,,Darrow,,la,70725,,e921395aba796e6e
1423,-90.99856329999999,30.103489500000002,903,martin luther king dr,,Donaldsonville,,la,70346,,d6ab5098344f32a0
1424,-90.99801219999999,30.105015,810,martin luther king jr dr,A,Donaldsonville,,la,70346,,339ea79bd97ee8e1
1425,-90.0262182,35.133744,1069,doctor martin luther king junior ave,,MEMPHIS,SHELBY,tn,38104,,827280af2af254ec
1426,-89.8293895,35.2316909,3881,luther rd,,BARTLETT,SHELBY,tn,38135,,b246ff72283f7f87
1427,-85.2923407,35.0400937,1031,e  martin luther king blvd,,CHATTANOOGA,,tn,37403,,771b38e83a4056a5
1428,-85.3165236,35.046964100000004,400,w  martin luther king blvd,,CHATTANOOGA,,tn,37402,,e67124a707941f9c
1429,-89.82976070000001,35.256931099999996,4808,luther rd,,city_of_memphis,,tn,,,0130a7c6ee8c9d50
1430,-86.89998709999999,35.62321420000001,LUTHER SHARP RD 1686,luther sharp rd 1686,,maury,,tn,,,b8e50dd549999cb1
1431,-86.9023269,35.6238991,LUTHER SHARP RD 1658,luther sharp rd 1658,,maury,,tn,,,6adf8e397bdae2bb
1432,-86.9043699,35.628221200000006,LUTHER SHARP RD 1653,luther sharp rd 1653,,maury,,tn,,,4226cb7f2862db79
1433,-86.8905732,35.629662700000004,LUTHER SHARP RD 1841,luther sharp rd 1841,,maury,,tn,,,6f0e988088fc0983
1434,-86.887437,35.6292744,LUTHER SHARP RD 1871,luther sharp rd 1871,,maury,,tn,,,2e04bff53f962ffa
1435,-86.88938780000001,35.6274979,LUTHER SHARP RD 1846,luther sharp rd 1846,,maury,,tn,,,3c743883809f2d6e
1436,-86.87426500000001,35.626583200000006,LUTHER SHARP RD,luther sharp rd,,maury,,tn,,,fca5bf4703878dfa
1437,-86.8803733,35.626713099999996,LUTHER SHARP RD 1981,luther sharp rd 1981,,maury,,tn,,,6246da660c4374ca
1438,-86.8793899,35.62662529999999,LUTHER SHARP RD 1989,luther sharp rd 1989,,maury,,tn,,,0ffc12f1ebc48d2f
1439,-86.8741392,35.6251235,LUTHER SHARP RD 2027,luther sharp rd 2027,,maury,,tn,,,c3cca242be66d984
1440,-86.8861569,35.622499299999994,LUTHER SHARP RD 1860,luther sharp rd 1860,,maury,,tn,,,969eeb66888b52d8
1441,-86.8749561,35.62424620000001,LUTHER SHARP RD 2024,luther sharp rd 2024,,maury,,tn,,,f6066156b155b0c4
1442,-86.8948715,35.6231761,LUTHER SHARP RD 1832,luther sharp rd 1832,,maury,,tn,,,6c92845708408fc5
1443,-86.88407099999999,35.6286155,LUTHER SHARP RD 1913,luther sharp rd 1913,,maury,,tn,,,5191d7ce0c5bd236
1444,-86.88493309999998,35.6262064,LUTHER SHARP RD 1901,luther sharp rd 1901,,maury,,tn,,,5a0fe8f138e7c870
1445,-86.8851275,35.6300656,LUTHER SHARP RD 1885,luther sharp rd 1885,,maury,,tn,,,a5fbad47fe66fe0d
1446,-86.8764917,35.62346289999999,LUTHER SHARP RD 2004,luther sharp rd 2004,,maury,,tn,,,d7675bbd60150a1f
1447,-86.8765917,35.621672700000005,LUTHER SHARP RD 2002,luther sharp rd 2002,,maury,,tn,,,aa4861be863a975b
1448,-86.8900001,35.6143164,LUTHER SHARP RD S OF,luther sharp rd s of,,maury,,tn,,,715ea7d5767e4cbb
1449,-86.89051640000001,35.6222027,LUTHER SHARP RD 1854,luther sharp rd 1854,,maury,,tn,,,9538b2a7228d7ee0
1450,-86.8929531,35.6246776,LUTHER SHARP RD 1837,luther sharp rd 1837,,maury,,tn,,,0250f4b9b3099e39
1451,-86.89465030000001,35.6255974,LUTHER SHARP RD 1840 & 1825,luther sharp rd 1840 & 1825,,maury,,tn,,,ffe7b3caa43d383b
1452,-86.90219520000001,35.6235733,LUTHER SHARP RD 1682,luther sharp rd 1682,,maury,,tn,,,928ffa7b2253e594
1453,-86.90042790000001,35.6275639,LUTHER SHARP RD 1703,luther sharp rd 1703,,maury,,tn,,,194ee9c569f9f29b
1454,-83.545677,35.9478461,2858,luther catlett cir,,sevier,,tn,37876,,8578060106257f8d
1455,-83.451126,35.8834304,130,luther clinton way,,sevier,,tn,37876,,045c7eb51138ce5c
1456,-83.49964990000001,35.9355592,920,luther way,,sevier,,tn,37876,,dace2ded9f033e65
1457,-83.558683,36.1036498,1008,martin luther king dr,,NEW MARKET,JEFFERSON,tn,37820,,31986e8cdd409adc
1458,-83.6773625,36.068203999999994,3222,luther beason way,,STRAWBERRY PLAINS,JEFFERSON,tn,37871,,1c44d632b07316ef
1459,-83.93385409999999,35.795937200000004,427,luther jackson dr,,statewide,,tn,,,a66aa35ea0c00948
1460,-84.0323236,35.73645629999999,,luther mac ln,,statewide,,tn,,,e6aaec24d3ba50e9
1461,-84.0304896,35.734750700000006,145,luther mac ln 131,,statewide,,tn,,,644ece1ac07b521b
1462,-83.92330129999999,35.836564700000004,205,luther anderson rd,,statewide,,tn,,,ec90c339404015b8
1463,-83.92309540000001,35.836257700000004,215,luther anderson dr,,statewide,,tn,,,221a0d49e779ee50
1464,-83.9361135,35.797476700000004,313,luther jakcson dr,,statewide,,tn,,,d666b990cf2e5a92
1465,-83.93621479999999,35.7867594,2707,luther rd,,statewide,,tn,,,1d862dc7c71b43ef
1466,-84.02891340000001,35.7329937,115,luther mac ln 113,,statewide,,tn,,,b6a4f1b6e07d495f
1467,-84.02797690000001,35.733050299999995,112,luther mac ln 114,,statewide,,tn,,,8e6415aebe54e7ab
1468,-84.03010640000001,35.735329899999996,132,luther mac ln 126,,statewide,,tn,,,66bbb61d44dd68b7
1469,-84.2240551,36.3548856,1126,luther seiber blvd,,statewide,,tn,,,c7afd99481d209d7
1470,-84.23881440000001,36.374876799999996,,luther seibers blvd,,statewide,,tn,,,fd77b77ac808d0d5
1471,-85.78187890000001,36.526565600000005,,luther pedigo rd,,statewide,,tn,,,5d2459d1563d98d7
1472,-83.07312979999999,36.052436799999995,1572,luther memorial rd,,statewide,,tn,,,7699218358d55664
1473,-85.0421511,35.9421405,29,luther farley ln,,statewide,,tn,,,409a08281e4c834d
1474,-87.3736723,36.072046,,hwy 70 e & luther rd,,statewide,,tn,,,2f5fc0407ecd6b81
1475,-87.36530090000001,36.069505799999995,204,luther ct,,statewide,,tn,,,ae0436c989b6385b
1476,-87.3652697,36.069781799999994,202,luther court,,statewide,,tn,,,c75e7130e05fd2e0
1477,-87.3685662,36.0690058,,s/luther rd,,statewide,,tn,,,9a80554303be074f
1478,-87.36598000000001,36.078244399999996,,luther lake,,statewide,,tn,,,8f05716d5b21bffe
1479,-87.36964509999999,36.070979799999996,,luther rd/w hills terr,,statewide,,tn,,,7d2df3365cb7456c
1480,-87.32442270000001,35.9896216,50,luther hogin rd,,statewide,,tn,,,c169c798834ce14f
1481,-87.25599749999999,36.0248865,,luther ln,,statewide,,tn,,,98029700b4adbac1
1482,-87.3798347,36.0698184,111,martin luther king blvd,,statewide,,tn,,,11652bb5a7503357
1483,-89.40714759999999,36.0401488,609,martin luther king dr,,statewide,,tn,,,fc4232974b65d64e
1484,-89.4072682,36.0387057,501,martin luther king,,statewide,,tn,,,b73983e9f7b97dd3
1485,-83.66966740000001,36.300885799999996,425,luther shelton ln,,statewide,,tn,,,081867d3fde7016a
1486,-88.7586745,35.8639559,12,napoleon luther rd,,statewide,,tn,,,173e18650f152e86
1487,-88.76158170000001,35.863588299999996,,napolean luther rd,,statewide,,tn,,,5059545578d9df56
1488,-88.7610363,35.8640723,26,naoleon luther rd,,statewide,,tn,,,66589a8e67086a7b
1489,-82.7912475,36.180909,210,luther st,,statewide,,tn,,,63e2795bf7c94a8d
1490,-85.6511389,35.4486416,,luther brown rd,,statewide,,tn,,,af59040b71834a18
1491,-85.64891659999999,35.4488112,201,/117 luther brown rd,,statewide,,tn,,,6b61d153b8ffd44a
1492,-83.20211450000001,36.255726200000005,290,luther profitt rd,,statewide,,tn,,,4a18096aa125f2cc
1493,-83.3102541,36.1943766,936,dr martin luther king jr pkwy,,statewide,,tn,,,e25c75323d817e75
1494,-83.2464413,36.4827681,,luther villa rd,,statewide,,tn,,,380b8fa584cf9949
1495,-89.14312070000001,35.329828000000006,,martin luther king dr s of,,statewide,,tn,,,5e202de819569dd9
1496,-89.1452875,35.3296193,,martin luther king jr dr,,statewide,,tn,,,b0c54fe7a250b672
1497,-89.1448016,35.329769,413,martin luther king jr,,statewide,,tn,,,36fd17a410a3affc
1498,-88.9807761,35.21564910000001,,luther ln e of,,statewide,,tn,,,6da63c18107f9bb7
1499,-88.16206820000001,35.1790526,,luther fay ln,,statewide,,tn,,,eafdec2bbfd4aca7
1500,-83.675489,36.071321600000005,3249,luther beason way,,statewide,,tn,,,c5f4cf83c43b239e
1501,-83.67696600000001,36.069349700000004,43,luther beason way 3239-,,statewide,,tn,,,1f47a20e3388dc7f
1502,-87.37482879999999,35.2466678,1705,luther ave,,statewide,,tn,,,a6062c618cbac2b2
1503,-88.5954105,35.0755075,176,luther ingle rd,,statewide,,tn,,,3e44239c0a8967ce
1504,-88.57243509999999,35.09093920000001,,luther ingle rd e of,,statewide,,tn,,,145cd8362008ffeb
1505,-88.8148954,35.6093146,351,dr martin luther king,,statewide,,tn,,,27a325fad0e4c3db
1506,-86.8755121,35.626133100000004,,luther sharp rd,,statewide,,tn,,,19d3f8b81c4e2caa
1507,-86.8900001,35.6143164,,luther sharp rd s of,,statewide,,tn,,,afd5ea537473bbd1
1508,-88.8855763,36.4795439,,luther allen rd,,statewide,,tn,,,2620c29a7d784415
1509,-89.061555,36.429716799999994,,martin luther king w,,statewide,,tn,,,b500170663398b52
1510,-89.06078120000001,36.4292626,,martin luther king dr w,,statewide,,tn,,,22657b48330f0d1a
1511,-88.89047120000001,36.4693434,,luther allen,,statewide,,tn,,,e7ad1d3ddb0ddaaf
1512,-89.04460870000001,36.4273816,1101,martin luther king e,,statewide,,tn,,,bcdd28f5fd5aa383
1513,-89.26423299999999,36.3142211,766,luther davis rd,,statewide,,tn,,,8cd813f2d24608a6
1514,-89.26455059999999,36.31769370000001,,luther davis,,statewide,,tn,,,6bcbeceda5a805f5
1515,-89.2700668,36.31452879999999,709,luther davis rd 791 &,,statewide,,tn,,,efa2b29e283451f4
1516,-84.6837291,35.8750511,510,martin luther king jr. dr.,,statewide,,tn,,,4dba697ae89c5664
1517,-84.68457140000001,35.87474279999999,502,martin luther king jr dr.,,statewide,,tn,,,0569bd214b3ee8e8
1518,-84.68493070000001,35.8753594,501,martin luther king jr. d,,statewide,,tn,,,6926e2d93813af7a
1519,-84.5521146,36.4092386,460,luther phillips rd,,statewide,,tn,,,27af1b91cf643358
1520,-83.5458388,35.9481465,2860,luther catlett cir,,statewide,,tn,,,bee92618b03e2047
1521,-83.4993714,35.935610100000005,920,luther way,,statewide,,tn,,,68e0193fe64b742b
1522,-83.45113559999999,35.8825499,,luther clinton way,,statewide,,tn,,,5271bb4c3bb3d80e
1523,-85.9566768,36.19886760000001,8,luther allen ln,,statewide,,tn,,,69b27f8f3b314237
1524,-87.7582869,36.5766261,288,luther mathis rd,,statewide,,tn,,,7cc09782ebbd5007
1525,-85.31084320000001,35.0453593,100,w  martin luther king blvd,816,CHATTANOOGA,,tn,37402,,95326d92656d7989
1526,-85.30464429999999,35.0441279,326,e  martin luther king blvd,,CHATTANOOGA,,tn,37403,,604034960a00c229
1527,-85.10739190000001,35.1204495,7085,luther trl,,HAMILTON COUNTY,,tn,37363,,c1f1e676fb5f576a
1528,-83.9338975,35.7949982,420,luther jackson dr,,BLOUNT COUNTY,,tn,37804,,4df7e644b15a4542
1529,-83.9230276,35.8360183,221,luther anderson dr,,BLOUNT COUNTY,,tn,37853,,f18ec334a2dc3f9b
1530,-83.9355011,35.7870697,2710,luther rd,,BLOUNT COUNTY,,tn,37804,,c0c9a0c03600022d
1531,-84.02921020000001,35.7332181,115,luther mac ln,,BLOUNT COUNTY,,tn,37801,,118965ed41039845
