,LON,LAT,NUMBER,STREET,UNIT,CITY,DISTRICT,REGION,POSTCODE,ID,HASH
0,-114.21449009999998,46.31560579999999,659,luther ln,,ravalli,,mt,,,c4b172470d68c9a7
1,-108.59509080000001,45.7753023,502,luther cir,,yellowstone,,mt,,,b301822d06fec467
2,-109.4005047,45.299273,75,lower luther rd,,carbon,,mt,,,3db7df42cd58ad07
3,-109.38135559999999,45.268249700000005,189,upper luther rd,,carbon,,mt,,,bb48f63762c2523e
4,-109.4269233,45.2786102,25,luther roscoe rd,,carbon,,mt,,,e5073eb0be9f4ac5
5,-109.4619152,45.289530600000006,,upper luther,,carbon,,mt,,,9a5fa1c95d6a41ca
6,-109.4245723,45.2848901,2,luther roscoe rd,,LUTHER,,mt,59068,,231bd39b4129a6c8
7,-109.4090563,45.2827218,528,upper luther rd,,RED LODGE,,mt,59068,,5135845fdf6e191e
8,-109.42495149999999,45.283833,5,luther roscoe rd,,RED LODGE,,mt,59068,,e8a07ddae3dd0d94
9,-109.400549,45.2991612,75,lower luther rd,,RED LODGE,,mt,59068,,31d988b6f1b355a9
10,-114.180027,47.9743545,616,lutheran camp rd,,LAKESIDE,,mt,59922,,9b271dec29ea4b4c
11,-114.2112986,46.314525,627,luther ln,,HAMILTON,,mt,59840,,250abe9d691e6802
12,-108.5949366,45.776603,642,luther cir,,BILLINGS,,mt,59102,,03c444ec7eec6975
13,-114.1939221,47.974991499999994,290,lutheran camp rd,,flathead,,mt,,,745beadf9005ac67
14,-147.5046854,64.9013195,875,luthers loop,,fairbanks_north_star_borough,,ak,,11702,6083cb8be094f043
15,-147.8226343,64.84032090000001,4000,marian luther ln,,fairbanks_north_star_borough,,ak,,39740,262e95dc0e3160de
16,-149.81319119999998,61.1767459,3620,doctor martin luther king junior ave,TRLHD,anchorage,,ak,99507,,b08a980be07cb7a4
17,-104.8944017,39.76034129999999,8087,e martin luther king jr blvd,,denver,,co,,,50e732039776c227
18,-104.9296946,39.7620605,4977,e martin luther king blvd,,denver,,co,,,f6c9cfb699117e13
19,-104.79767890000001,39.8840658,10351,luther ct,,COMMERCE CITY,ADAMS,co,80022,,faaa9e54d2c0e9a2
20,-104.6793441,38.9235264,6350,luther rd,,el_paso,,co,,,3b6a8a241c51ff41
21,-104.73904379999999,38.8487842,1062,lutheran way,,el_paso,,co,,,1667302e22eea919
22,-105.09005,39.762800399999996,3210,lutheran pkwy,,jefferson,,co,80033,,3b0d49a4286ac2b0
23,-104.87211059999998,39.760260200000005,9907,east martin luther king jr boulevard,,,,co,,,2686d0bb11931316
24,-104.97264809999999,39.7623156,1223,east martin luther king boulevard,,,,co,,,b428f9079f28f5b3
25,105.09012,39.76271,3210,lutheran parkway,,Wheat Ridge,,co,80033,,64d3aa3b1119df79
26,-105.1264446,40.525616799999995,2626,luther,,Fort Collins,,co,80526,,68fed799b0be4ee1
27,-121.67323390000001,36.66131729999999,1240,luther way,16,Salinas,,ca,93901,,4b7c78212fcb4791
28,-119.3291446,36.20322279999999,1132,martin luther king jr ave,#A,TULARE,,ca,93274,,935bb65068c68ec6
29,-117.821982,33.672787299999996,17482,luther ave,,city_of_irvine,,ca,,,f86b8e83011ade4c
30,-117.05183629999999,32.682511600000005,2417,luther st,,San Diego,,ca,92139,,15c582e08cec27f1
31,-120.47565230000001,37.30744620000001,2400,martin luther king jr way,,merced,,ca,,,913ed4e274fecfa8
32,-121.90990690000001,37.328204299999996,1047,luther av,,city_of_san_jose,,ca,,26128069,cc4f626292f1cc71
33,-116.98909990000001,32.7132353,938,luther dr,,Spring Valley,,ca,91977,5792833000,2eb63bfaf4a4590e
34,-116.9891973,32.8548213,9658,lutheran way,,Santee,,ca,92071,3805701900,be2607a1eef4ca9b
35,-117.05226280000001,32.6821554,2406,luther st,,San Diego,,ca,92139,5884403500,8a3b26eaa41ede84
36,-116.9921264,32.855283,9739,lutheran ct,,Santee,,ca,92071,3805502100,a5182a2cc643ae6f
37,-116.9883797,32.7143211,967,luther dr,,SPRING VALLEY,,ca,91977,5791001700,343f8f6b5ca78758
38,-118.1803098,33.777256799999996,840,martin luther king jr ave,,city_of_long_beach,,ca,,,89ebfe82b5953014
39,-117.8228254,33.671980700000006,17542,luther av,,IRVINE,,ca,,447-062-09,f3e0ecb95d2e926d
40,-122.4769015,37.766304999999996,996,martin luther king jr dr,,san_francisco,,ca,94122,,0ed06426555adbe2
41,-121.0721983,38.929392299999996,12619,luther ridge ct,,placer,,ca,95603,,a5221dde10e02b58
42,-121.08327759999999,38.9266092,12150,luther rd,,placer,,ca,95603,,293d3bc8d6a9da77
43,-119.1659439,34.215484499999995,1211,martin luther king jr dr,,Oxnard,,ca,93030,,900283e1a5347bfa
44,-118.85522830000001,34.2996715,6936,luther cir,,Moorpark,,ca,93021,,a256ce5de40a1af6
45,-118.8801065,34.2227135,3284,luther ave,,Thousand Oaks,,ca,91360,,d1c2e3130e2051f5
46,-118.88011000000002,34.221654,3240,n luther ave,,Thousand Oaks,,ca,91360,,139a1b1f47fdea9f
47,-121.97237849999999,37.330903899999996,438,luther dr,,SANTA CLARA,,ca,95051,,cb206b9d991eebec
48,-118.25804070000001,34.0111417,1001,east   martin luther king jr boulevard,,Los Angeles,,ca,90011,,a597800c484433b9
49,-118.29234450000001,34.011075899999994,1001,west   martin luther king jr boulevard,,Los Angeles,,ca,90037,,bb15b834f97f4b72
50,-118.2923854,34.0110765,1005,west   martin luther king boulevard,,Los Angeles,,ca,90037,,cd2d069ae9503b2b
51,-118.1803567,33.7793239,1014,martin luther king jr avenue,,Long Beach,,ca,90813,,9448c4c6ce4ddf9d
52,-118.21525759999999,33.9363635,10720,martin luther king jr boulevard,,Lynwood,,ca,90262,,1b29a68f14545a37
53,-118.2726506,34.0109783,128,east   martin luther king boulevard,,Los Angeles,,ca,90011,,efc0add2d78a98b8
54,-118.4639521,34.413051,27236,luther drive,701,Canyon Country,,ca,91351,,0c1a6ee264ba953b
55,-118.22240900000001,33.9380324,2805,martin luther king jr boulevard,,South Gate,,ca,90280,,35eed4cc29f9de18
56,-118.19609309999998,34.085204600000004,3504,north   luther street,,Los Angeles,,ca,90031,,537473d97d686a8d
57,-118.3315997,33.9538967,3532,luther lane,,Inglewood,,ca,90305,,13062373c82584f0
58,-118.2816893,34.01089520000001,446,martin luther king jr boulevard,,Los Angeles,,ca,90037,,c2e84e6d70642576
59,-118.9850129,35.3568164,131,dr martin luther king jr blvd,D,BAKERSFIELD,,ca,93307,59629,eb6f6fcd889ccefd
60,-117.35919950000002,33.9685595,2291,martin luther king bl,,city_of_riverside,,ca,,,3423d21dca9d8caf
61,-117.4097106,33.948804200000005,4895,luther st,,city_of_riverside,,ca,,,05694784c31c4b43
62,-117.4077873,33.9485797,4810,luther st,,RIVERSIDE,,ca,92504,,a011da100d7a1164
63,-117.3506047,33.968489,1795,martin luther king blvd,,RIVERSIDE,,ca,92507,,5a93a855b2268b3c
64,-122.02690600000001,37.2596868,14360,lutheria wy,,SARATOGA,,ca,95070-5915,,e793c3fcbc323b7d
65,-121.91006100000001,37.3281968,1051,luther av,,SAN JOSE,,ca,95126-3003,,487795075e531c65
66,-121.97257450000001,37.3307235,428,luther dr,,SANTA CLARA,,ca,95051-6220,,5df32d67e149dafd
67,-119.80022040000001,36.71936420000001,2228,s martin luther king jr blvd,,fresno,,ca,93706,,24e0fbcf5e8a5589
68,-123.40044950000001,41.859691,28,luther gulch rd,,HAPPY CAMP,,ca,96039,,7f4ba208fd7f0bc4
69,-118.28628,34.0109,730,"w martin luther king, jr blvd",,city_of_los_angeles,,ca,90037,115-5A201  82,cefbf15cff10c7d7
70,-118.25437,34.011309999999995,1183,"e martin luther king, jr blvd",,city_of_los_angeles,,ca,90011,115-5A209 145,5905a85ab935cfd9
71,-118.19646000000002,34.08533,3516,n luther st,,city_of_los_angeles,,ca,90031,142-5A227 139,0e3e8850c32eef16
72,-121.62065190000001,39.7617006,784,luther dr,,PARADISE,,ca,95969,,134a6d742effe7d7
73,-121.80840359999999,39.7232952,2061,dr martin luther king jr pkwy,#167,CHICO,,ca,95928,,afc52629f6dec0ca
74,-122.26846019999999,37.8308935,4101,martin luther king jr wy,,OAKLAND,,ca,94609,12-1014-5-2,352f4ff2d890c3e9
75,-122.2717475,37.857145700000004,2820,martin luther king jr wy,,BERKELEY,,ca,94703,53-1677-14,45e42447ab2b6cd9
76,-122.0899354,37.6613298,1343,martin luther king dr,,HAYWARD,,ca,94541,431-118-242,55e5b550795bb91d
77,-104.3599085,41.1937268,128,n luther ave,,laramie,,wy,82053,,c479bfd4e0c9d930
78,-104.76686959999999,41.150778700000004,3551,luther pl,,laramie,,wy,82001,,0cf1dfe71f6fd227
79,-104.35989529999999,41.191867200000004,122,s luther ave,,laramie,,wy,82053,,bd31fa34051f8519
80,-104.82727120000001,41.1303057,1111,martin luther king ct,,laramie,,wy,82001,,1c90327d3bf0b2e4
81,-104.3600385,41.1937984,128,n luther ave,,statewide,,wy,,14620730500300,2a3ffd1183af8820
82,-104.36010390000001,41.1922443,114,luther ave,,statewide,,wy,,14620731100500,1ee7ad22affe930a
83,-104.3601071,41.1913506,134,luther,AVE,statewide,,wy,,14620731101600,82e95576555823f2
84,-104.7668309,41.1494469,3503,luther pl,,statewide,,wy,,14662731100700,a91e26fc1fad07f7
85,-106.64331990000001,35.086549299999994,301,martin luther king av ne,,albuquerque,,nm,,,e956867dab24ba33
86,-110.26929240000001,31.5578325,"2,900.000000000000000",martin luther king jr pkwy,,SIERRA VISTA CITY,,az,85635,,4c3d3a9504e72837
87,-111.55834820000001,32.7502525,213,w dr martin luther king jr st,,pinal,,az,,,547f6240285d9080
88,-112.0438847,33.0416788,44345,w martin luther king jr blvd,,pinal,,az,,,d2d263f9f1658dd9
89,-111.317679,32.434255,12615,n luther av,,MARANA,,az,85653,,3ff9a76e7b3c90b7
90,-111.64608670000001,33.4067667,435,s luther,,MESA,,az,85208,,a7ec7ecd966f250d
91,-111.64641440000001,33.4449498,1630,n luther,,MESA,,az,85207,,1d4f88aa85aa6f45
92,-112.05782240000002,33.4502249,205,n martin luther king cir,,PHOENIX,,az,85034,,8ca1120734f842af
93,-112.05794540000001,33.4504424,209,n martin luther king cir,,statewide,,az,,,31e69d20c06e4f0e
94,-111.6460994,33.4060767,463,s luther,,statewide,,az,,,97e350f815d7dc20
95,-111.64641999999999,33.4448298,1626,n luther,,statewide,,az,,,a0b8807c3d023736
96,-116.8199473,47.607612100000004,2995,w lutherhaven rd,,COEUR D ALENE,,id,83814,,0cd66528492b3656
97,-123.0509607,44.9226336,545,luther st s,,marion,,or,,,8a0e36f9020a0ff1
98,-123.35129850000001,44.0530494,25119,luther ln,,Veneta,,or,97487,,26eb14fd29cdd5e2
99,-123.0701223,44.0616507,2515,martin luther king jr blvd,,Eugene,,or,97401,,d9a29b5117a35662
100,-123.03144820000001,44.0784796,3100,martin luther king jr pkwy,,Springfield,,or,97477,,af3e0cd9ab184e1d
101,-122.58876229999998,45.46131679999999,7281,se luther rd,,PORTLAND,,or,97206,,e66cb00b5c5678d1
102,-123.04648619999999,44.9220521,230,luther st s,,marion_and_polk,,or,,,9cb73367ee186e74
103,-122.58101950000001,45.4622429,7939,se luther rd,,PORTLAND,,or,97206,,ba1153a63ef51acd
104,-120.4943383,46.6078981,909,e martin luther king jr blvd,,YAKIMA,,wa,98901,,b30cc0b84eab8346
105,-120.51020520000002,46.6037064,102,w martin luther king jr blvd,,YAKIMA,,wa,98902,,04b54321b06b84ce
106,-120.51317240000002,46.602998299999996,0,n 3rd ave/martin luther king jr blvd,,YAKIMA,,wa,98902,,6999ca44141bdb88
107,-120.12781389999999,46.3292476,388,luther rd,,GRANGER,,wa,98932,,0b4b569f11a2c427
108,-120.121035,46.3251749,0,luther road,, ,,wa, ,,b2818f2a048a3510
109,-120.1219253,46.3195661,1150,luther rd,,OUTLOOK,,wa,98938,,f45b943de8392ff2
110,-122.45387179999999,47.2596896,314,martin luther king jr way,,city_of_tacoma,,wa,,,51e1087508a0c344
111,-122.4533818,47.2573472,520,martin luther king j way,,city_of_tacoma,,wa,,,768b0f9a593d2208
112,-122.4505679,47.245315999999995,1710,martin luther king jr way,#D,Tacoma,,wa,98405,,a58ecf4694d03a89
113,-117.3938128,47.6591459,1112,e  martin luther king jr way,,Spokane,,wa,,,9f0ade506ec6ddf2
114,-119.28005630000001,46.300709600000005,1907,luther pl,,city_of_richland,,wa,99354,,2745775ef10b05ea
115,-122.26622890000002,47.500912799999995,11128,luther ave s,,SEATTLE,KING,wa,98178,503758,0ba611d522c44418
116,-122.28039,47.531836299999995,7860,martin luther king jr way s,,SEATTLE,KING,wa,98118,503760,f22ee8ee62af0415
117,-122.25953059999999,47.48870529999999,12658,martin luther king jr way s,,,KING,wa,98178,507366,3781898beeae9a1f
118,-122.29650590000001,47.6040877,216,martin luther king jr way,,SEATTLE,KING,wa,98122,444351,b93edf53e26e975c
119,-122.29585279999999,47.6198048,128,martin luther king jr way e,,SEATTLE,KING,wa,98112,433117,46b882fe3443f000
120,-122.27888590000002,47.5093815,10401,martin luther king jr way s,,TUKWILA,KING,wa,98178,588857,e779658b177b2175
